Category,Name,Address,Suburb,State,Postcode,Phone,Fax,Email,Website,Staff,Established,ABN,ABN_Status,ABN_Type,ABN_Accuracy
Religious Organisations,Aboriginal Evangelical Fellowship,16 Highclere Blv,Marangaroo,WA,6064,(08) 9342 7243,,,,,,14 719 010 013,Active,Entity Name,25% ABN Accuracy
Religious Organisations,Adelaide College of Ministries Incorporated,20A Fourth Ave,Klemzig,SA,5087,(08) 8369 1414,,,,,,81 588 746 059,Active,Entity Name,25% ABN Accuracy
Religious Organisations,Anglican Institute Of Theology,Wollaston Education Centre Wollaston Rd,Mt Claremont,WA,6010,(08) 9286 0270,,,,,,59 962 540 635,Active,Other Name,25% ABN Accuracy
Religious Organisations,AngliCORD,Trinity Hall 16 Trinity Pl,East Melbourne,VIC,3002,(03) 9495 6100,,,,,,39 116 072 050,Active,Entity Name,25% ABN Accuracy
Religious Organisations,Archbishop Mannix Missionary College,Ventnor St,Oakleigh,VIC,3166,(03) 9569 0707,,,,,,43 206 946 086,Active,DGR Name,25% ABN Accuracy
Religious Organisations,Australia for Christ Fellowship,1070 Stud Rd,Rowville,VIC,3178,(03) 9764 8330,(03) 9764 8011,info@acfchurch.com,www.acfchurch.com,,1986,32 006 659 356,Active,Entity Name,25% ABN Accuracy
Religious Organisations,Australian Evangelical Alliance Inc.,44 Rutland Rd,Box Hill,VIC,3128,(03) 9890 0633,,,,,,54 056 007 820,Active,Entity Name,25% ABN Accuracy
Religious Organisations,Australian Province of The Society of Jesus,130 Power St,Hawthorn,VIC,3122,(03) 9810 7300,,,,,,19 179 772 790,Active,Entity Name,25% ABN Accuracy
Religious Organisations,Belgrave Heights Convention Centre Office,3 Convention Ave,Belgrave Heights,VIC,3160,(03) 9752 6855,,,,,,87 004 352 685,Active,Entity Name,25% ABN Accuracy
Religious Organisations,Belgrave Heights Convention Lodge,23 Lockwood Rd,Belgrave Heights,VIC,3160,(03) 9754 2220,,,,,,87 004 352 685,Active,Entity Name,25% ABN Accuracy
Religious Organisations,Bethel Life Centre,111 George Way,Cannington,WA,6107,(08) 9350 6443,,,,,,35 504 275 391,Active,Entity Name (Historic),25% ABN Accuracy
Religious Organisations,Bible Translators,70 Graham Rd,Kangaroo Ground,VIC,3097,1300 362 025,,,http://www.wycliffe.org.au,,,22 004 705 953,Active,Entity Name,25% ABN Accuracy
Religious Organisations,Blessed Sacrament Fathers,326 Lonsdale St,Melbourne,VIC,3000,(03) 9639 2887,,,,,,74 052 548 400,Active,Entity Name,25% ABN Accuracy
Religious Organisations,Bright Moon Buddhist Society,536 Springvale Rd,Springvale,VIC,3171,(03) 9558 5487,,,,,,88 245 919 930,Active,Entity Name,25% ABN Accuracy
Religious Organisations,Buddhist Meditation Centre,12 Horwood St,Whyalla,SA,5600,(08) 8645 4620,,,,,,19 727 954 271,Active,Entity Name,25% ABN Accuracy
Religious Organisations,Buddhist Society Of Victoria,71 Darling Rd,Malvern East,VIC,3145,(03) 9571 6409,,,,,,89 738 755 249,Active,Entity Name,25% ABN Accuracy
Religious Organisations,Buddhist Society Of Western Australia (Inc),18 Nanson Way,Nollamara,WA,6061,(08) 9345 1711,,,,,,22 382 478 365,Active,Entity Name,25% ABN Accuracy
Religious Organisations,Buddhist Society Of Western Australia (Inc),287 Reen Rd,Gidgegannup,WA,6083,(08) 9574 6583,,,,,,22 382 478 365,Active,Entity Name,25% ABN Accuracy
Religious Organisations,Bush Church Aid Society,30 Croydon Rd,Keswick,SA,5035,(08) 8351 5950,,,,,,38 434 490 314,Active,Entity Name,25% ABN Accuracy
Religious Organisations,Bush Church Aid Society,1 Burgundy St,Heidelberg,VIC,3084,(03) 9457 7556,,,www.bushchurchaid.com.au,,,38 434 490 314,Active,Entity Name,25% ABN Accuracy
Religious Organisations,Caleb Ministries Inc,33 Blackburn Rd,Blackburn,VIC,3130,1300 767 444,,,,,,56 517 850 119,Active,Entity Name (Historic),25% ABN Accuracy
Religious Organisations,Calvary Worship Centre,Shop 20 Springvale Plaza 792-806 Heatherton Rd,Springvale,VIC,3171,(03) 9547 4787,,,,,,83 386 320 815,Active,Entity Name,25% ABN Accuracy
Religious Organisations,Chabad House of Bentleigh,13-17 Cecil St,Bentleigh East,VIC,3165,(03) 9563 7935,,,,,,50 203 376 804,Active,Entity Name,25% ABN Accuracy
Religious Organisations,Chabad House Of Malvern,316 Glenferrie Rd,Armadale,VIC,3143,(03) 9822 4985,,,,,,31 899 232 724,Active,Entity Name,25% ABN Accuracy
Religious Organisations,Challenge Literature Fellowship (Aust),59B Kelvin Rd,Wattle Grove,WA,6107,(08) 9453 3311,,john@challengenews.org,http://www.challengenews.org,,,98 206 125 814,Active,Trading Name,25% ABN Accuracy
Religious Organisations,Child Evangelism Fellowship,7 High St,Sheffield,TAS,7306,(03) 6491 1369,,,,,,27 003 210 624,Active,Entity Name,25% ABN Accuracy
Religious Organisations,Child Evangelism Fellowship,1089 Riversdale Rd,Surrey Hills,VIC,3127,(03) 9808 6561,,,,,,27 003 210 624,Active,Entity Name,25% ABN Accuracy
Religious Organisations,Chinese Christian Association of Australia,1027 Whitehorse Rd,Box Hill,VIC,3128,(03) 9899 3207,,,,,,22 613 345 483,Active,Entity Name,25% ABN Accuracy
Religious Organisations,Chinese Christian Church Of Victoria Inc,67 Springvale Rd,Nunawading,VIC,3131,(03) 9878 2368,,,,,,70 972 235 132,Active,Entity Name,25% ABN Accuracy
Religious Organisations,Christ Embassy,Paget St,Hilton,WA,6163,0404 792 087,,kesfrance@yahoo.com,,,,79 162 839 787,Active,Entity Name,25% ABN Accuracy
Religious Organisations,Christian & Missionary Alliance,Cnr Montague Rd and Dwight St,Modbury,SA,5092,(08) 8396 2232,,,,,,72 368 044 741,Active,Entity Name,25% ABN Accuracy
Religious Organisations,Church Of Jesus Christ Of Latter Day Saints,Ollerton Ave,Newborough,VIC,3825,(03) 5127 3429,,,,,,87 586 411 904,Active,Entity Name (Historic),25% ABN Accuracy
Religious Organisations,Church Of Jesus Christ Of Latter-Day-Saints,628 Canterbury Rd,Mitcham,VIC,3132,(03) 8872 5600,,,,,,87 586 411 904,Active,Entity Name (Historic),25% ABN Accuracy
Religious Organisations,Church On the Rock,180-184 Bathurst St,Hobart,TAS,7000,0448 441 684,,,,,,15 629 317 950,Active,Entity Name,25% ABN Accuracy
Religious Organisations,Churches Commission on Education,272 Selby St,Wembley,WA,6014,(08) 9383 9377,,,,,,70 172 899 396,Active,Entity Name,25% ABN Accuracy
Religious Organisations,City on a Hill: Melbourne,Level 3/ 211 La Trobe St,Melbourne,VIC,3000,(03) 9640 0990,,info@cityonahill.com.au,http://www.cityonahill.com.au,,,43 292 063 559,Active,Entity Name,25% ABN Accuracy
Religious Organisations,City Revival Ministries,44 Memorial Dr,Noble Park,VIC,3174,0401 183 147,,josehnry@gmail.com,http://www.cityrevivalministries.org,,,52 052 772 552,Active,Entity Name,25% ABN Accuracy
Religious Organisations,Council For Christian Education,Level 5/ 695 Burke Rd,Camberwell,VIC,3124,(03) 9804 0733,,,,,,43 139 580 746,Active,Entity Name,25% ABN Accuracy
Religious Organisations,Dallas Welfare & Youth Services Inc,26 Millewa Crst,Dallas,VIC,3047,(03) 9302 2402,,,,,,39 851 031 355,Active,Entity Name,25% ABN Accuracy
Religious Organisations,David Glory Group,Level 50 101 Collins St,Melbourne,VIC,3000,(03) 9653 9633,,,,,,38 060 005 076,Active,Entity Name,25% ABN Accuracy
Religious Organisations,Esperance Church Of Christ Christian Fellowship inc.,19 Milner St,Esperance,WA,6450,(08) 9071 7173,,laurencebeach@hotmail.com,,,,49 789 107 208,Active,Trading Name,25% ABN Accuracy
Religious Organisations,Evangelical Alliance Inc,44 Rutland Rd,Box Hill,VIC,3128,(03) 9890 0633,,,,,,54 056 007 820,Active,Entity Name,25% ABN Accuracy
Religious Organisations,Federation Of Australian Buddhist Councils,,Footscray West,VIC,3012,0432 408 756,,,www.buddhistcouncil.org.au,,,65 862 613 089,Active,Entity Name,25% ABN Accuracy
Religious Organisations,Freedom Church,8 Kaloorup Rd,Vasse,WA,6280,0401 319 747,,thomasgcooper@hotmail.com,http://www.freedomchurchsouthwest.com,,,89 332 704 878,Active,Entity Name,25% ABN Accuracy
Religious Organisations,Grace Lutheran Church,15 Wembley Ave,Bridgewater,SA,5155,(08) 8339 3375,,,,,,63 176 797 960,Active,Entity Name,25% ABN Accuracy
Religious Organisations,Hamilton Hill Bible Church,56-60 Redmond Rd,Hamilton Hill,WA,6163,(08) 9314 1891,,,,,,53 415 231 227,Active,Entity Name (Historic),25% ABN Accuracy
Religious Organisations,Hare Krishna Movement,197 Danks St,Albert Park,VIC,3206,(03) 9699 5122,,,,,,53 390 638 202,Active,Entity Name (Historic),25% ABN Accuracy
Religious Organisations,Holy Spirit Catholic Church,147 Seperation St,Bell Park,VIC,3215,(03) 5278 1343,,,,,,60 144 969 790,Active,Entity Name,25% ABN Accuracy
Religious Organisations,I AM Temple Saint Germain Foundation Inc.,3rd Floor/ 358 Lonsdale St,Melbourne,VIC,3000,(03) 9602 1988,,,,,,35 916 254 292,Active,Entity Name,25% ABN Accuracy
Religious Organisations,Independent Church of Australia,,Glen Waverley,VIC,3150,(03) 9562 1333,,,,,,54 007 507 002,Active,Entity Name,25% ABN Accuracy
Religious Organisations,Initiatives of Change,226 Kooyong Rd,Toorak,VIC,3142,(03) 9822 1218,,,,,,22 004 350 789,Active,Entity Name,25% ABN Accuracy
Religious Organisations,International Gospel Centre,112 Glenroy St,Athol Park,SA,5012,(08) 8300 7311,,,,,,97 277 524 707,Active,Entity Name,25% ABN Accuracy
Religious Organisations,Interserve (Australia),28 Croydon Rd,Keswick,SA,5035,(08) 8293 2900,,,,,,12 041 298 204,Active,Entity Name,25% ABN Accuracy
Religious Organisations,Iscast,300 Huntingdale Rd,Huntingdale,VIC,3166,(02) 9385 4584,,,,,,11 003 429 338,Active,Entity Name,25% ABN Accuracy
Religious Organisations,Islamic Co-Ordinating Council of Victoria,155 Lygon St,Brunswick East,VIC,3057,(03) 9380 6143,,,,,,60 284 069 184,Active,Entity Name,25% ABN Accuracy
Religious Organisations,Islamic Society of Melbourne Eastern Region,1273 Wellington Rd,Lysterfield,VIC,3156,(03) 9752 9977,,,,,,36 974 270 612,Active,Entity Name,25% ABN Accuracy
Religious Organisations,Jewish Learning Centre,338 Greenhill Rd,Glenside,SA,5065,0403 816 626,,,,,,58 075 310 575,Active,Entity Name,25% ABN Accuracy
Religious Organisations,Jewish National Fund,61 Woodrow Ave,Yokine,WA,6060,(08) 9275 2761,,,,,,32 108 796 878,Active,Entity Name,25% ABN Accuracy
Religious Organisations,Kagyu E-Vam Buddhist Institute,673 Lygon St,Carlton North,VIC,3054,(03) 9387 3118,,,,,,30 414 677 915,Active,Trading Name,25% ABN Accuracy
Religious Organisations,Khesed Ministries,Latimer Way,Langford,WA,6147,(08) 9451 7213,,,,,,93 136 869 323,Active,Trading Name,25% ABN Accuracy
Religious Organisations,Kingdomcity Perth,15 Finlay Pl,Wangara,WA,6065,(08) 9309 4818,,,Visit Our Website,,,97 787 651 869,Active,Entity Name,25% ABN Accuracy
Religious Organisations,Knights Of The Southern Cross (S.A.) Incorporated,336 Marion Rd,North Plympton,SA,5037,(08) 8371 3301,,,,,,66 020 002 957,Active,Entity Name,25% ABN Accuracy
Religious Organisations,KPMG TRUST,Suite 11/ 1101 Hay St,West Perth,WA,6005,(08) 6558 0457,,info@kpmgtrust.com,http://www.kpmgtrust.com,,,43 841 587 842,Active,Entity Name,25% ABN Accuracy
Religious Organisations,Legion Of Mary,36 Windsor St,Perth,WA,6000,(08) 9328 2726,,,,,,48 936 250 135,Active,Entity Name (Historic),25% ABN Accuracy
Religious Organisations,Legion Of Mary Senatus Of Melbourne,456 Queensberry St,North Melbourne,VIC,3051,(03) 9328 4757,,,,,,36 742 986 516,Active,Entity Name,25% ABN Accuracy
Religious Organisations,LifeWorks Relationship Counselling & Education Services,1 Johnson Ave,Hoppers Crossing,VIC,3029,(03) 9974 3200,,,,,,50 071 373 950,Active,DGR Name (Historic),25% ABN Accuracy
Religious Organisations,LifeWorks Relationship Counselling & Education Services,1/ 666 Mountain Hwy,Bayswater,VIC,3153,(03) 8650 6200,,lifeworks@lifeworks.com.au,http://www.lifeworks.com.au,,,50 071 373 950,Active,DGR Name (Historic),25% ABN Accuracy
Religious Organisations,Lutheran Media,197 Archer St,North Adelaide,SA,5006,(08) 8267 7314,,luthmedia@lca.org.au,www.lutheranmedia.org.au,,,99 476 253 356,Active,Entity Name,25% ABN Accuracy
Religious Organisations,Melbourne Christian Disciples Church,15 Ellingworth Parade,Box Hill,VIC,3128,0425 125 051,,,,,,82 650 537 103,Active,Entity Name,25% ABN Accuracy
Religious Organisations,Melbourne Thai Buddhist Temple,489 Elgar Rd,Box Hill,VIC,3128,(03) 9899 0883,,,,,,85 556 874 186,Active,Entity Name,25% ABN Accuracy
Religious Organisations,Middle East Christian Outreach,5 Court St,Box Hill,VIC,3128,(03) 9898 0077,,,,,,59 615 943 131,Active,Entity Name,25% ABN Accuracy
Religious Organisations,Missionary Training College,Station Rd,St Leonards,TAS,7250,(03) 6337 0444,,,,,,22 000 637 749,Active,Business Name (Historic),25% ABN Accuracy
Religious Organisations,Mountain District Vineyard Church,,suppressed,suppressed,,(03) 9738 0065,,a_day@tpg.com.au,http://www.mountaindistrictchurch.com.au,,,15 750 817 016,Active,Entity Name,25% ABN Accuracy
Religious Organisations,MST Melbourne School of Theology,5 Burwood Hwy,Wantirna,VIC,3152,(03) 9881 7800,,,,,,58 004 265 016,Active,Entity Name,25% ABN Accuracy
Religious Organisations,Nations Church,10 Hayden Ct,Myaree,WA,6154,(08) 9330 8306,,info@nationschurch.com,http://www.nationschurch.com,,,20 739 138 976,Active,Entity Name,25% ABN Accuracy
Religious Organisations,New Age Spiritualist Mission,35 Farview Crst,Ridgehaven,SA,5097,(08) 8264 9623,,,,,,50 998 202 157,Active,Entity Name,25% ABN Accuracy
Religious Organisations,New Life Christian Centre,105 Dyson Rd,Christies Beach,SA,5165,(08) 8384 4814,,,,,,37 407 781 196,Active,Entity Name,25% ABN Accuracy
Religious Organisations,Northside Baptist Church,145 Nelson Rd,Para Vista,SA,5093,(08) 8263 0806,,,,,1978,24 318 383 986,Active,Entity Name,25% ABN Accuracy
Religious Organisations,Northway Christian Centre,8 Coglin Rd,Elizabeth South,SA,5112,(08) 8255 8255,,,,,,21 849 861 186,Active,Entity Name,25% ABN Accuracy
Religious Organisations,OAC Ministries,Dorene St,St Marys,SA,5042,(08) 8374 4326,,,,,,59 000 275 829,Active,Entity Name,25% ABN Accuracy
Religious Organisations,OAC Ministries (Aust),9 Castlemain Hts,Leeming,WA,6149,(08) 9310 6220,,,,,,59 000 275 829,Active,Entity Name,25% ABN Accuracy
Religious Organisations,ONE Life Church,13-15 Ormsby Ave,Parafield Gardens,SA,5107,(08) 8258 3865,,pastorjeff.marshall@gmail.com,http://www.gardenschurch.org,,,93 833 865 791,Active,Entity Name,25% ABN Accuracy
Religious Organisations,Order Of St Luke The Physician In Australia,112 100 Harold St,Wantirna,VIC,3152,,(03) 9837 5101,,,,,70 001 220 631,Active,Entity Name,25% ABN Accuracy
Religious Organisations,Potters House Christian Centre Midland,12 Loton Ave,Midland,WA,6056,0424 463 549,,danivee@live.com.au,www.pottershousemidland.com,,,35 214 126 727,Active,Entity Name,25% ABN Accuracy
Religious Organisations,Presbyterian Church In Western Australia,14 Broadway St,Bassendean,WA,6054,(08) 9248 3252,,,,,,88 617 816 558,Active,Entity Name,25% ABN Accuracy
Religious Organisations,Presbyterian Church In Western Australia,,Bicton,WA,6157,(08) 9339 3542,,,,,,88 617 816 558,Active,Entity Name,25% ABN Accuracy
Religious Organisations,Reach Community Church,Unit 2 177 Beavers Rd,Northcote,VIC,3070,(03) 9481 6889,,info@reachcc.org,www.reachcc.org,,,28 820 048 811,Active,Entity Name,25% ABN Accuracy
Religious Organisations,Real Life Church,,suppressed,suppressed,,(08) 9398 7170,,rochelle@reallifechurchwa.com,http://REALLIFECHURCHWA.COM,,,65 217 939 953,Active,Entity Name,25% ABN Accuracy
Religious Organisations,Rejoice Chinese Christian Communication Centre,Ste 7/ 2 Burwood Hwy,Burwood East,VIC,3151,(03) 9888 7422,,,,,,99 027 261 737,Active,Entity Name,25% ABN Accuracy
Religious Organisations,Revival Fellowship Warrnambool,,Warrnambool,VIC,3280,(03) 5561 3834,,,,,,88 541 921 783,Active,Entity Name,25% ABN Accuracy
Religious Organisations,S A Zhulin Buddhist Association,151 May Tce,Ottoway,SA,5013,(08) 8447 4022,,,,,,97 409 763 363,Active,Entity Name,25% ABN Accuracy
Religious Organisations,Sai Baba Organisation,83 Glenhuntly Rd,Elwood,VIC,3184,(03) 9772 6643,,,,,,98 679 526 281,Active,Entity Name,25% ABN Accuracy
Religious Organisations,Saint Ignatius Centre,110 Elizabeth St,Richmond,VIC,3121,(03) 9428 1212,,,,,,72 005 269 554,Active,Business Name,25% ABN Accuracy
Religious Organisations,Salesian Society,25 Lipsett Tce,Brooklyn Park,SA,5032,(08) 8351 8072,,,,,,62 009 477 918,Active,Entity Name,25% ABN Accuracy
Religious Organisations,Scripture Union Of Western Australia,82 Matlock St,Mt Hawthorn,WA,6016,(08) 9443 5055,,,,,,34 474 372 309,Active,Entity Name,25% ABN Accuracy
Religious Organisations,Scripture Union Of Western Australia,7 Irvine St,Bayswater,WA,6053,(08) 9371 9100,,,www.suwa.org.au,,,34 474 372 309,Active,Entity Name,25% ABN Accuracy
Religious Organisations,Seaford Ecumenical Mission,Cnr Main and Grand Boulevard,Seaford,SA,5169,(08) 8392 4522,,,,,,40 683 967 385,Active,Entity Name,25% ABN Accuracy
Religious Organisations,Seventh Day Adventist Reform Movement,14 Gilbert Rd,Somerton Park,SA,5044,(08) 8376 0163,,,,,,82 496 201 901,Active,Entity Name (Historic),25% ABN Accuracy
Religious Organisations,Sikh Community Of Western Victoria,560 Davis Rd,Tarneit,VIC,3029,(03) 9748 1448,,,,,,97 090 225 458,Active,Entity Name,25% ABN Accuracy
Religious Organisations,Social Policy Connections,34 Bedford St,Box Hill,VIC,3128,(03) 9890 1077,,admin@socialpolicyconnections.com.au,http://www.socialpolicyconnections.com.au/,,,97 387 847 085,Active,Entity Name,25% ABN Accuracy
Religious Organisations,Society Of Christian Doctrine,4 Sandleheath Rd,Elizabeth Grove,SA,5112,(08) 8255 1991,,,,,,16 479 430 975,Active,Entity Name,25% ABN Accuracy
Religious Organisations,Society Of St Pius X,19 Tynong Rd,Tynong,VIC,3813,(03) 5629 1045,,,,,,88 002 738 365,Active,Entity Name,25% ABN Accuracy
Religious Organisations,Society Of St Pius X,40 Ludstone St,Hampton,VIC,3188,(03) 9598 3848,,,,,,88 002 738 365,Active,Entity Name,25% ABN Accuracy
Religious Organisations,Sonlife Ministries Inc,Cnr McNabb Loop and Murray St,Como,WA,6152,(08) 9313 1600,,,www.sonlife.com.au,,,23 012 897 310,Active,Entity Name,25% ABN Accuracy
Religious Organisations,South Eastern Christian Centre,2- 8 Gleneagles Dr,Endeavour Hills,VIC,3802,(03) 9700 2314,,,secc.org.au,,,49 650 744 395,Active,Entity Name,25% ABN Accuracy
Religious Organisations,Spiritual Assembly of the Baha'is of Stirling,,Tuart Hill,WA,6060,(08) 6103 8332,,,,,,66 040 026 087,Active,Entity Name,25% ABN Accuracy
Religious Organisations,St Bartholomews House,Swan Unit,Midland,WA,6056,(08) 9274 0888,,,,,,92 491 228 162,Active,Entity Name,25% ABN Accuracy
Religious Organisations,St Brigid's Catholic Church,13 High St,Healesville,VIC,3777,(03) 5962 4026,,,www.stbrigidshealesville.cam.org.au/,,,99 374 070 760,Active,Entity Name,25% ABN Accuracy
Religious Organisations,St Columban's Mission Society Office,69 Woodland St,Essendon,VIC,3040,(03) 9375 9475,,,www.columban.org.au,,,17 686 524 625,Active,Entity Name,25% ABN Accuracy
Religious Organisations,St Marks Community Centre,Cnr George and Moor Sts,Fitzroy,VIC,3065,(03) 9419 3288,,,,,,35 967 059 134,Active,Entity Name,25% ABN Accuracy
Religious Organisations,Subud Melbourne,166-168 Elder St,Heatherton,VIC,3202,(03) 9551 4307,,,,,,54 320 269 704,Active,Entity Name,25% ABN Accuracy
Religious Organisations,Tasmanian Council Of Churches,35 Tower Rd,New Town,TAS,7008,0499 016 969,,,,,,78 305 140 399,Active,Entity Name,25% ABN Accuracy
Religious Organisations,The Catholic Diocese of Broome,27 Robinson St,Broome,WA,6725,(08) 9192 1822,,,www.broomediocese.org/index.html,,,37 040 099 127,Active,Trading Name,25% ABN Accuracy
Religious Organisations,The Greek Orthodox Community Of SA,L 1 262-288 Franklin St,Adelaide,SA,5000,(08) 8231 4307,,,http://www.gocsa.org.au,,,39 650 504 515,Active,Trading Name,25% ABN Accuracy
Religious Organisations,The Sufi Movement In Australia Inc,16 Petronella Ave,Wheelers Hill,VIC,3150,(03) 9561 4861,,irenenuriadaly@iprimus.com.au,,,,65 200 668 712,Active,Entity Name,25% ABN Accuracy
Religious Organisations,Theosophical Society,,suppressed,suppressed,,(08) 8223 1129,,,,,,76 487 580 644,Active,Entity Name,25% ABN Accuracy
Religious Organisations,Tibetan Buddhist Society,1425 Mickleham Rd,Yuroke,VIC,3063,(03) 9333 1770,,contact@tushika.org,http://www.tibetanbuddhistsociety.org/,,,53 194 089 142,Active,Trading Name,25% ABN Accuracy
Religious Organisations,Tribunal Of The Catholic Church,383 Albert St,East Melbourne,VIC,3002,(03) 9639 4211,,,,,,39 028 643 733,Active,Trading Name,25% ABN Accuracy
Religious Organisations,Trinity North East,2-18 Golden Grove Rd,Modbury North,SA,5092,(08) 8395 5819,,admin@trinitynortheast.org.au,http://www.trinitynortheast.org.au,,,46 556 124 243,Active,Entity Name,25% ABN Accuracy
Religious Organisations,Truth & Liberation Concern (Christian Community Church),265 Canterbury Rd,Bayswater North,VIC,3153,(03) 9729 6555,,,,,,76 587 071 524,Active,Entity Name,25% ABN Accuracy
Religious Organisations,Uniting Care Wesley Adelaide,Kuitpo Community Admnstrn and Rehabilitation,Hope Forest,SA,5172,(08) 8556 7320,,,,,,33 174 490 373,Active,Other Name,25% ABN Accuracy
Religious Organisations,Victorian Council Of Christian Education,2A Chapel St,St Kilda,VIC,3182,(03) 9529 4377,,,,,,96 810 755 635,Active,Entity Name,25% ABN Accuracy
Religious Organisations,Vietnamese Christian Community Incorporated,29 South Tce,Pooraka,SA,5095,(08) 8359 1229,,,,,,35 403 543 569,Active,Entity Name (Historic),25% ABN Accuracy
Religious Organisations,Watchtower Bible & Tract Society,758 Nepean Hwy,Mt Martha,VIC,3934,(03) 5973 6182,,,,,,42 002 861 225,Active,Entity Name,25% ABN Accuracy
Religious Organisations,West City Christian Church,86-88 Central Ave,Altona Meadows,VIC,3028,0413 001 703,,westcitychristianchurch@gmail.com,,,,29 995 453 295,Active,Entity Name,25% ABN Accuracy
Religious Organisations,Whiteharvest,47 Bunny Rd,Clayton,VIC,3168,(03) 9558 1668,,,,,,41 539 367 761,Active,Trading Name,25% ABN Accuracy
Religious Organisations,Woman's Christian Temperance Union,Unit 17 4 Ventnor Ave,West Perth,WA,6005,(08) 9322 1648,,,,,,37 470 458 235,Active,Entity Name,25% ABN Accuracy
Religious Organisations,World to Christ International,,McKinnon,VIC,3204,0409 076 176,,wtciaus@gmail.com,http://www.wtci.org.au,,,96 802 114 776,Active,Entity Name,25% ABN Accuracy
Religious Organisations,Youth For Christ,60 Victoria St,Warragul,VIC,3820,(03) 5623 5470,,,,,,75 034 537 271,Active,Entity Name,25% ABN Accuracy
Religious Organisations,Brethren,81 Frederick St,Unley,SA,5061,0408 140 949,,,,,,21 095 356 700,Cancelled,Entity Name,25% ABN Accuracy
Religious Organisations,Catholic Communications,39 Wakefield St,Adelaide,SA,5000,(08) 8210 8117,,,,,,93 453 417 717,Cancelled,Entity Name,25% ABN Accuracy
Religious Organisations,CityLife Church,284 Thompsons Rd,Lower Templestowe,VIC,3107,(03) 9871 8300,,,,,,25 185 756 875,Cancelled,Trading Name,25% ABN Accuracy
Religious Organisations,Fruitful Vine Ministries,500 Kelletts Rd,Lysterfield,VIC,3156,(03) 9752 7767,,,http://www.fruitfulvine.org,,,14 086 906 381,Cancelled,Entity Name,25% ABN Accuracy
Religious Organisations,Lutheran Church,8 Clarence St,Lameroo,SA,5302,(08) 8576 3322,,,,,,74 195 858 811,Cancelled,Entity Name,25% ABN Accuracy
Religious Organisations,Mary MacKillop Centre,,Mt Eliza,VIC,3930,(03) 9787 1250,,retreat.mteliza@sosj.org.au,,,,49 167 462 561,Cancelled,Entity Name,25% ABN Accuracy
Religious Organisations,Mission Interlink,44 Rutland Rd,Box Hill,VIC,3128,(03) 9890 0644,,,,,,16 270 803 390,Cancelled,Trading Name,25% ABN Accuracy
Religious Organisations,Mission Travel,605 Camberwell Rd,Camberwell,VIC,3124,1300 554 654,,,http://www.missiontravel.com.au/,,,91 534 867 393,Cancelled,Other Name,25% ABN Accuracy
Religious Organisations,South American Missionary Society,149 Broadgully Rd,Diamond Creek,VIC,3089,(03) 9438 3050,,,,,,32 223 440 634,Cancelled,Entity Name,25% ABN Accuracy
Religious Organisations,Students for Christ Victoria & Tasmania,11- 17 Evans St,Burwood,VIC,3125,(03) 9808 1369,,,,,,30 754 803 649,Cancelled,Trading Name,25% ABN Accuracy
Religious Organisations,Sukyo Mahikari Australia,Hobart Centre 1st Floor Biggins Block Old Hobart High School,North Hobart,TAS,7000,(03) 6231 6435,,,,,,34 310 903 471,Cancelled,Entity Name,25% ABN Accuracy
Religious Organisations,Anglicare Tasmania Inc,6 Strahan St,South Burnie,TAS,7320,1800 243 232,,,,,,90 979 742 836,Active,Entity Name,50% ABN Accuracy
Religious Organisations,Assemblies Of God,114 Nollamara Ave,Nollamara,WA,6061,(08) 9344 3942,,,,,,16 231 783 503,Active,Entity Name,50% ABN Accuracy
Religious Organisations,Assembly Of God,65 Albert St,Sebastopol,VIC,3356,(03) 5336 1166,,office@citychurchballarat.com,http://www.citychurchballarat.com,,,60 909 571 262,Active,Trading Name,50% ABN Accuracy
Religious Organisations,Assembly Of God,88 Main Rd,Hepburn Springs,VIC,3461,(03) 5348 3492,,office@citychurchballarat.com,http://www.Citychurchballarat.com,,,60 909 571 262,Active,Trading Name,50% ABN Accuracy
Religious Organisations,Australian Christian Churches,300 Albert St,East Melbourne,VIC,3002,(03) 9896 7999,,,,,,58 123 514 361,Active,Entity Name,50% ABN Accuracy
Religious Organisations,Australian Fellowship Of Evangelical Students,29 Deepdean Ave,Mitchell Park,SA,5043,(08) 8276 9338,,,,,,91 509 626 599,Active,Entity Name,50% ABN Accuracy
Religious Organisations,Catholic Church,Golden Grove Rd,Greenwith,SA,5125,(08) 8289 7533,,,,,,45 373 620 104,Active,Business Name,50% ABN Accuracy
Religious Organisations,Catholic Church,Kentish Rd,Gawler Belt,SA,5118,(08) 8523 0088,,,,,,45 373 620 104,Active,Business Name,50% ABN Accuracy
Religious Organisations,Catholic Development Fund,65 Foster St,Sale,VIC,3850,(03) 5144 4311,,,,,,15 274 943 760,Active,Trading Name,50% ABN Accuracy
Religious Organisations,Catholic Development Fund,Cnr Yarra and Myer Sts,Geelong,VIC,3220,(03) 5222 1977,,,,,,15 274 943 760,Active,Trading Name,50% ABN Accuracy
Religious Organisations,Catholic Development Fund,160 Foster St,Dandenong,VIC,3175,(03) 9794 9520,,,,,,15 274 943 760,Active,Trading Name,50% ABN Accuracy
Religious Organisations,Catholic Development Fund,96 Wellington Parade,East Melbourne,VIC,3002,(03) 9411 4200,,invest@melbcdf.org.au,www.melbcdf.org.au,,,15 274 943 760,Active,Trading Name,50% ABN Accuracy
Religious Organisations,Catholic Education Office,,Broome,WA,6725,(08) 9192 2275,,,,,,91 893 631 195,Active,Entity Name,50% ABN Accuracy
Religious Organisations,Catholic Parish,34 Santa Gertrudis Dr,Lower Chittering,WA,6084,(08) 9571 8068,,,http://www.ginginchitteringparish.org.au,,,25 328 758 007,Active,Other Name,50% ABN Accuracy
Religious Organisations,Chabad House,,Launceston,TAS,7250,(03) 6334 0705,,,,,,69 075 532 197,Active,Entity Name (Historic),50% ABN Accuracy
Religious Organisations,Christian Business Men - Australia,1A Sandford St,Tea Tree Gully,SA,5091,(08) 8395 0395,,,,,,42 005 622 515,Active,Business Name,50% ABN Accuracy
Religious Organisations,Christian Church In Australia,111 George Way,Cannington,WA,6107,(08) 9350 6443,,,,,,44 902 486 497,Active,Entity Name,50% ABN Accuracy
Religious Organisations,Christian Family Church,33 Cants Rd,Colac,VIC,3250,(03) 5231 1106,,,,,,17 073 741 934,Active,Entity Name (Historic),50% ABN Accuracy
Religious Organisations,Christian Outreach Centre,40 Donovans Rd,Warrnambool,VIC,3280,(03) 5562 0333,,,,,,72 157 669 672,Active,Entity Name,50% ABN Accuracy
Religious Organisations,Common Ground Church,Maiden Gully Hall Carolyn Way,Maiden Gully,VIC,3551,0423 700 770,,info@commongroundlife.com.au,http://www.commongroundlife.com.au,,,53 573 084 286,Active,Entity Name,50% ABN Accuracy
Religious Organisations,Congregational Christian Church in Samoa Melbourne Parish Inc.,1 Hollow Way,Mill Park,VIC,3082,0401 187 881,,cccsmelbparish@yahoo.com.au,,,,39 097 054 918,Active,Entity Name,50% ABN Accuracy
Religious Organisations,Connect Christian Church,6 Bray St,Hastings,VIC,3915,(03) 5979 7211,,,,,,11 170 013 113,Active,Trading Name,50% ABN Accuracy
Religious Organisations,Coptic Orthodox Church,318 Shepperton Rd,East Victoria Park,WA,6101,(08) 9470 5715,,,,,,73 797 860 219,Active,Trading Name,50% ABN Accuracy
Religious Organisations,Croatian Catholic Centre,171 South Rd,Ridleyton,SA,5008,(08) 8340 0850,,,,,,53 848 303 699,Active,Trading Name,50% ABN Accuracy
Religious Organisations,Daniel Villani,12 Loton Ave,Midland,WA,6056,0424 463 549,,,,,,26 318 079 970,Active,Entity Name,50% ABN Accuracy
Religious Organisations,Daughters Of Charity,8 Wairoa Ave,Brighton,VIC,3186,(03) 9596 3583,,,,,,37 783 925 190,Active,Trading Name,50% ABN Accuracy
Religious Organisations,Daughters Of Charity,419 Sherlock St,Roebourne,WA,6718,(08) 9182 1058,,,,,,37 783 925 190,Active,Trading Name,50% ABN Accuracy
Religious Organisations,Greek Orthodox Archdiocese Of Australia,23-29 Victoria St,Coburg,VIC,3058,(03) 9350 5559,,,,,,69 434 479 912,Active,Entity Name,50% ABN Accuracy
Religious Organisations,Greek Orthodox Archdiocese Of Australia,1 Gladstone St,Moonee Ponds,VIC,3039,(03) 9375 1119,,,,,,69 434 479 912,Active,Entity Name,50% ABN Accuracy
Religious Organisations,Greek Orthodox Archdiocese Of Australia,44 Knight St,Clayton,VIC,3168,(03) 9544 5706,,,,,,69 434 479 912,Active,Entity Name,50% ABN Accuracy
Religious Organisations,Greek Orthodox Archdiocese Of Australia,531 Centre Rd,Bentleigh,VIC,3204,(03) 9557 4877,,,,,,69 434 479 912,Active,Entity Name,50% ABN Accuracy
Religious Organisations,Greek Orthodox Archdiocese Of Australia,7 Macedon Ave,Balwyn North,VIC,3104,(03) 9859 1768,,,,,,69 434 479 912,Active,Entity Name,50% ABN Accuracy
Religious Organisations,Greek Orthodox Archdiocese Of Australia,1 Hopetoun Parade,Box Hill,VIC,3128,(03) 9890 9087,,,,,,69 434 479 912,Active,Entity Name,50% ABN Accuracy
Religious Organisations,Iglesia Ni Cristo,241 Civic Parade,Altona,VIC,3018,(03) 9398 2396,,,,,,46 002 812 259,Active,Entity Name,50% ABN Accuracy
Religious Organisations,Integrated Profit Solutions,10 Fellows Rd,Point Lonsdale,VIC,3225,(03) 5258 2439,,,http://www.profitsolutions.com.au/,,,28 006 310 952,Active,Business Name (Historic),50% ABN Accuracy
Religious Organisations,Jehovah's Witnesses,1A Mary Ct,Robinvale,VIC,3549,(03) 5026 1062,,,,,,42 002 861 225,Active,Trading Name,50% ABN Accuracy
Religious Organisations,Jehovah's Witnesses,98-100 Gray St,Swan Hill,VIC,3585,(03) 5032 4746,,,,,,42 002 861 225,Active,Trading Name,50% ABN Accuracy
Religious Organisations,Jehovah's Witnesses,62B Hiller Rd,Evanston,SA,5116,(08) 8522 6091,,,,,,42 002 861 225,Active,Trading Name,50% ABN Accuracy
Religious Organisations,LifeLink,23 Victoria Sq,Perth,WA,6000,(08) 9325 1377,,,,,,48 725 340 574,Active,Trading Name,50% ABN Accuracy
Religious Organisations,Lutheran Church of Australia,182 Hancock Rd,Tea Tree Gully,SA,5091,(08) 8396 4466,,,,,,45 585 856 589,Active,Entity Name (Historic),50% ABN Accuracy
Religious Organisations,Mission To Seafarers,61 Cliff St,Portland,VIC,3305,(03) 5523 2776,,,,,,90 430 045 030,Active,Entity Name,50% ABN Accuracy
Religious Organisations,MMM Australia,33 Furley Rd,Southern River,WA,6110,(08) 9456 0022,,,,,,66 005 126 956,Active,Entity Name,50% ABN Accuracy
Religious Organisations,Presentation Sisters,22 Arbon Way,Lockridge,WA,6054,(08) 9279 2965,,,,,,90 115 490 579,Active,Trading Name,50% ABN Accuracy
Religious Organisations,Scripture Union,34 Paterson St,Launceston,TAS,7250,(03) 6334 8229,,,,,,34 474 372 309,Active,Trading Name,50% ABN Accuracy
Religious Organisations,Scripture Union Victoria,157 Heidelberg Rd,Northcote,VIC,3070,(03) 9482 5700,,,,,,17 004 391 208,Active,Entity Name,50% ABN Accuracy
Religious Organisations,Seventh-Day Adventist Community Services,,Prospect,SA,5082,(08) 8269 2177,,,,,,52 000 003 930,Active,Business Name (Historic),50% ABN Accuracy
Religious Organisations,Soka Gakkai International Australia,12 Ripon Gr,Elsternwick,VIC,3185,(03) 9523 7669,,,,,,74 005 126 107,Active,Entity Name,50% ABN Accuracy
Religious Organisations,St Vincent De Paul Society,119 Raymond St,Sale,VIC,3850,(03) 5144 4183,,,,,,46 472 591 335,Active,Other Name,50% ABN Accuracy
Religious Organisations,St Vincent De Paul Society,74 High St,Wodonga,VIC,3690,(02) 6056 5174,,wodonga.centre@svdp-vic.org.au,https://www.vinnies.org.au/,,,46 472 591 335,Active,Other Name,50% ABN Accuracy
Religious Organisations,Tear Australia,Unit 1/4 Solwood Lane,Blackburn,VIC,3130,(03) 9877 7444,,,,,,85 085 413 832,Active,Entity Name,50% ABN Accuracy
Religious Organisations,The Revival Fellowship,45 John Rice Ave,Elizabeth Vale,SA,5112,(08) 8252 0049,,,,,,81 311 970 074,Active,Entity Name,50% ABN Accuracy
Religious Organisations,The Salvation Army,118 Burke St,Warragul,VIC,3820,(03) 5623 2198,,,,,,94 917 169 560,Active,Trading Name,50% ABN Accuracy
Religious Organisations,Transformation Centre,107 Woods St,Newport,VIC,3015,(03) 9391 6876,,,Visit Our Website,,,42 780 578 611,Active,Business Name,50% ABN Accuracy
Religious Organisations,Trumpet Call Ministries Inc.,46 Applewood Dr,Knoxfield,VIC,3180,(03) 9801 8865,,,,,,51 339 293 329,Active,Entity Name (Historic),50% ABN Accuracy
Religious Organisations,Westminster Presbyterian Church,72 Sutton St,Mandurah,WA,6210,(08) 9534 4145,,tony@wpcmc.net,http://www.wpcmc.net,,,14 209 061 363,Active,Trading Name,50% ABN Accuracy
Religious Organisations,Youth Ministries Australia,Rothesay Ave,St Marys,SA,5042,(08) 8276 1040,,,,,,25 126 098 398,Active,Business Name,50% ABN Accuracy
Religious Organisations,Youth With A Mission,1 Kent Rd,Surrey Hills,VIC,3127,(03) 9831 2400,,,,,,63 932 277 049,Active,Entity Name,50% ABN Accuracy
Religious Organisations,Youthcare,1/ 103 Catherine St,Morley,WA,6943,(08) 9376 5000,,info@youthcare.org.au,http://www.youthcare.org.au,,,70 172 899 396,Active,Trading Name,50% ABN Accuracy
Religious Organisations,Aboriginal Catholic Ministry,434 St Georges Rd,Thornbury,VIC,3071,(03) 9480 3849,,,,,,40 453 682 263,Cancelled,Entity Name,50% ABN Accuracy
Religious Organisations,Assemblies Of God In Australia,Princes Hwy,Mulgrave,VIC,3170,(03) 9562 3822,,,,,,95 979 076 984,Cancelled,Entity Name,50% ABN Accuracy
Religious Organisations,Christian Revival Crusade,118 Ballan Rd,Werribee,VIC,3030,(03) 9741 9665,,,,,,52 435 364 755,Cancelled,Entity Name,50% ABN Accuracy
Religious Organisations,Italian Pentecostal Church,58- 60 Daly St,Brunswick West,VIC,3055,(03) 9380 9593,,,,,,97 436 445 319,Cancelled,Entity Name,50% ABN Accuracy
Religious Organisations,John Mark Ministries,7 Bangor Ct,Heathmont,VIC,3135,(03) 9729 2517,,,,,,30 517 078 795,Cancelled,Entity Name (Historic),50% ABN Accuracy
Religious Organisations,Mysticweb,,Malvern,VIC,3144,1300 307 332,,,,,,66 096 846 178,Cancelled,Business Name (Historic),50% ABN Accuracy
Religious Organisations,Potters House Christian Centre,480 Marshall Rd,Whiteman,WA,6068,0403 062 005,,admin@pottershouse.com,http://www.pottershouse.com,,,12 433 823 853,Cancelled,Entity Name,50% ABN Accuracy
Religious Organisations,Rhema Family Church,1 Thorogood St,Burswood,WA,6100,(08) 9470 1256,,,,,,52 045 956 558,Cancelled,Trading Name (Historic),50% ABN Accuracy
Religious Organisations,Sisters Of Mercy,1 Hester St,Harvey,WA,6220,(08) 9729 1127,,,,,,12 560 807 148,Cancelled,Entity Name,50% ABN Accuracy
Religious Organisations,The Mission to Seafarers,7 The Esplanade,North Shore,VIC,3214,(03) 5278 6985,,,,,,57 351 654 755,Cancelled,Other Name (Historic),50% ABN Accuracy
Religious Organisations,The Mission To Seafarers,166 Dempster Strs,Esperance,WA,6450,(08) 9071 6811,,seafarers@westnet.com.au,www.mts.org.au/esperance.html,,,57 351 654 755,Cancelled,Other Name (Historic),50% ABN Accuracy
Religious Organisations,All For Jesus Evangelistic Association Inc,13 Perkins Ave,Hoppers Crossing,VIC,3029,(03) 9749 5435,,,,,,71 794 384 101,Active,Entity Name (Historic),75% ABN Accuracy
Religious Organisations,Anglican Institute Of Theology Religious & Education,Hardy Rd,Nedlands,WA,6009,(08) 9386 8326,,,,,,59 962 540 635,Active,Other Name,75% ABN Accuracy
Religious Organisations,Community Of Christ,2 - 4 Logan St St,Frankston,VIC,3199,(03) 9770 1116,,,,,,87 586 411 904,Active,Entity Name,75% ABN Accuracy
Religious Organisations,Community Of Christ,241 Poath Rd,Hughesdale,VIC,3166,(03) 9791 3620,,,,,,87 586 411 904,Active,Entity Name,75% ABN Accuracy
Religious Organisations,Concern Australia,215 Wellington St,Collingwood,VIC,3066,(03) 9416 1104,,,,,,12 060 206 671,Active,Trading Name,75% ABN Accuracy
Religious Organisations,Connections UnitingCare,48 Blackburn Rd,Blackburn,VIC,3130,(03) 9875 4222,,,,,,90 676 577 035,Active,Entity Name,75% ABN Accuracy
Religious Organisations,Eternity Aid,37 Graham Ct,Hoppers Crossing,VIC,3029,(03) 9369 6873,,,,,,24 004 350 798,Active,Business Name (Historic),75% ABN Accuracy
Religious Organisations,Mighty Living Waters Life Fellowship,,Riverton,WA,6148,(08) 9457 6611,,,,,,12 086 262 816,Active,Entity Name,75% ABN Accuracy
Religious Organisations,Monash Christian Fellowship,118 Wellington Rd,Clayton,VIC,3168,(03) 9548 9447,,,,,,74 801 789 862,Active,Entity Name,75% ABN Accuracy
Religious Organisations,Narre Warren Baptist Church,379 Narre Warren North Rd,Narre Warren,VIC,3805,(03) 9796 8737,,office@nwbc.net.au,http://www.nwbc.net.au,,,57 087 284 261,Active,Entity Name,75% ABN Accuracy
Religious Organisations,Prahran Mission,15 Cromwell Rd,South Yarra,VIC,3141,(03) 9804 7655,,,http://www.prahranmission.org.au,,,77 812 307 472,Active,Entity Name,75% ABN Accuracy
Religious Organisations,Providence Bible-Presbyterian Church,14 Garden Tce,Mawson Lakes,SA,5095,(08) 8263 9689,,pastor@providencebpc.com,http://www.providencebpc.com,,,27 958 667 390,Active,Entity Name,75% ABN Accuracy
Religious Organisations,Punch Bowl Bible Chapel,100 Punchbowl Rd,Punchbowl,TAS,7249,(03) 6344 8500,,,,,,39 766 352 643,Active,Entity Name (Historic),75% ABN Accuracy
Religious Organisations,St Bartholomews House Inc,Unit 3/ 91 Patterson Dr,Middle Swan,WA,6056,(08) 9250 7313,,,,,,92 491 228 162,Active,Entity Name,75% ABN Accuracy
Religious Organisations,Word For The World Christian Fellowship,21 Honeyeater Crst,Taylors Lakes,VIC,3038,(03) 9449 1346,,,,,,19 590 992 488,Active,Trading Name,75% ABN Accuracy
Religious Organisations,Abacus Christian Church,214 William St,Northbridge,WA,6003,(08) 9343 5460,,,,,,,,,
Religious Organisations,Aboriginal Catholic Ministry & Council,5 Baker Ave,Perth,WA,6000,(08) 9328 7529,,,,,,92 110 379 300,Active,Entity Name,99% ABN Accuracy
Religious Organisations,Aboriginal Evangelical Church Balga,16 Highclere Blv,Marangaroo,WA,6064,(08) 9342 7243,,,,,,,,,
Religious Organisations,Access Ministries,Level 5/ 695 Burke Rd,Camberwell,VIC,3124,(03) 9804 0733,,,,,,59 004 240 779,Active,Business Name,99% ABN Accuracy
Religious Organisations,Adelaide Revival Fellowship Incorporated,25 Belair Rd,Kingswood,SA,5062,(08) 8271 5626,,vogue@adelaiderevival.com,http://www.adelaiderevival.com,,,95 058 625 152,Active,Entity Name,99% ABN Accuracy
Religious Organisations,Adelaide Theosophical Society Inc,310 South Tce,Adelaide,SA,5000,(08) 8223 1129,,,,,,76 487 580 644,Active,Entity Name,99% ABN Accuracy
Religious Organisations,All Saints' Parish of Newtown & Geelong West,113 Nobel St,Newtown,VIC,3220,(03) 5223 1118,,office@allsaints.net,http://www.allsaintsnewtown.com,,,,,,
Religious Organisations,Amazing Discoveries Australia,1st Floor Suite 6 30- 32 Ellingworth Parade,Box Hill,VIC,3128,(03) 9899 2000,,,,,,,,,
Religious Organisations,Ambassadors Of Jesus Christian Assemblies,?Embassy? 25 Wheeler Vic,Corryong,VIC,3707,(02) 6076 2050,,,,,,,,,
Religious Organisations,Anglican Community Of The Holy Name,40 Cavanagh St,Cheltenham,VIC,3192,(03) 9583 2087,,,,,,,,,
Religious Organisations,Anglican Community Of The Holy Name,33 Lorna St,Cheltenham,VIC,3192,(03) 9583 4030,,,,,,,,,
Religious Organisations,Anglican Parish Of The Bellarine,11-15 Brown St,Portarlington,VIC,3223,0488 574 855,,,http://www.bellarineparish.org/,,,,,,
Religious Organisations,Apostolic Campsite Busselton,189 Caves Rd,Busselton,WA,6280,(08) 9755 4014,,,,,,,,,
Religious Organisations,Ashburton Presbyterian Church,1 High St,Ashburton,VIC,3147,0412 714 040,,broakes@optusnet.com.au,,,,52 417 600 813,Active,Entity Name,99% ABN Accuracy
Religious Organisations,Australian Baptist Missionary Society Inc,597 Burwood Rd,Hawthorn,VIC,3122,(03) 9819 4944,,,,,,74 130 443 130,Active,Entity Name (Historic),99% ABN Accuracy
Religious Organisations,Australian Burmabuddhist Association In Western Australia Inc,92 Girrawheen Ave,Girrawheen,WA,6064,(08) 9247 2484,,,,,,,,,
Religious Organisations,Australian Christian Student Movement Pty Ltd,180 Palmerston St,Carlton,VIC,3053,(03) 9347 2566,,,,,,,,,
Religious Organisations,Australian Jesuit Foundation,326 Church St,Richmond,VIC,3121,(03) 9428 4612,,,,,,24 107 869 652,Active,Entity Name,99% ABN Accuracy
Religious Organisations,Baha 'i Faith,,suppressed,suppressed,,(07) 3207 2787,,,,,,,,,
Religious Organisations,Baha'i Centre of Learning South Australia,275 Flinders St,Adelaide,SA,5000,(08) 8232 6002,,,,,,,,,
Religious Organisations,Bahai Faith,635 Sawpit Rd,Hindmarsh Valley,SA,5211,(08) 8554 7262,,annemieka9@adam.com.au,http://www.bahai.org.au,,,,,,
Religious Organisations,Baha'i Faith,20 Param St,Grovedale,VIC,3216,(03) 5243 2659,,,,,,,,,
Religious Organisations,Baha'i Faith,1 Tasman Hwy,Hobart,TAS,7000,(03) 6234 7654,,,,,,,,,
Religious Organisations,Baha'I Faith,Old Paradise Rd,Sheffield,TAS,7306,(03) 6491 1137,,,,,,,,,
Religious Organisations,Baha'i Faith,,Springvale,VIC,3171,(03) 9546 5162,,,,,,,,,
Religious Organisations,Baha'i Faith,,suppressed,suppressed,,(07) 4635 0313,,,,,,,,,
Religious Organisations,Baha'i Faith,,suppressed,suppressed,,(07) 4661 3862,,,,,,,,,
Religious Organisations,Baha'i Faith,453 Marmion St,Myaree,WA,6154,(08) 9330 6999,,,,,,,,,
Religious Organisations,Baha'i Faith,17 Coral St,South Bunbury,WA,6230,(08) 9795 9088,,,,,,,,,
Religious Organisations,Baha'i Faith (South Australia),,Munno Para,SA,5115,(08) 8252 3622,,,,,,,,,
Religious Organisations,Baha'i National Office,,suppressed,suppressed,,(02) 9998 9221,,,,,,,,,
Religious Organisations,Balya Retreat,130 Mayo Rd,Gidgegannup,WA,6083,(08) 9578 3155,,,,,,,,,
Religious Organisations,Bayview Church,1 Inglewood Crst,Rosebud,VIC,3939,(03) 5982 3281,,info@bayviewchurch.org,www.bayviewchurch.org/,,,,,,
Religious Organisations,Bellarine Assembly (RCI),131 Helms St,Newcomb,VIC,3219,(03) 5248 1368,,,,,,,,,
Religious Organisations,Bellarine Assembly (RCI),137 Helms St,Newcomb,VIC,3219,(03) 5258 1987,,,,,,,,,
Religious Organisations,Benwerren,30 Benwerren Dr,Yarra Junction,VIC,3797,(03) 5967 1021,,,,,,72 005 946 789,Active,Entity Name,99% ABN Accuracy
Religious Organisations,Beth Shean Inc,1636 Railton Rd,Mersey Lea,TAS,7305,(03) 6496 1490,,,,,,,,,
Religious Organisations,Bible Baptist Church & Christian Academy,Chidlow St,Mt Helena,WA,6082,(08) 9572 1648,,,,,,55 077 253 476,Cancelled,Trading Name (Historic),99% ABN Accuracy
Religious Organisations,Bible Society The,19 Arabrie Ave,Edwardstown,SA,5039,(08) 8292 4888,,,http://www.biblesociety.org.au/,,,,,,
Religious Organisations,Bible-Line,Spencer Ave,Yokine,WA,6060,(08) 9276 9394,,,,,,,,,
Religious Organisations,Big House Communities,255 Outlook Dr,Dandenong North,VIC,3175,(03) 9795 4525,,,,,,72 271 634 868,Active,Trading Name,99% ABN Accuracy
Religious Organisations,Brighton Hebrew Congregation,132- 136 Marriage Rd,Brighton East,VIC,3187,(03) 9592 9179,,,,,,77 565 365 288,Active,Trading Name,99% ABN Accuracy
Religious Organisations,Buckley's Hope Community Centre,35 Buckley St,Noble Park,VIC,3174,(03) 9574 1944,,,,,,,,,
Religious Organisations,Buddhist Discussion Centre (Upwey) Ltd,33 Brooking St,Upwey,VIC,3158,(03) 9754 3334,,wbu@bdcu.org.au,www.bdcu.org.au,,1980,,,,
Religious Organisations,Buddhist Meditation Association of Vic Inc,43 Hemming St,Dandenong,VIC,3175,(03) 9794 9492,,,,,,,,,
Religious Organisations,Buddhist Temple Wat Ratanaprathib Vihara,45 Smith St,Thebarton,SA,5031,(08) 8443 5856,,,,,,,,,
Religious Organisations,Buddhist Vihara Daham Niketanaya,1690 Mickelham Rd,Yuroke,VIC,3063,(03) 9333 4848,,,,,,,,,
Religious Organisations,Budhist Centre (Tibetan Kagyu),13-15 Bryan St,Invermay,TAS,7248,(03) 6334 9680,,,,,,,,,
Religious Organisations,Busselton Apostolic Camp,189 Caves Rd,Busselton,WA,6280,(08) 9755 4014,,,,,,,,,
Religious Organisations,C3 Church Scarborough,"Preston Room, Hotel Rendezvous",Scarborough,WA,6019,(08) 6316 7107,,,,,,,,,
Religious Organisations,Campus Crusade For Christ Australia,1/ 8 Anzed Ct,Mulgrave,VIC,3170,(03) 9014 7584,,info@ccca.org.au,www.ccca.org.au,,,25 126 098 398,Active,Trading Name,99% ABN Accuracy
Religious Organisations,Careforce Ministries Training School,89 Monbulk Rd,Mt Evelyn,VIC,3796,(03) 9736 2273,,,,,,12 072 679 067,Cancelled,Entity Name (Historic),99% ABN Accuracy
Religious Organisations,Catholic Diocesan Office,5 Lyons St South,Ballarat,VIC,3350,(03) 5337 7111,,,,,,,,,
Religious Organisations,Catholic Diocesan Office,,Broome,WA,6725,(08) 9192 1060,,,,,,,,,
Religious Organisations,Catholic Diocesan Youth Ministry,,Broome,WA,6725,(08) 9193 5676,,,,,,,,,
Religious Organisations,"Catholic Education Office, Diocese of Sale",6 Witton St,Warragul,VIC,3820,(03) 5622 6600,,director@ceosale.catholic.edu.au,www2.ceosale.catholic.edu.au,,,,,,
Religious Organisations,Catholic Historical Commission,383 Albert St,East Melbourne,VIC,3002,(03) 9419 5729,,,,,,,,,
Religious Organisations,Catholic Parish House,,Jurien Bay,WA,6516,(08) 9652 1652,,,,,,,,,
Religious Organisations,Catholic Traditional,40 Ludstone St,Hampton,VIC,3188,(03) 9598 3848,,,,,,,,,
Religious Organisations,Celestial World Australia,,Lewiston,SA,5501,(08) 8520 3585,,,http://www.celestialworldaustralia.com,,,59 832 587 200,Active,Trading Name,99% ABN Accuracy
Religious Organisations,Centacare Kimberley,,Broome,WA,6725,(08) 9192 2293,,,,,,86 990 067 369,Active,Entity Name (Historic),99% ABN Accuracy
Religious Organisations,Ch'an Academy,33 Brooking St,Upwey,VIC,3158,(03) 9754 3334,,,,,,42 611 496 488,Active,Other Name,99% ABN Accuracy
Religious Organisations,Chinese Christian Church Of Victoria Inc.,Cnr Orrong and Wynnstay Rds,Armadale,VIC,3143,(03) 9525 2258,,,,,,,,,
Religious Organisations,Christadelphian Answering Service,52 Alpine Way,Kilsyth,VIC,3137,(03) 9728 6841,,,,,,,,,
Religious Organisations,Christadelphian Diamond Valley Bible Centre,230 Mine Rd,Nutfield,VIC,3099,(03) 9714 8582,,,,,,,,,
Religious Organisations,Christadelphian Ecclesia Hall,59 Raeburn Rd,Breadalbane,TAS,7258,(03) 6334 9999,,,,,,,,,
Religious Organisations,Christian Brethren Assemblies,127-133 Garnett Rd,Wheelers Hill,VIC,3150,(03) 9790 6018,,,,,,,,,
Religious Organisations,Christian Brethren Assemblies,20 Fellows St,Kew,VIC,3101,(03) 9853 2821,,,,,,,,,
Religious Organisations,Christian Brethren Assemblies,2 Leonard St,Balwyn,VIC,3103,(03) 9890 4164,,,,,,,,,
Religious Organisations,Christian Brethren Family Care Opportunity Shop,116 Railway Ave,Ringwood East,VIC,3135,(03) 9879 2323,,,,,,,,,
Religious Organisations,Christian City Church Whitehorse,"C 3 Centre, 171 Rooks Rd",Vermont,VIC,3133,(03) 9837 2900,,,,,,,,,
Religious Organisations,Christian City Church Whitehorse,27 Bank St,Box Hill,VIC,3128,(03) 9898 5477,,,,,,,,,
Religious Organisations,Christian Dance Fellowship Tasmanian Branch,75 Alomes Rd,Forcett,TAS,7173,(03) 6229 6099,,,,,,,,,
Religious Organisations,Christian Life Ministries Church in Perth,173 Gildertriffe St,Scarborough,WA,6019,(08) 9404 8683,,robert.whately@gmail.com,www.christianlifeministries.com.au,,,,,,
Religious Organisations,Christian Orthodox Brotherhood of Apostle Paul Corp,99 Buckley St,Footscray,VIC,3011,(03) 9689 6838,,,,,,,,,
Religious Organisations,Christian Youth Camps Of S.A. Inc.,,Wellington,SA,5259,(08) 8572 7262,,,,,,86 857 437 624,Active,Entity Name,99% ABN Accuracy
Religious Organisations,Churchwest Kalgoorlie,46 Hannan St,Kalgoorlie,WA,6430,0468 349 437,,,http://www.churchwest.org,,,,,,
Religious Organisations,City On A Hill: Geelong,370 Moorabool St,South Geelong,VIC,3220,(03) 9640 0990,,info@cityonahill.com.au,http://cityonahill.com.au,,,,,,
Religious Organisations,City on a Hill: West,Hoyts Highpoint/ 120-200 Rosamond Rd,Maribyrnong,VIC,3032,(03) 9640 0990,,info@cityonahill.com.au,http://www.cityonahill.com.au,,,,,,
Religious Organisations,CityLife Church - Knox,1248 High Street Rd,Wantirna South,VIC,3152,(03) 9871 8300,,,,,,,,,
Religious Organisations,CityLight Church,Wetlands Education Centre 184 Hope Rd,Bibra Lake,WA,6163,0450 907 345,,info@citylightchurch.net.au,www.citylightchurch.net.au,,,55 009 562 430,Active,Entity Name,99% ABN Accuracy
Religious Organisations,Club Solo Ministries,2 Karen Ct,Mill Park,VIC,3082,(03) 9407 1240,,solo@sctelco.net.au,www.clubsolo.org.au,,,42 194 058 113,Active,Entity Name,99% ABN Accuracy
Religious Organisations,Company Of Sinners Inc.,23 Keith Rd,Blackwood,SA,5051,(08) 8370 0033,,,,,,38 704 573 873,Active,Entity Name,99% ABN Accuracy
Religious Organisations,Covenant Baptist Church (Reformed),Cnr Fourth Ave and Central Rd,Rossmoyne,WA,6148,(08) 9337 4537,,,,,,,,,
Religious Organisations,Crossroads Victoria Christian Fellowship With Disabled Persons,Suite 1 587 Canterbury Rd,Surrey Hills,VIC,3127,(03) 8809 3000,,,,,,,,,
Religious Organisations,Cummins Congregation Of Jehovah's Witnesses,Warro Rd,Cummins,SA,5631,(08) 8676 2466,,,,,,,,,
Religious Organisations,CWG Mission 1,,Kelmscott,WA,6111,(08) 9495 1982,,,,,,,,,
Religious Organisations,David House Fellowship Inc.,908 North Rd,Bentleigh East,VIC,3165,(03) 9570 5582,,,,,,65 043 285 064,Active,Entity Name,99% ABN Accuracy
Religious Organisations,Dhammagiri Forest Hermitage,,suppressed,suppressed,,(07) 3201 2041,,,,,,,,,
Religious Organisations,Diggerland Church Inc.,26 Indi Ave,Red Cliffs,VIC,3496,(03) 5024 3542,,,,,,38 710 394 652,Active,Entity Name,99% ABN Accuracy
Religious Organisations,Diocesan Pastoral Resource Centre,8 Pearson St,Sale,VIC,3850,(03) 5144 6132,,,,,,,,,
Religious Organisations,Doreen Baptist Church,25 Hazelglen Dr,Doreen,VIC,3754,0417 568 576,,pastor@doreenbaptist.org.au,http://www.doreenbaptist.org.au,,,40 853 576 644,Active,Entity Name,99% ABN Accuracy
Religious Organisations,Elijah House Australia Pty Ltd,19 Inglis Rd,Berwick,VIC,3806,(03) 9769 9344,,,,,,,,,
Religious Organisations,Elizabeth Revival Centre,45 John Rice Ave,Elizabeth Vale,SA,5112,(08) 8281 1309,,,,,,,,,
Religious Organisations,Faith Above All Inc,310 Cunninghams Rd,Werribee South,VIC,3030,(03) 8742 0342,,,,,,,,,
Religious Organisations,Faith Baptist Church,Primary School Hall Anglesea St,South Hobart,TAS,7004,(03) 6247 8830,,,,,,26 486 858 083,Active,Trading Name,99% ABN Accuracy
Religious Organisations,Faith Christian Church Casey,11/ 25-35 Narre Warren-Cranbourne Rd,Narre Warren,VIC,3805,0419 850 695,,,,,,,,,
Religious Organisations,Followers of Christ,,Karingal,VIC,3199,(03) 9776 6215,,,,,,,,,
Religious Organisations,Franciscan Sisters Of The Heart Of Jesus (SOHOJIC),2 Franciscan Ave,Lockleys,SA,5032,(08) 8353 6022,,,,,,,,,
Religious Organisations,Free Presbyterian Church Of Western Australia,5 Thistle Gr,Currambine,WA,6028,(08) 9305 4568,,,,,,,,,
Religious Organisations,Freedom Church Warrnambool (ACC),141B Koroit St,Warrnambool,VIC,3280,0428 886 234,,info@freedomchurch3280.com.au,http://www.freedomchurch3280.com.au,,,,,,
Religious Organisations,Fresh Christian Fellowship,90A Flores Rd,Geraldton,WA,6530,0400 899 743,,freshchristianfellowship@gmail.com,,,,32 369 796 505,Cancelled,Entity Name,99% ABN Accuracy
Religious Organisations,Friends Religious Society Of,Shop 12/ 210 Toorak Rd,South Yarra,VIC,3141,(03) 9827 3595,,vicclerk@quakers.org.au,http://www.vic.quakers.org.au,,,,,,
Religious Organisations,Fusion Australian (WA) Inc,92 Marine Tce,Geraldton,WA,6530,(08) 9964 3725,,,,,,,,,
Religious Organisations,Geneva Fellowship Inc.,197 Moriarty Rd,Latrobe,TAS,7307,(03) 6426 1053,,,,,,99 742 773 710,Active,Entity Name,99% ABN Accuracy
Religious Organisations,GFS Anglican Ministry,240 Adelaide Tce,Perth,WA,6000,(08) 9202 1627,,,,,,,,,
Religious Organisations,Gideons International In Australia,,suppressed,suppressed,,1800 061 566,,,,,,,,,
Religious Organisations,GLO Training Centre,20 King St,Smithton,TAS,7330,(03) 6452 1061,,,,,,,,,
Religious Organisations,God Squad Christian Motorcycle Club,215 Wellington St,Collingwood,VIC,3066,(03) 9416 1104,,,,,,,,,
Religious Organisations,God's Farm,94 Woodlands Rd,Wilyabrup,WA,6280,(08) 9755 6212,,,,,,,,,
Religious Organisations,Good Shepherd Centre for Justice & Fair Trade,261 Victoria St,Abbotsford,VIC,3067,(03) 9429 9346,,,,,,,,,
Religious Organisations,Good Shepherd Sisters,,St Kilda,VIC,3182,(03) 9534 3827,,,,,,,,,
Religious Organisations,Gospel Across the World,1st Floor Suite 6 30- 32 Ellingworth Parade,Box Hill,VIC,3128,(03) 9899 2000,,,,,,,,,
Religious Organisations,GreaterLife Church,4/ 347-349 Old Geelong Rd,Hoppers Crossing,VIC,3029,0425 042 535,,admin@greaterlife.com.au,http://www.greaterlife.com.au,,,,,,
Religious Organisations,Greek Orthodox Archdiocese Of Australia (Queenstown),2 West St,Queenstown,SA,5014,0432 819 671,,,,,,,,,
Religious Organisations,Greek Orthodox Archdiocese Of Australia (St Haralambos),Cnr Porter St and Church Rd,Templestowe,VIC,3106,(03) 9846 4066,,,,,,,,,
Religious Organisations,Greek Orthodox Community Of Melbourne & Victoria,64 St David St,Thornbury,VIC,3071,(03) 9484 3423,,,,,,,,,
Religious Organisations,Greek Orthodox Community Of Melbourne & Victoria,Old Heidelberg Rd,Alphington,VIC,3078,(03) 9499 2153,,,,,,,,,
Religious Organisations,Greek Orthodox Community Of Melbourne & Victoria,380 High St,Prahran,VIC,3181,(03) 9510 7880,,,,,,,,,
Religious Organisations,Greek Orthodox Community Of Melbourne & Victoria,186 Victoria Parade,East Melbourne,VIC,3002,(03) 9662 1362,,,,,,,,,
Religious Organisations,Greek Orthodox Community Of Melbourne & Victoria,2 Leeds St,Footscray,VIC,3011,(03) 9687 2727,,,,,,,,,
Religious Organisations,Greek Orthodox Community Of Melbourne & Victoria,168 Lonsdale St,Melbourne,VIC,3000,(03) 9662 2722,,info@greekcommunity.com.au,,,,,,,
Religious Organisations,Healesville Uniting Church,286 Maroondah Hwy,Healesville,VIC,3777,(03) 5962 4128,,jenniewren62@gmail.com,http://healesville.unitingchurch.org.au/,,,99 739 326 576,Active,Trading Name,99% ABN Accuracy
Religious Organisations,Heathmont Interchurch Help Incorporated,136 Canterbury Rd,Heathmont,VIC,3135,(03) 9720 6757,,,,,,,,,
Religious Organisations,Helping Hand Centre Inc,792-806 Heatherton Rd,Springvale,VIC,3171,(03) 9547 4767,,,,,,,,,
Religious Organisations,Holy Trinity Church,,suppressed,suppressed,,(02) 9637 1904,,,,,,,,,
Religious Organisations,Hor-Kwong C,,suppressed,suppressed,,(02) 9816 3927,,,,,,,,,
Religious Organisations,ICCR,,suppressed,suppressed,,(03) 9489 5007,,,,,,,,,
Religious Organisations,Imagine Church Melbourne,1 Kingsbury Drive Plenty Road Cnr,Bundoora,VIC,3083,0413 861 460,,admin@imaginechurch.com.au,http://www.imaginechurch.com.au/,,,,,,
Religious Organisations,Insight For Living Inc,7/ 9 Jersey Rd,Bayswater,VIC,3153,(03) 9729 6955,,,,,,57 813 130 585,Active,Entity Name,99% ABN Accuracy
Religious Organisations,Institute Of Religious Women,242 Hutt St,Adelaide,SA,5000,(08) 8232 9399,,,,,,,,,
Religious Organisations,Interserve Australia Inc,Suites 17 18 653 Mountain Hwy,Bayswater,VIC,3153,(03) 9729 9611,,,,,,12 041 298 204,Active,Entity Name,99% ABN Accuracy
Religious Organisations,Islamic Co-Ordinating Hallal Board,155 Lygon St,Brunswick East,VIC,3057,(03) 9380 5467,,,,,,,,,
Religious Organisations,Islamic Information & Support Centre of Australia (IISCA),31 Edward St,Brunswick,VIC,3056,(03) 9387 7100,,info@iisca.org,,,,,,,
Religious Organisations,Islamic Social Association Of Australia,30 Inverloch Crst,Dallas,VIC,3047,(03) 9302 3030,,,,,,,,,
Religious Organisations,Islamic Society Of Victoria,90 Cramer St,Preston,VIC,3072,(03) 9470 5936,,,,,,79 036 396 525,Active,Entity Name,99% ABN Accuracy
Religious Organisations,Islamic Trust of Victoria,201 Sayers Rd,Laverton,VIC,3028,(03) 9931 0255,,,,,,,,,
Religious Organisations,Jehovah's Witnesses-Congregations,,Port Noarlunga,SA,5167,(08) 8384 6917,,,,,,,,,
Religious Organisations,Jehovah's Witnesses-Kingdom Halls,,Ridgehaven,SA,5097,(08) 8396 1672,,,,,,,,,
Religious Organisations,Jesus Is The Way Spanish Church,210 Nicholson St,Footscray,VIC,3011,(03) 9689 2000,,,,,,,,,
Religious Organisations,Jewish Community Council Of Victoria,306 Hawthorn Rd,Caulfield South,VIC,3162,(03) 9272 5566,,,,,,18 081 783 381,Active,Entity Name,99% ABN Accuracy
Religious Organisations,Jewish Synagogue,59 Argyle St,Hobart,TAS,7000,0431 902 929,,,,,,,,,
Religious Organisations,Joy Christian Church,14 Station Rd,St Leonards,TAS,7250,(03) 6339 2280,,,,,,64 478 510 572,Active,Entity Name,99% ABN Accuracy
Religious Organisations,Jurien Bay Community Church Non Denominational,,Cervantes,WA,6511,(08) 9652 7328,,,,,,,,,
Religious Organisations,Kardinia Christian Church,1- 11 Kardinia Dr,Bell Post Hill,VIC,3215,(03) 5272 2003,,,www.kardiniachurch.com/home,,,,,,
Religious Organisations,Kardinia Church Warrnambool,35 Hoddle St,Warrnambool,VIC,3280,0427 479 304,,sandro.schietroma@kardiniachurch.com,,,,,,,
Religious Organisations,Kimberley Evangelisers Of Youth,,Broome,WA,6725,(08) 9192 1112,,,,,,,,,
Religious Organisations,Kingston SE New Life Centre Inc.,33 James St,Kingston Se,SA,5275,(08) 8767 2711,,kingstonse.nlc@bigpond.com,,,,45 464 073 996,Active,Entity Name,99% ABN Accuracy
Religious Organisations,Kuitpo Community,Kuitpo Community Admnstrn and Rehabilitation,Hope Forest,SA,5172,(08) 8556 7320,,,,,,,,,
Religious Organisations,Lady Of Lebanon Maronite Parish,15-17 Strettle St,Thornbury,VIC,3071,(03) 9480 2759,,,,,,,,,
Religious Organisations,Lawton Lodge UCA Conference Centre,14 Shanns Ave,Mornington,VIC,3931,(03) 5977 0986,,,,,,,,,
Religious Organisations,Leongatha Seventh-day Adventist Church,5 Hassett St,Leongatha,VIC,3953,0417 320 231,,krisandgrae@hotmail.com,http://leongatha.adventist.org.au/,,,,,,
Religious Organisations,Liber8 Church,3 Jamieson St,Warrnambool,VIC,3280,0414 185 365,,info@liber8.org.au,liber8.org.au,,1994,,,,
Religious Organisations,Liberty Life Church,121 Morphett Rd,Camden Park,SA,5038,(08) 8295 1161,,info@libertylife.com.au,www.libertylife.com.au,,,83 008 192 014,Active,Business Name,99% ABN Accuracy
Religious Organisations,Life in the Word and Better Education,1st Floor Suite 6 30- 32 Ellingworth Parade,Box Hill,VIC,3128,(03) 9899 2000,,,,,,,,,
Religious Organisations,LifeWorks Relationship Counselling and Education Services,648 High St,Reservoir,VIC,3073,(03) 8650 6200,,,,,,50 071 373 950,Active,Entity Name,99% ABN Accuracy
Religious Organisations,LifeWorks Relationship Counselling and Education Services,5 Everage St,Moonee Ponds,VIC,3039,(03) 8650 6200,,lifeworks@lifeworks.com.au,http://www.lifeworks.com.au,,,50 071 373 950,Active,Entity Name,99% ABN Accuracy
Religious Organisations,Lingsu (Aus),499 South Rd,Ashford,SA,5035,(08) 8371 1005,,,,,,,,,
Religious Organisations,Loyal Order of the Moorabbit,,Mabins Well,VIC,2716,0438 303 448,,,,,,,,,
Religious Organisations,Lutheran Church Community Care,309 Prospect Rd,Prospect,SA,5082,(08) 8269 9300,,,http://www.lccsa.org.au,,,,,,
Religious Organisations,Mahmood Mosque,6 - 8 Toogood Ave,Beverley,SA,5009,0402 388 965,,,,,,,,,
Religious Organisations,Manoah-Christian Senior Citizens Homes,86 Mills Rd,Martin,WA,6110,(08) 9398 7374,,,,,,,,,
Religious Organisations,Melbourne Pastors Network,7 Rimmer St,Mentone,VIC,3194,(03) 9585 1134,,,,,,,,,
Religious Organisations,Methodist Trinity Church,157 Kidds Rd,Doveton,VIC,3177,(03) 9794 7525,,,tmc.cmca.ws,,,,,,
Religious Organisations,Mikveh Chaya Mousske Schneerson,38 Empress Rd,St Kilda East,VIC,3183,(03) 9527 7555,,,,,,,,,
Religious Organisations,Millennium Christian Life Centre The,78 Atherton Rd,Oakleigh,VIC,3166,(03) 9077 9410,,,,,,,,,
Religious Organisations,Millennium Life Charity Organisation,229 New St,Brighton,VIC,3186,0405 615 884,,,,,2000,,,,
Religious Organisations,Missionary Sisters Of Christ The King,1 Kirala Crst,Berriedale,TAS,7011,(03) 6249 4394,,,,,,96 996 419 230,Active,Trading Name (Historic),99% ABN Accuracy
Religious Organisations,Moral Re Armament,,suppressed,suppressed,,(02) 6281 2107,,,www.au.iofc.com,,,,,,
Religious Organisations,Moral Rearmament,226 Kooyong Rd,Toorak,VIC,3142,(03) 9822 1210,,,,,,,,,
Religious Organisations,Moriel Ministries Australia,30 Summerlea St,Trafalgar,VIC,3824,(03) 5633 2300,,,,,,,,,
Religious Organisations,Morley Worship Centre,328 Walter Rd,Morley,WA,6062,(08) 9275 9595,,,,,,,,,
Religious Organisations,Native Valley Bible Fellowship,,Nairne,SA,5252,(08) 8388 6106,,,,,,75 665 516 239,Active,Entity Name,99% ABN Accuracy
Religious Organisations,Ninga Mia Fellowship,Ninga Mia Village,Kalgoorlie,WA,6430,(08) 9021 5862,,,,,,,,,
Religious Organisations,OAC Ministries (Aust) Ltd,Unit 2/ 9-11 Highview Dr,Doncaster,VIC,3108,(03) 9840 1144,,,,,,,,,
Religious Organisations,"Office Of Justice,Ecology & Peace",,Broome,WA,6725,(08) 9192 1060,,,,,,,,,
Religious Organisations,Oracle Ministry,16 Martin St,Thornbury,VIC,3071,0417 188 855,,minister@oracleministry.com,http://www.oracleministry.com,,,,,,
Religious Organisations,Order Of St Luke The Physician (Australasia),112 100 Harold St,Wantirna,VIC,3152,(03) 9837 5097,,natsec@osl.org.au,Visit Us,,,,,,
Religious Organisations,Order Of The Cross (melb Group) The,42 Terrara Rd,Vermont,VIC,3133,(03) 9874 4676,,,,,,,,,
Religious Organisations,Origins Centre The,Jayes Rd,Balingup,WA,6253,(08) 9764 1109,,origins@iinet.com.au,http://origins.mysouthwest.com.au,,,,,,
Religious Organisations,Our Lady's Parish Church Craigieburn,171 Craigieburn Rd,Craigieburn,VIC,3064,(03) 9308 3957,,info@ourladys.org,http://www.our-ladys.org,,1985,,,,
Religious Organisations,Pallotti College,McNamaras Rd,Millgrove,VIC,3799,(03) 5966 2585,,,,,,99 414 292 708,Active,Entity Name,99% ABN Accuracy
Religious Organisations,Pathway to Life,20 Nicholls St,Devonport,TAS,7310,(03) 6423 3796,,office@pathwaytolife.org.au,http://www.pathwaytolife.com.au,,,51 882 348 261,Active,Entity Name,99% ABN Accuracy
Religious Organisations,Perth Bible College (Inc),1 College Ct,Karrinyup,WA,6018,(08) 9243 2000,,college@pbc.wa.edu.au,http://http://www.pbc.wa.edu.au,,,52 599 089 532,Active,Entity Name,99% ABN Accuracy
Religious Organisations,Planetshakers Church,40 Lakeside Bvd,Pakenham,VIC,3810,1300 883 321,,southeast@planetshakers.com,www.planetshakers.com/australia/southeast,,,,,,
Religious Organisations,Planetshakers Church,360 Main Rd,Lower Plenty,VIC,3093,(03) 9439 5555,,web@planetshakers.com,www2.planetshakers.com/australia/northeast,,,,,,
Religious Organisations,Pontian Brotherhood Of SA Incorporated,674 Torrens Rd,Pennington,SA,5013,(08) 8447 5567,,,,,,,,,
Religious Organisations,Poor Clare Monastery,18-20 Edwards Rd,Kennington,VIC,3550,(03) 5443 7397,,,,,,,,,
Religious Organisations,Post Disaster Ministry,212 Pirie St,Adelaide,SA,5000,0408 803 034,,,,,,,,,
Religious Organisations,Potters House Christian Church Geelong,23 Elizabeth St,Geelong West,VIC,3218,0435 855 181,,grplum@gmail.com,http://www.geelongchurch.com,,,,,,
Religious Organisations,Potters House Christian Fellowship Dandenong,Lvl 1/ 1-7 Langhorne St,Dandenong,VIC,3175,(03) 8794 9041,,,,,,,,,
Religious Organisations,Praise@Resurrection Charismatic Prayer Group,51 Gum Rd,St Albans,VIC,3021,(03) 8307 3082,,,,,,,,,
Religious Organisations,Prayer Room,92 Gascoyne Way,Cooloongup,WA,6168,(08) 9592 1760,,,,,,,,,
Religious Organisations,Presbyterian Youth Victoria,268 Canterbury Rd,Heathmont,VIC,3135,(03) 9017 4676,,,,,,,,,
Religious Organisations,Presentation Sisters Convent,,Myrtleford,VIC,3737,(03) 5752 1031,,,,,,,,,
Religious Organisations,Prison Fellowship Of Australia - WA Council,Unit 3/ 436 Lord St,Mt Lawley,WA,6050,(08) 9228 4649,,,,,,35 550 201 911,Active,Trading Name,99% ABN Accuracy
Religious Organisations,Purpose Living City Church,"Melbourne High School, T 29, Alexandra Ave",South Yarra,VIC,3141,0403 298 897,,,,,,,,,
Religious Organisations,Quakers (Religious Society of Friends),14 Desaumarez St,Kensington Park,SA,5068,0416 785 937,,,,,,,,,
Religious Organisations,Quang Duc Buddist Welfare Association Of Victoria,85 Lynch Rd,Fawkner,VIC,3060,(03) 9357 3544,,,,,,,,,
Religious Organisations,Redemption Churches,,suppressed,suppressed,,0490 136 162,,Truth@RedemptionChurches.com,,,,,,,
Religious Organisations,Retreat The,7 Gay St,Morwell,VIC,3840,(03) 5134 8987,,,,,,,,,
Religious Organisations,Riverview Bible College,1 Thorogood St,Burswood,WA,6100,(08) 9470 1256,,,,,,,,,
Religious Organisations,Sai Baba Centre Of Launceston,131 Jones,Liffey,TAS,7301,(03) 6397 3498,,,,,,,,,
Religious Organisations,Salesians of Don Bosco,1A Ventnor St,Chadstone,VIC,3148,(03) 9569 0707,,,,,,,,,
Religious Organisations,Salesians of Don Bosco,Lysterfield Rd,Lysterfield,VIC,3156,(03) 9758 1611,,,,,,,,,
Religious Organisations,Salvation Army Corps The,70 Henna St,Warrnambool,VIC,3280,(03) 5561 6792,,,,,,,,,
Religious Organisations,Salvation Army Quarters,16 Heath St,Red Cliffs,VIC,3496,(03) 5024 2110,,,,,,,,,
Religious Organisations,Salvos Ferntree Gully,3/ 1841 Ferntree Gully Rd,Mountain Gate,VIC,3156,(03) 9756 0495,,,http://www.salvationarmy.org.au,,,,,,
Religious Organisations,Scripture Union In N.T.,,suppressed,suppressed,,(08) 8945 4351,,info@sunt.org.au,http://sunt.org.au,,,,,,
Religious Organisations,Seventh Day Adventist Church (Sale),53 Stawell St,Sale,VIC,3850,(03) 5144 4119,,,,,,,,,
Religious Organisations,Seventh Day Adventists Churches,101 Lava St,Warrnambool,VIC,3280,(03) 5562 4933,,,,,,,,,
Religious Organisations,Seventh Day Adventists Churches,71 King St,Hamilton,VIC,3300,(03) 5562 4933,,,,,,,,,
Religious Organisations,Seventh Day Adventists Churches,85 Cape Nelson Rd,Portland,VIC,3305,(03) 5562 4933,,,,,,,,,
Religious Organisations,Shekinah Glory Christian Fellowship Inc.,21A Sun Crst,Sunshine,VIC,3020,0414 206 686,,revr.wedi@gmail.com,http://www.shekinah-glory.com.au,,,,,,
Religious Organisations,Sikh Cultural Society of Victoria The,344 Hume Hwy,Craigieburn,VIC,3064,(03) 9305 6511,,,,,,,,,
Religious Organisations,Sikh Society Of South Australia Inc,10 Mt Barker Rd,Glen Osmond,SA,5064,(08) 8379 4420,,,,,,87 775 890 155,Active,Entity Name,99% ABN Accuracy
Religious Organisations,Silver City CRC,,suppressed,suppressed,,0408 624 374,,,,,,,,,
Religious Organisations,Sirius USEIT,1 Inez Ave,Eltham,VIC,3095,0427 381 911,,,www.siriususeit.com/cp.html,,,,,,
Religious Organisations,Slavic Gospel Association,351 Princes Hwy,Noble Park,VIC,3174,(03) 9562 3434,,,,,,31 731 714 749,Active,Entity Name,99% ABN Accuracy
Religious Organisations,Soul Care Industries,,Ocean Grove,VIC,3226,(03) 5256 3530,,,,,,,,,
Religious Organisations,Sound City Church,5 McCamey Ave,Rockingham,WA,6168,(08) 9592 2457,,,,,,96 399 709 487,Active,Trading Name,99% ABN Accuracy
Religious Organisations,Southland Harvest Fellowship,Sandor's Motor Inn / 179 Deakin Ave,Mildura,VIC,3500,(03) 5023 4925,,,,,,41 970 147 426,Active,Entity Name,99% ABN Accuracy
Religious Organisations,Spiritualist Church & Psychic Research,,Moonah,TAS,7009,(03) 6243 1442,,,,,,,,,
Religious Organisations,St Anthonys Coptic Orthodox Monastery,,Heathcote,VIC,3523,(03) 5433 3026,,,,,,,,,
Religious Organisations,St Columbans Mission Priests Residence,69 Woodland St,Essendon North,VIC,3041,(03) 9379 4644,,,,,,,,,
Religious Organisations,St John Of God Convent,,Lake Wendouree,VIC,3350,(03) 5320 2181,,,,,,,,,
Religious Organisations,St Joseph's Times Of Mass & Reconciliation,Cnr Macquarrie & Harrington Strs,Hobart,TAS,7000,(03) 6234 4979,,,,,,,,,
Religious Organisations,St Mary of the Angel Appeal Office,Myers St,Geelong,VIC,3220,(03) 5229 8004,,,,,,,,,
Religious Organisations,St Marys House Of Welcome,165 Brunswick St,Fitzroy,VIC,3065,(03) 9417 6497,,,,,,54 050 278 754,Active,Entity Name,99% ABN Accuracy
Religious Organisations,St Matthew's Prahran,157A High St,Prahran,VIC,3181,(03) 9510 3326,,info@stmatts.com.au,Visit Our Website,,,,,,
Religious Organisations,St Raphael's Home For The Aged,2 Franciscan Ave,Lockleys,SA,5032,(08) 8353 6022,,,,,,59 837 469 096,Active,Trading Name,99% ABN Accuracy
Religious Organisations,St Vincent De Paul Society Family Centre,7 Doswell Tce,Kadina,SA,5554,(08) 8821 3931,,,,,,,,,
Religious Organisations,Subud Spiritual Association,222 Shepperton Rd,East Victoria Park,WA,6101,(08) 9349 2773,,,,,,,,,
Religious Organisations,Sukyo Mahikari Adelaide,,Adelaide,SA,5000,(08) 8332 0345,,,,,,,,,
Religious Organisations,Sukyo Mahikari Hobart,3rd Floor Biggins Block 67 Letitia St,North Hobart,TAS,7000,(03) 6231 6435,,,,,,,,,
Religious Organisations,Sukyo Mahikari Melbourne,19 Garden Rd,Camberwell,VIC,3124,(03) 9809 0551,,,,,,,,,
Religious Organisations,Swan Christian Education Associations Inc,9 Sayer St,Midland,WA,6056,(08) 9264 6411,,,,,,,,,
Religious Organisations,Swan Hill Presbyterian Church,325 Campbell St,Swan Hill,VIC,3585,(03) 5592 5220,,pastormiles5@gmail.com,,,,89 161 075 037,Active,Entity Name,99% ABN Accuracy
Religious Organisations,Tamil Church TWC,,suppressed,suppressed,,0414 316 564,,,,,,,,,
Religious Organisations,Tashs Tarot Reading,,Cobram,VIC,3644,(03) 5871 2052,,tashstarot@hotmail.com,http://tashstarotcards.webs.com,,,,,,
Religious Organisations,Temple Society Australia,152 Tucker Rd,Bentleigh,VIC,3204,(03) 9557 6713,,,,,,98 780 927 092,Active,Entity Name,99% ABN Accuracy
Religious Organisations,The Emissaries (S.A.) Inc,Riverdell Clifford Rd,Hillier,SA,5116,(08) 8523 1329,,,,,,83 652 750 227,Active,Entity Name,99% ABN Accuracy
Religious Organisations,The Gideons International Australia,44 Clifton St,Blair Athol,SA,5084,(08) 8862 1553,,,,,,,,,
Religious Organisations,The Potter's House Christian Church - Maylands,181 Guildford Rd,Maylands,WA,6051,0455 755 835,,admin@pottershousemaylands.com,http://www.pottershousemaylands.com,,,,,,
Religious Organisations,The Potters House Christian Church Thomastown,1 Austarc Ave,Thomastown,VIC,3074,0438 469 820,,ttownphcf@hotmail.com,http://www.pottershousethomastown.com,,,,,,
Religious Organisations,The Salvation Army Crossroads West,333 William St,Perth,WA,6000,(08) 9328 1600,,,,,,,,,
Religious Organisations,The Wellspring Centre Incorporated,Unit 63 10 Y St,Ashburton,VIC,3147,(03) 9885 0277,,info@wellspringcentre.org.au,http://www.wellspringcentre.org.au,,,,,,
Religious Organisations,Theosophical Fellowship Ltd The,523 Centre Rd,Bentleigh,VIC,3204,(03) 9563 9400,,,,,,,,,
Religious Organisations,Trinity St. Nicholas Russian Greek-Catholic Church,72 Hotham St,St Kilda East,VIC,3183,(03) 9527 1730,,vexillaregis@hotmail.com,http://www.stnich.org,,,,,,
Religious Organisations,Truth & Friendship Mission,620 Springvale Rd,Mulgrave,VIC,3170,(03) 9545 3868,,,,,,,,,
Religious Organisations,Uncle Joe's Mess Hall,76 King St,Perth,WA,6000,(08) 9321 4502,,,Visit Our Facebook Page,,,,,,
Religious Organisations,Unitarian Community of Victoria,,Melbourne,VIC,3000,(03) 9527 7038,,,,,,,,,
Religious Organisations,United Muslim Migrant Association,72 George St,Doncaster,VIC,3108,(03) 9842 6491,,,,,,,,,
Religious Organisations,Uniting Church in Australia Ferntree Gully,6 The Avenue,Ferntree Gully,VIC,3156,(03) 9753 6522,,ftg.uca@gmail.com,http://ferntreegullyuca.wordpress.com/,,,,,,
Religious Organisations,Wangaratta Community Church,4-6 Docker St,Wangaratta,VIC,3677,(03) 5726 9049,,korot4@bigpond.com,https://www.facebook.com/pages/Wangaratta-Community-Church/258961842094,,,99 081 936 629,Cancelled,Trading Name,99% ABN Accuracy
Religious Organisations,Waverley Christian Fellowship,1248 High Street Rd,Wantirna South,VIC,3152,(03) 9801 2155,,,,,,89 277 942 075,Active,Entity Name (Historic),99% ABN Accuracy
Religious Organisations,Weightlifters Prophetic,,Busselton,WA,6280,(08) 9755 8910,,,,,,15 484 537 060,Active,Business Name,99% ABN Accuracy
Religious Organisations,Westpoint City Church Inc,Unit 1/ 25 Finance Pl,Malaga,WA,6090,(08) 9248 4976,,,,,,43 482 539 423,Active,Entity Name,99% ABN Accuracy
Religious Organisations,Willunga Uniting Church,St Jude St,Willunga,SA,5172,(08) 8556 2650,,,,,,84 876 420 133,Active,Entity Name,99% ABN Accuracy
Religious Organisations,World Apostolate of Fatima (Fatima Marian Centre),,Murrumbeena,VIC,3163,(03) 9569 9653,,,,,,,,,
Religious Organisations,Youth Dimension,58- 64 Hall Rd,Warrandyte South,VIC,3134,(03) 9844 1944,,,,,,18 005 542 601,Active,Entity Name,99% ABN Accuracy
Religious Organisations,"Zen Buddhist Community, Jikishoan",,Footscray,VIC,3011,(03) 9687 6981,,,,,,,,,
Religious Organisations,Zionist Federation Of Aust,,Caulfield North,VIC,3161,(03) 9927 5644,,,,,,,,,
Religious Organisations,Ace Global Ministries,4- 22 Showground Rd,Castle Hill,NSW,2154,(02) 9899 9988,,,,,,90 647 846 691,Active,Entity Name (Historic),25% ABN Accuracy
Religious Organisations,Adventist Development & Relief Agency,146 Fox Valley Rd,Wahroonga,NSW,2076,(02) 9489 5488,,,,,,13 104 553 808,Active,Business Name,25% ABN Accuracy
Religious Organisations,Alan Walker College Of Evangelism,6 Lincluden Pl,North Parramatta,NSW,2151,(02) 9630 0777,,,,,,28 299 455 234,Active,Entity Name,25% ABN Accuracy
Religious Organisations,Al-Zahra Muslim Womens Association,21 Firth St,Arncliffe,NSW,2205,(02) 9599 1839,,,,,,84 136 423 269,Active,Entity Name,25% ABN Accuracy
Religious Organisations,AMOS Australian Mission Outreach Support,75 Morris Rd,Rothwell,QLD,4022,(07) 3885 7022,,,,,,30 093 967 287,Active,Entity Name,25% ABN Accuracy
Religious Organisations,Anglican Board Of Mission Australia,91 Bathurst St,Sydney,NSW,2000,(02) 9264 1021,,,,,,18 097 944 717,Active,Entity Name,25% ABN Accuracy
Religious Organisations,Anglican Church Diocese Of Sydney,St Andrew's House Sydney Sq,Sydney,NSW,2000,(02) 9265 1555,,,,,,80 405 022 060,Active,Entity Name,25% ABN Accuracy
Religious Organisations,Anglican Glebe Administration Board,St Andrew's House Sydney Sq,Sydney,NSW,2000,(02) 9265 1555,,,,,,16 008 382 090,Active,Entity Name,25% ABN Accuracy
Religious Organisations,Anglican Home Mission Society,45 Hunter St,Parramatta,NSW,2150,(02) 9895 8000,,,,,,88 851 368 006,Active,Entity Name (Historic),25% ABN Accuracy
Religious Organisations,Anglican Media Council,St Andrew's House Sydney Sq,Sydney,NSW,2000,(02) 9265 1505,,,,,,26 776 497 877,Active,Entity Name,25% ABN Accuracy
Religious Organisations,Anglican Retirement Villages,Lvl 2/ 62 Norwest Blv,Baulkham Hills,NSW,2153,(02) 9421 5333,,,,,,39 922 848 563,Active,Entity Name (Historic),25% ABN Accuracy
Religious Organisations,Anglican Youth Department,St Andrew's House Sydney Sq,Sydney,NSW,2000,(02) 9265 1630,,,,,,44 000 407 349,Active,Entity Name,25% ABN Accuracy
Religious Organisations,AOG Burdekin Community Church,International Dr,Ayr,QLD,4807,(07) 4783 5552,,,,,,21 393 756 239,Active,Entity Name,25% ABN Accuracy
Religious Organisations,Apostolic Church Australia,46 Brae St,Inverell,NSW,2360,(02) 6722 4761,,,,,,24 004 350 798,Active,Entity Name,25% ABN Accuracy
Religious Organisations,Australian Buddhist Mission,Ross Rd,Peats Ridge,NSW,2250,(02) 4375 1178,,,,,,87 746 086 345,Active,Entity Name,25% ABN Accuracy
Religious Organisations,Australian Federation of Islamic Councils,932 Bourke St,Zetland,NSW,2017,(02) 9319 6733,,,muslimsaustralia.com.au,,,37 002 757 155,Active,Entity Name,25% ABN Accuracy
Religious Organisations,Australian Institute Of Buddhist Learning,15 Metella Rd,Toongabbie,NSW,2146,(02) 9896 4613,,,,,,50 458 552 994,Active,Entity Name,25% ABN Accuracy
Religious Organisations,Australian Islamic Mission,27 Arthur St,Punchbowl,NSW,2196,(02) 9758 1215,,centre@aim.org.au,,,,40 682 415 215,Active,Entity Name,25% ABN Accuracy
Religious Organisations,Australian Navigators Ltd,29a/ 5 Inglewood Pl,Baulkham Hills,NSW,2153,(02) 8814 5006,,,,,,26 001 294 677,Active,Entity Name,25% ABN Accuracy
Religious Organisations,Bahai Centre Of Learning,26 Mayneview St,Milton,QLD,4064,(07) 3367 3303,,,,,,44 385 133 509,Active,Business Name,25% ABN Accuracy
Religious Organisations,Bahai Community,,Wyong,NSW,2259,(02) 4305 0880,,,,,,54 858 239 715,Active,Entity Name,25% ABN Accuracy
Religious Organisations,Baha'i Community,,Gosford East,NSW,2250,(02) 4324 5080,,,,,,54 858 239 715,Active,Entity Name,25% ABN Accuracy
Religious Organisations,Baha'i Community,173 Mona Vale Rd,Ingleside,NSW,2101,(02) 9998 9222,,,,,,54 858 239 715,Active,Entity Name,25% ABN Accuracy
Religious Organisations,Benedictine Monks,121 Arcadia Rd,Arcadia,NSW,2159,(02) 9653 1159,,,,,,43 955 652 831,Active,Entity Name,25% ABN Accuracy
Religious Organisations,Bible Education Centre Inc,Shop 1/ 76 Bathurst St,Liverpool,NSW,2170,(02) 9822 2667,,,,,,61 045 749 638,Active,Entity Name,25% ABN Accuracy
Religious Organisations,Blessed Sacrament Fathers,2 Rose St,Chatswood,NSW,2067,(02) 9415 4678,,,,,,74 052 548 400,Active,Entity Name,25% ABN Accuracy
Religious Organisations,Blue Mountains City Church,172 Rusden Rd,Mt Riverview,NSW,2774,(02) 4720 6100,,,,,,24 132 815 816,Active,Entity Name,25% ABN Accuracy
Religious Organisations,Blue Mountains City Church Inc,172 Rusden Rd,Mt Riverview,NSW,2774,(02) 4720 6100,,office@bmcitychurch.com,Visit our website,,,24 132 815 816,Active,Entity Name,25% ABN Accuracy
Religious Organisations,Brisbane Anglican Maori Mission Inc,At The Rear Of 338 Algester St,Algester,QLD,4115,0401 996 768,,info@brisbanemaorimission.com.au,http://www.brisbanemaorimission.com.au,,,89 542 552 399,Active,Entity Name,25% ABN Accuracy
Religious Organisations,Buddhist Council of New South Wales,25/ 56-62 Chandos St,St Leonards,NSW,2065,(02) 9966 8893,,,,,,18 550 218 989,Active,Entity Name,25% ABN Accuracy
Religious Organisations,Buena Vista Opportunity Shop,195 Peisley St,Orange,NSW,2800,(02) 6361 7884,,,,,,71 050 057 620,Active,Business Name,25% ABN Accuracy
Religious Organisations,Bush Church Aid Society,Level 7/ 37 York St,Sydney,NSW,2000,(02) 9262 5017,,,,,,38 434 490 314,Active,Entity Name,25% ABN Accuracy
Religious Organisations,Bush Church Aid Society,9 Fenimore St,Wishart,QLD,4122,(07) 3349 9081,,,www.bushchurchaid.com.au,,,38 434 490 314,Active,Entity Name,25% ABN Accuracy
Religious Organisations,C3 Church Monash,Livingston Ave,Kambah,ACT,2902,(02) 6298 5900,,,www.c3monash.org.au,,,73 794 432 277,Active,Entity Name,25% ABN Accuracy
Religious Organisations,Carina Youth Agency,175 Winstanley St,Carina,QLD,4152,(07) 3395 3044,,,,,,69 677 879 949,Active,Entity Name,25% ABN Accuracy
Religious Organisations,Catholic Charismatic Renewal Centre,19A Quirk St,Rozelle,NSW,2039,(02) 9810 2499,,,,,,35 072 855 939,Active,Entity Name (Historic),25% ABN Accuracy
Religious Organisations,Catholic Education Office Archdiocese Of Sydney Central Office,38 Renwick St,Leichhardt,NSW,2040,(02) 9569 6111,,,,,,82 780 246 140,Active,Entity Name (Historic),25% ABN Accuracy
Religious Organisations,"Catholic Enquiry Centre, National Faith Promotion",80 Albion St,Surry Hills,NSW,2010,(02) 9211 4907,,,,,,50 726 817 672,Active,Entity Name,25% ABN Accuracy
Religious Organisations,Catholic Resource Centre,Gilmour St,Kelso,NSW,2795,(02) 6338 3022,,,,,,90 582 344 998,Active,Entity Name,25% ABN Accuracy
Religious Organisations,CBD Chabad Centre,Lvl 4/ 199 Clarence St,Sydney,NSW,2000,(02) 9262 2809,,,,,,56 123 198 171,Active,Entity Name,25% ABN Accuracy
Religious Organisations,Centre For Multi Cultural Pastoral Care,333 Given Tce,Paddington,QLD,4064,(07) 3876 3294,,,,,,25 328 758 007,Active,DGR Name (Historic),25% ABN Accuracy
Religious Organisations,Challenge Ministries,20 Malvern Ave,Croydon,NSW,2132,(02) 9747 4133,,,,,,23 959 475 978,Active,Entity Name,25% ABN Accuracy
Religious Organisations,Chinese Catholic Community,2 Waters St,Rapid Creek,NT,810,(08) 8985 6087,,,,,,33 023 668 108,Active,Entity Name,25% ABN Accuracy
Religious Organisations,Christ For All Nations,Unit 13/ 79 Lower West Burleigh Rd,Burleigh Waters,QLD,4220,(07) 5508 2914,,,,,,61 120 404 444,Active,Entity Name,25% ABN Accuracy
Religious Organisations,Christadelphian Bible School,Bible Society 2 Stilling St,Rathmines,NSW,2283,(02) 4975 1145,,,www.rathminesbibleschool.com,,,94 001 286 424,Active,Entity Name,25% ABN Accuracy
Religious Organisations,Christadelphian Ecclesia,110 Cross St,Kemps Creek,NSW,2178,1800 355 592,,ask@askservice.org,http://www.kcce.org.au,,,88 605 584 057,Active,Entity Name,25% ABN Accuracy
Religious Organisations,Christian Brothers Provincial Administration,2 Thames St,Balmain,NSW,2041,(02) 9810 3922,,,,,,64 066 939 786,Active,Other Name,25% ABN Accuracy
Religious Organisations,Christian Centre,Dutton St,Normanton,QLD,4890,(07) 4745 1212,,,,,,43 095 955 016,Active,Entity Name,25% ABN Accuracy
Religious Organisations,Christian Community Ministries,70 Laughlin St,Kingston,QLD,4114,(07) 3827 6571,,ccmsoffice@ccmschools.edu.au,,,,96 105 961 135,Active,Entity Name,25% ABN Accuracy
Religious Organisations,Christian Heritage Ministries Australia,156 Brighton Tce,Brighton,QLD,4017,(07) 3314 1999,,,,,,21 011 059 135,Active,Entity Name,25% ABN Accuracy
Religious Organisations,Christian Media Services Inc,165 Shaftesbury Rd,Eastwood,NSW,2122,(02) 9874 8830,,,,,,91 859 905 010,Active,Entity Name,25% ABN Accuracy
Religious Organisations,"Christian Mission Fellowship Fairfield, NSW",303 Horsley Dr,Fairfield,NSW,2165,0411 653 191,,,,,,71 413 373 940,Active,Entity Name,25% ABN Accuracy
Religious Organisations,Christian Science Church,273 North Quay,Brisbane,QLD,4000,(07) 3236 2023,,,,,,78 110 215 930,Active,Trading Name,25% ABN Accuracy
Religious Organisations,Christian Science Church,Lot 392 Woodanga Dr,Highvale,QLD,4520,(07) 3289 5969,,,,,,78 110 215 930,Active,Trading Name,25% ABN Accuracy
Religious Organisations,Christian Surfers Australia,191 Princes Hwy,Bulli,NSW,2516,(02) 4268 2783,,,,,,55 579 758 771,Active,Entity Name,25% ABN Accuracy
Religious Organisations,Christian Youth Centre,7 Banksia Crst,Scotts Head,NSW,2447,(02) 6569 8253,,,,,,55 998 219 869,Active,Entity Name,25% ABN Accuracy
Religious Organisations,Church Of Christ (Non-Denominational),Cnr Park and Bennett Sts,Curl Curl,NSW,2096,(02) 9938 6980,,,,,,92 790 185 932,Active,Entity Name,25% ABN Accuracy
Religious Organisations,Coffs Harbour Bible Church,26 Hi Tech Dr,Toormina,NSW,2452,(02) 6658 4275,,,,,,80 225 659 240,Active,Entity Name,25% ABN Accuracy
Religious Organisations,Couples for Christ,93-97 Main St,Blacktown,NSW,2148,(02) 9831 4044,,,,,,42 091 596 897,Active,Trading Name,25% ABN Accuracy
Religious Organisations,Covenant Players Inc,10 Cliff Rd,Freemans Reach,NSW,2756,(02) 4579 6036,,,,,,32 365 780 908,Active,Entity Name,25% ABN Accuracy
Religious Organisations,Croatian Australian Welfare Centre,86- 90 Brisbane St,St Johns Park,NSW,2176,(02) 9610 1146,,,,,,59 615 184 150,Active,Entity Name,25% ABN Accuracy
Religious Organisations,Daniel S,15 Valparaiso Ave,Toongabbie,NSW,2146,(02) 9636 4433,,,,,,58 720 557 763,Active,Entity Name (Historic),25% ABN Accuracy
Religious Organisations,Dominican Sisters,3 54 Kirrang St,Beverly Hills,NSW,2209,(02) 9554 3172,,,,,,82 464 856 272,Active,Entity Name (Historic),25% ABN Accuracy
Religious Organisations,Dutch Australian Cultural Centre,85 Market St,Smithfield,NSW,2164,(02) 9729 3384,,,http://www.dacc.com.au/,,,94 002 727 862,Active,Entity Name,25% ABN Accuracy
Religious Organisations,Eastgate Bible Church,7 Matthews St,Harristown,QLD,4350,0412 625 381,,admin@eastgatebiblechurch.net,http://www.eastgatebiblechurch.net,,,91 382 585 773,Active,Entity Name,25% ABN Accuracy
Religious Organisations,Educational Centre For Christian Spirituality,14 Frances St,Randwick,NSW,2031,(02) 9398 2211,,,,,,27 001 712 572,Active,Entity Name,25% ABN Accuracy
Religious Organisations,Evangelical Sisterhood Of Mary,30 Taylor Pl,Theresa Park,NSW,2570,(02) 4651 2334,,,,,,42 001 782 305,Active,Entity Name,25% ABN Accuracy
Religious Organisations,Every Home For Christ,1 The Strand,Penshurst,NSW,2222,(02) 9570 8211,,,,,,88 001 276 240,Active,Entity Name (Historic),25% ABN Accuracy
Religious Organisations,Faith in Christ Fellowship Macarthur,35 Lincoln St,Minto,NSW,2566,(02) 8731 2920,,,http://www.fcfmacarthur.org.au,,,64 733 011 729,Active,Entity Name,25% ABN Accuracy
Religious Organisations,Faith Works International,47 Laidley Rd,Plainland,QLD,4341,0412 380 444,,,www.faithworksaustralia.org,,,53 147 455 212,Active,Entity Name,25% ABN Accuracy
Religious Organisations,Far East Broadcasting Co (Aust),Cnr Kingsway and Willarong Rd,Caringbah,NSW,2229,(02) 9525 6460,,,,,,68 000 509 517,Active,Entity Name,25% ABN Accuracy
Religious Organisations,Focus Military Ministry,59 Dickson Chambers St,Dickson,ACT,2602,(02) 6262 6294,,,http://www.focusmilitary.org.au,,,97 342 707 086,Active,Entity Name,25% ABN Accuracy
Religious Organisations,Franciscan Friars,14 Albert St,Edgecliff,NSW,2027,(02) 9363 1638,,,,,,75 876 383 237,Active,Trading Name (Historic),25% ABN Accuracy
Religious Organisations,Franciscan Friars,311 Merrylands Rd,Merrylands,NSW,2160,(02) 9637 7147,,,,,,75 876 383 237,Active,Trading Name (Historic),25% ABN Accuracy
Religious Organisations,Franciscan Friars,15 Prospect Rd,Summer Hill,NSW,2130,(02) 9798 5220,,,,,,75 876 383 237,Active,Trading Name (Historic),25% ABN Accuracy
Religious Organisations,Franciscan Friars,70 Douglas Rd,Blacktown,NSW,2148,(02) 9831 1792,,,,,,75 876 383 237,Active,Trading Name (Historic),25% ABN Accuracy
Religious Organisations,Gateway Family Church,1374 Old Cleveland Rd,Carindale,QLD,4152,(07) 3398 4525,,,,,,91 531 619 919,Active,Trading Name,25% ABN Accuracy
Religious Organisations,Glenorie Community Church,1507 Old Northern Rd,Glenorie,NSW,2157,(02) 9652 0577,,,,,,12 393 818 704,Active,Entity Name,25% ABN Accuracy
Religious Organisations,God's Power Ministries,Unit 3/ 10 Clarke St,Guildford,NSW,2161,(02) 9721 1007,,,,,,95 650 466 810,Active,Entity Name,25% ABN Accuracy
Religious Organisations,Gospel Light Baptist Church,8 Steffensen St,Bundaberg,QLD,4670,0409 180 418,,gospellightbcbundy@gmail.com,,,,99 768 517 092,Active,Entity Name,25% ABN Accuracy
Religious Organisations,Grace City Church,937 Bourke St,Waterloo,NSW,2017,0430 001 406,,info@gracecitychurch.com.au,http://www.gracecity.com.au,,,37 194 515 292,Active,Entity Name,25% ABN Accuracy
Religious Organisations,Harvest Bible Church,86 Carthage St,Tamworth,NSW,2340,0457 371 612,,contact@harvestbiblechurch.org.au,www.harvestbiblechurch.org.au/,,,42 951 498 719,Active,Entity Name,25% ABN Accuracy
Religious Organisations,Healing Ministry Centre (Golden Grove),5 Forbes St,Newtown,NSW,2042,(02) 9557 1642,,,,,,12 002 892 766,Active,Entity Name,25% ABN Accuracy
Religious Organisations,Heritage Gin Gin,33 Milden St,Gin Gin,QLD,4671,(07) 4157 3170,,,,,,31 716 089 310,Active,Other Name,25% ABN Accuracy
Religious Organisations,Hills Christian Life Centre,125 Solent Cct,Baulkham Hills,NSW,2153,(02) 8853 5353,,,,,,42 406 987 921,Active,Entity Name,25% ABN Accuracy
Religious Organisations,Hindu Society Of Qld Inc,Gayatri Mandir 178 Lyndhurst Rd,Boondall,QLD,4034,(07) 3865 3164,,,,,,62 515 008 806,Active,Entity Name,25% ABN Accuracy
Religious Organisations,Holy Family Education Centre,1 West St,Lewisham,NSW,2049,(02) 9560 2196,,,,,,73 737 517 017,Active,Entity Name,25% ABN Accuracy
Religious Organisations,Holy Spirit Association,3 Calder Rd,Darlington,NSW,2008,(02) 9310 7791,,,,,,34 005 131 171,Active,Entity Name,25% ABN Accuracy
Religious Organisations,Hornsby Baha'i Centre of Learning,19 Dural St,Hornsby,NSW,2077,(02) 9475 1110,,hornsbybahaicentre@gmail.com,,,,65 139 032 248,Active,Entity Name (Historic),25% ABN Accuracy
Religious Organisations,Initiatives of Change,10 Dooley Pl,Curtin,ACT,2605,(02) 6281 2107,,,,,,22 004 350 789,Active,Entity Name,25% ABN Accuracy
Religious Organisations,Islamic Foundation For Education & Welfare,206 Humphries Rd,Bonnyrigg,NSW,2177,(02) 9823 8208,,,,,,23 878 124 612,Active,Entity Name,25% ABN Accuracy
Religious Organisations,Islamic Society Of Darra,47 Dulcie St,Darra,QLD,4076,(07) 3375 4579,,,,,,68 843 341 383,Active,Entity Name,25% ABN Accuracy
Religious Organisations,Jericho Road Presbyterian Social Services,168 Chalmers St,Surry Hills,NSW,2010,(02) 9690 9376,,info@jerichoroad.org.au,www.jerichoroad.org.au/,,,47 776 809 174,Active,Entity Name,25% ABN Accuracy
Religious Organisations,Joyce Meyer Ministries Pty Ltd,2 Devlan St,Mansfield,QLD,4122,(07) 3349 1200,,,www.joycemeyer.org/,,,73 075 343 485,Active,Entity Name,25% ABN Accuracy
Religious Organisations,Karma Dro Phan Ling Institute,,Bega,NSW,2550,(02) 6493 8586,,,,,,31 795 416 471,Active,Entity Name,25% ABN Accuracy
Religious Organisations,Katoomba Christian Convention,Cliff Dr,Katoomba,NSW,2780,1300 737 140,,,,,,86 000 153 560,Active,Entity Name,25% ABN Accuracy
Religious Organisations,Khmer Buddhist Society Of Qld Inc,44 Third Ave,Marsden,QLD,4132,(07) 3803 0845,,,,,,63 448 367 670,Active,Entity Name,25% ABN Accuracy
Religious Organisations,Korean Buddhism Jongbopsa,2 Elliott St,Belfield,NSW,2191,(02) 9642 7672,,,,,,76 053 110 883,Active,Entity Name,25% ABN Accuracy
Religious Organisations,Kwan Um School Of Zen,15 Flaggy Creek Rd,Mt Crosby,QLD,4306,(07) 3201 2571,,,,,,79 623 937 580,Active,Entity Name,25% ABN Accuracy
Religious Organisations,Life Ministries,72 Queens Rd,Lawson,NSW,2783,(02) 4759 2191,,,,,,88 982 014 526,Active,Entity Name,25% ABN Accuracy
Religious Organisations,Living Waters Hope Centre,125 Serpentine Rd,Terrigal,NSW,2260,(02) 4365 4804,,,,,,23 586 504 626,Active,Entity Name,25% ABN Accuracy
Religious Organisations,LOGAN VILLAGE CHRISTIAN FAMILY,30 Wharf St,Logan Village,QLD,4207,0401 717 157,,lvchristianfamily@gmail.com,,,,33 461 446 643,Active,Entity Name,25% ABN Accuracy
Religious Organisations,Mandalay Pastoral Co.,Bundanoon Rd,Exeter,NSW,2579,(02) 4883 6828,,,,,,95 003 598 249,Active,Entity Name,25% ABN Accuracy
Religious Organisations,Maori Anglican Fellowship,587 Elizabeth St,Redfern,NSW,2016,(02) 9319 2589,,,,,,30 090 633 117,Active,Entity Name (Historic),25% ABN Accuracy
Religious Organisations,Maria-Kinder,14 Sommerville St,Wentworth Falls,NSW,2782,(02) 4757 1975,,,,,,62 651 544 291,Active,Entity Name,25% ABN Accuracy
Religious Organisations,Marist Fathers,"""Villawood"" 1 Mary St",Hunters Hill,NSW,2110,(02) 9816 5099,,,,,,56 085 896 500,Active,Trading Name,25% ABN Accuracy
Religious Organisations,Marist Fathers,"""Parish"" 3a Mary St",Hunters Hill,NSW,2110,(02) 9817 5325,,,,,,56 085 896 500,Active,Trading Name,25% ABN Accuracy
Religious Organisations,Mission Without Borders,10 Stubbs St,Auburn,NSW,2144,(02) 9647 2022,,,,,,38 000 827 798,Active,Entity Name,25% ABN Accuracy
Religious Organisations,Missionaries Of Charity,105 Third St,Katherine,NT,850,(08) 8972 1175,,,,,,48 874 356 825,Active,Entity Name (Historic),25% ABN Accuracy
Religious Organisations,Missionary Sisters Of Mary Queen Novitiate,200 William St,Granville,NSW,2142,(02) 9637 9953,,,,,,37 092 752 611,Active,Trading Name,25% ABN Accuracy
Religious Organisations,Multicultural Christian Fellowship Of Aust Incorp,2 Earhart Ct,Marrara,NT,812,(08) 8927 8216,,cmangohig@yahoo.com,,101-200,1994,33 069 610 795,Active,Entity Name,25% ABN Accuracy
Religious Organisations,Mundubbera New Life Centre,32 Stuart Russell St,Mundubbera,QLD,4626,(07) 4165 4594,,,,,,33 087 065 502,Active,Trading Name,25% ABN Accuracy
Religious Organisations,Muslim Organisation Sunshine Coast Inc,,Maroochydore,QLD,4558,0407 875 960,,,,,,22 031 206 810,Active,Entity Name,25% ABN Accuracy
Religious Organisations,New Apostolic Church,Cnr Queens Rd and Arch St,Kingston,QLD,4114,(07) 3290 0752,,,,,,67 011 031 780,Active,Entity Name,25% ABN Accuracy
Religious Organisations,New Lambton Baptist Church,1 Longworth Ave,New Lambton,NSW,2305,(02) 4965 5776,,newlambtonbaptist@gmail.com,,,,69 568 699 164,Active,Other Name,25% ABN Accuracy
Religious Organisations,North Gate Church,Cnr Of Griffith Mc Donald Rd,Lavington,NSW,2641,(02) 6025 6332,,,,,,49 718 295 102,Active,Entity Name (Historic),25% ABN Accuracy
Religious Organisations,Northside Church,64 Baddeley Cres,Spence,ACT,2615,(02) 6242 7706,,info@northsidechurch.net.au,http://www.northsidechurch.net.au,,,70 428 791 616,Active,Entity Name,25% ABN Accuracy
Religious Organisations,O.A.C. Ministries,2 Bangalay St,Georges Hall,NSW,2198,(02) 9727 0330,,,,,,59 000 275 829,Active,Entity Name,25% ABN Accuracy
Religious Organisations,OAC Ministries Australia,6 Ingal St,Wishart,QLD,4122,(07) 3849 1375,,,,,,59 000 275 829,Active,Entity Name,25% ABN Accuracy
Religious Organisations,Pocket Testament League of Aust,4 Morgan St,Kingsgrove,NSW,2208,(02) 9502 2982,,,,,,95 002 076 173,Active,Entity Name,25% ABN Accuracy
Religious Organisations,Poor Clares Bethlehem Monastery,Narellan Rd,Campbelltown,NSW,2560,(02) 4625 1591,,,,,,35 663 984 738,Active,Entity Name,25% ABN Accuracy
Religious Organisations,Potters House Christian Church,2 16 Randall St,Slacks Creek,QLD,4127,0432 081 127,,sreeves88@live.com.au,www.pottershouselogan.com.au,,,23 864 517 891,Active,Trading Name,25% ABN Accuracy
Religious Organisations,Presbyterian Church Blaxland,1 5A Wilson Way St,Blaxland,NSW,2774,(02) 4739 1446,,,,,,88 014 202 128,Active,Entity Name,25% ABN Accuracy
Religious Organisations,Queensland Christian Soccer Association,Brittain Park,Coopers Plains,QLD,4108,(07) 3219 5922,,,http://www.qcsa.org.au,,,37 969 193 568,Active,Entity Name,25% ABN Accuracy
Religious Organisations,Queensland Mailbox Bible Club,131 Leybourne St,Chelmer,QLD,4068,(07) 3892 1353,,,,,,95 421 049 456,Active,Entity Name,25% ABN Accuracy
Religious Organisations,Red Shield Defence Services,29 Falcon Crst,Condon,QLD,4815,(07) 4722 5515,,,,,,57 507 607 457,Active,DGR Name (Historic),25% ABN Accuracy
Religious Organisations,Red Shield Defence Services,51 Frank St,Kirwan,QLD,4817,(07) 4773 7322,,,,,,57 507 607 457,Active,DGR Name (Historic),25% ABN Accuracy
Religious Organisations,Redemptorist Mission Team,24 Garden St,Kogarah,NSW,2217,(02) 9553 3777,,,,,,23 152 266 720,Active,Trading Name (Historic),25% ABN Accuracy
Religious Organisations,Religious Society Of Friends (Quakers),1 Bailey St,Repton,NSW,2454,(02) 6655 4237,,,,,,16 036 715 933,Active,Entity Name,25% ABN Accuracy
Religious Organisations,Revival Centres Of Aust,130 Excelsior St,Merrylands,NSW,2160,(02) 9632 5540,,,,,,82 413 449 427,Active,Entity Name,25% ABN Accuracy
Religious Organisations,Rockdale Anglican Church,431 Princes Hwy,Rockdale,NSW,2216,0403 972 631,,office@brac.org.au,http://rockdalechurch.com,,,90 073 369 985,Active,Entity Name,25% ABN Accuracy
Religious Organisations,Ruach Ministries,12 Wentworth St,Manly,NSW,2095,(02) 8002 0044,,manlybeach@ruach.org.au,,,,40 050 612 336,Active,Entity Name,25% ABN Accuracy
Religious Organisations,Ruach Ministries,"Level 1, Seaforth Baptist Church, Cnr McMillian St and Frenchs Forest Rd",Seaforth,NSW,2092,(02) 8002 0044,,,http://www.ruach.org.au,,,40 050 612 336,Active,Entity Name,25% ABN Accuracy
Religious Organisations,Salvation Army,101 Lee St,Wellington,NSW,2820,(02) 6845 2220,,,,,,94 917 169 560,Active,Trading Name,25% ABN Accuracy
Religious Organisations,Scripture Union ACT,2614 No Street Name,Cook,ACT,2614,(02) 6251 3677,,,,,,58 204 074 595,Active,Entity Name,25% ABN Accuracy
Religious Organisations,Scripture Union Australia,14/ 13 Gibbens Rd,Gosford West,NSW,2250,(02) 4337 0220,,,http://www.scriptureunion.org.au,,,53 681 642 927,Active,Entity Name,25% ABN Accuracy
Religious Organisations,Selected Messages,36 Kastelan St,Blacktown,NSW,2148,(02) 8678 8245,,,,,,44 123 751 315,Active,Entity Name,25% ABN Accuracy
Religious Organisations,Shalom House of Prayer,Collins St,Carcoar,NSW,2791,(02) 6367 3058,,,,,,86 370 010 355,Active,Entity Name,25% ABN Accuracy
Religious Organisations,Sikh Mission Centre,170 Ninth Ave,Austral,NSW,2171,(02) 9606 8047,,,,,,14 847 378 288,Active,Entity Name,25% ABN Accuracy
Religious Organisations,Society Of Christian Doctrine,3 Bunyala St,Carss Park,NSW,2221,(02) 9546 1232,,,,,,16 479 430 975,Active,Entity Name,25% ABN Accuracy
Religious Organisations,Society Of Friends (Quakers),54 Addison Rd,New Lambton,NSW,2305,(02) 4957 5562,,,,,,16 036 715 933,Active,Entity Name,25% ABN Accuracy
Religious Organisations,Southport Gospel Chapel,10 Marine Parade,Southport,QLD,4215,(07) 5531 4457,,,,,,35 591 388 477,Active,Entity Name,25% ABN Accuracy
Religious Organisations,Spearhead International Fivefold Ministry Networking Inc,Cnr Argyle and O'Connell Sts,Parramatta,NSW,2150,(02) 9687 2929,,,,,,80 360 394 802,Active,Entity Name (Historic),25% ABN Accuracy
Religious Organisations,Spirited Consulting,,Castle Hill,NSW,2154,(02) 9894 2233,,,,,,31 086 217 941,Active,Entity Name,25% ABN Accuracy
Religious Organisations,Sri Venkateswara Temple,Temple Rd,Helensburgh,NSW,2508,(02) 4294 3224,,,,,,51 421 660 604,Active,Entity Name,25% ABN Accuracy
Religious Organisations,St Ninian's Uniting Church,150 Brigalow St,Lyneham,ACT,2602,(02) 6248 9198,,,http://www.stninians.org.au,,1977,28 946 281 350,Active,Entity Name (Historic),25% ABN Accuracy
Religious Organisations,Stanley River Valley Community Church,115 Archer St,Woodford,QLD,4514,(07) 5422 9723,,,,,,74 572 168 071,Active,Trading Name,25% ABN Accuracy
Religious Organisations,Summit Lighthouse,191 Dornoch Tce,Highgate Hill,QLD,4101,(07) 3846 4801,,,,,,58 272 941 331,Active,Entity Name,25% ABN Accuracy
Religious Organisations,Terrace Christian Church,80 Benjamin Lee Dr,Raymond Terrace,NSW,2324,(02) 4987 1142,,,http://www.terracechristianchurch.com,,,12 576 873 045,Active,Trading Name,25% ABN Accuracy
Religious Organisations,The Catholic Development Fund,Lake St,Cairns,QLD,4870,(07) 4031 6470,,,,,,36 939 424 395,Active,Entity Name,25% ABN Accuracy
Religious Organisations,The Christian Community In Australia,170 Beattie St,Balmain,NSW,2041,(02) 9555 1343,,,,,,26 763 239 376,Active,Entity Name (Historic),25% ABN Accuracy
Religious Organisations,The Exodus Foundation,180 Liverpool Rd,Ashfield,NSW,2131,(02) 9799 2811,,,,,,47 342 342 713,Active,Entity Name,25% ABN Accuracy
Religious Organisations,The Far North Buddhist Association Inc,14 Bolwarra Cl,Redlynch,QLD,4870,(07) 4039 0736,,,,,,71 704 334 526,Active,Entity Name,25% ABN Accuracy
Religious Organisations,Theosophical Society In Australia,484 Kent St,Sydney,NSW,2000,(02) 9264 7056,,,,,,89 922 774 327,Active,Entity Name,25% ABN Accuracy
Religious Organisations,Thompson R & W,Hillside Dr,Casino,NSW,2470,(02) 6663 3259,,,,,,30 053 930 154,Active,Entity Name (Historic),25% ABN Accuracy
Religious Organisations,Tinana Christian Fellowship,115 Gympie Rd,Tinana,QLD,4650,(07) 4122 4300,,,,,,62 249 615 163,Active,Entity Name,25% ABN Accuracy
Religious Organisations,United City Church,114 Alexander Rd,Highland Park,QLD,4211,(07) 5665 7000,,info@unitedcitychurch.com.au,http://www.unitedcitychurch.com.au,,,42 168 984 692,Active,Entity Name,25% ABN Accuracy
Religious Organisations,Uniting Church In Australia,1 Queens Ave,Cardiff,NSW,2285,(02) 4954 6953,,,,,,63 415 761 601,Active,Entity Name (Historic),25% ABN Accuracy
Religious Organisations,Uniting Church In Australia,10 Stockton St,Morisset,NSW,2264,(02) 4973 5554,,,,,,63 415 761 601,Active,Entity Name (Historic),25% ABN Accuracy
Religious Organisations,Uniting Church In Australia,31 Hamilton Oxford Ct,Jackson,QLD,4426,(07) 3268 6875,,,,,,63 415 761 601,Active,Entity Name (Historic),25% ABN Accuracy
Religious Organisations,Unity School Of Christianity,14 Lockhart St,Woolloongabba,QLD,4102,(07) 3851 0381,,,,,,79 009 836 819,Active,Entity Name,25% ABN Accuracy
Religious Organisations,Vietnam Grace Church Brisbane,12 Rudd St,Oxley,QLD,4075,(07) 3375 1218,,,,,,69 339 587 451,Active,Entity Name,25% ABN Accuracy
Religious Organisations,Walk Thru The Bible Ministries,36 Georges Crst,Georges Hall,NSW,2198,(02) 9725 7599,,,,,,20 241 615 759,Active,Entity Name (Historic),25% ABN Accuracy
Religious Organisations,Warringah Church Of Christ (Non Denominational),Cnr Park Bennett St,Curl Curl,NSW,2096,(02) 9939 7126,,,,,,57 809 399 072,Active,Entity Name,25% ABN Accuracy
Religious Organisations,Wishart Christian Village Association Inc,Unit 30/ 3 Erindale Cl,Wishart,QLD,4122,(07) 3219 2386,,,,,,67 089 024 936,Active,Entity Name,25% ABN Accuracy
Religious Organisations,Youth Ministries,125 New Line Rd,Cherrybrook,NSW,2126,(02) 9980 1888,,,,,,59 962 540 635,Active,Other Name (Historic),25% ABN Accuracy
Religious Organisations,Asian Outreach Australia,,Castle Cove,NSW,2069,(02) 9417 0500,,,,,,94 689 468 278,Cancelled,Entity Name,25% ABN Accuracy
Religious Organisations,Bread Of Life Ministries,10-12 Dundas Crt West,Phillip,ACT,2606,(02) 6231 4410,,,,,,47 008 618 371,Cancelled,Entity Name,25% ABN Accuracy
Religious Organisations,Brisbane Seafarers Centre,114 Malbar St,Wynnum,QLD,4178,0412 202 691,,,,,,57 351 654 755,Cancelled,Trading Name (Historic),25% ABN Accuracy
Religious Organisations,Catholic Communications,74 Greenwich Rd,Greenwich,NSW,2065,(02) 9439 8499,,,,,,93 453 417 717,Cancelled,Entity Name,25% ABN Accuracy
Religious Organisations,Children For Christ,61 Belmont Rd,Tingalpa,QLD,4173,(07) 3348 8314,,,,,,56 057 584 111,Cancelled,Entity Name,25% ABN Accuracy
Religious Organisations,Christian Science Federal Representative,9 Wrights Rd,Drummoyne,NSW,2047,(02) 9911 6651,,,,,,85 058 264 301,Cancelled,Entity Name,25% ABN Accuracy
Religious Organisations,Christian Science Federal Representative,6 Lisa Valley Cl,Wahroonga,NSW,2076,0423 483 663,,,,,,85 058 264 301,Cancelled,Entity Name,25% ABN Accuracy
Religious Organisations,Churches Of Christ Care Pathways Maryborough,26 Jupiter St,Maryborough,QLD,4650,(07) 4123 1075,,,,,,17 359 610 353,Cancelled,Other Name,25% ABN Accuracy
Religious Organisations,Creative Times,4A Pacific Hwy,Gateshead,NSW,2290,(02) 4942 1621,,,,,,64 007 197 702,Cancelled,Entity Name,25% ABN Accuracy
Religious Organisations,Deaconess House,129/ 133 Cambridge St,Stanmore,NSW,2048,(02) 9569 2418,,,,,,44 808 550 198,Cancelled,Entity Name,25% ABN Accuracy
Religious Organisations,Epoch Community,,Tuggerawong,NSW,2259,(02) 6154 1292,,,,,,49 063 125 569,Cancelled,Entity Name,25% ABN Accuracy
Religious Organisations,Freedom In Christ,Trident St,Mansfield,QLD,4122,(07) 3343 7827,,,,,,59 102 213 007,Cancelled,Entity Name,25% ABN Accuracy
Religious Organisations,Harvest School of Ministry,Cnr Burnham and Simpsons Rds,Bardon,QLD,4065,(07) 3369 1179,,,,,,70 679 589 227,Cancelled,Entity Name,25% ABN Accuracy
Religious Organisations,Islamic Information Service,,Yagoona,NSW,2199,(02) 9708 5514,,,,,,85 091 903 552,Cancelled,Entity Name (Historic),25% ABN Accuracy
Religious Organisations,Liturgy Commission,300 The River Rd,Revesby,NSW,2212,(02) 9792 4609,,,,,,72 602 822 085,Cancelled,Entity Name,25% ABN Accuracy
Religious Organisations,Maurice Elias Essential Oils For Wellness,,Bondi Beach,NSW,2026,(02) 9130 7988,,,,,,62 185 935 404,Cancelled,Entity Name,25% ABN Accuracy
Religious Organisations,Meade J,24 Amsonia Ct,Arundel,QLD,4214,0415 390 014,,,,,,21 095 100 961,Cancelled,Entity Name,25% ABN Accuracy
Religious Organisations,National Council of Jewish Women,,Woollahra,NSW,2025,(02) 9363 0257,,,,,,13 096 053 140,Cancelled,Entity Name (Historic),25% ABN Accuracy
Religious Organisations,RIGPA,822 George St,Sydney,NSW,2000,(02) 9211 5304,,,,,,57 064 573 600,Cancelled,Entity Name,25% ABN Accuracy
Religious Organisations,St Andrew's Retirement Village,142 Marius St,Tamworth,NSW,2340,(02) 6761 2007,,,,,,24 352 728 764,Cancelled,Trading Name (Historic),25% ABN Accuracy
Religious Organisations,The Gnostic Movement,PO Box 1581,Bondi Junction,NSW,1355,1300 307 332,,,,,,66 096 846 178,Cancelled,Entity Name,25% ABN Accuracy
Religious Organisations,The Gnostic Movement,PO Box 6275,Fairfield,QLD,4103,1300 307 332,,,,,,66 096 846 178,Cancelled,Entity Name,25% ABN Accuracy
Religious Organisations,Transport For Christ,Cnr Lyell and Priestley Sts,Mittagong,NSW,2575,(02) 4871 2683,,,,,,93 002 633 892,Cancelled,Entity Name,25% ABN Accuracy
Religious Organisations,Universal Express Couriers,14 Constitution Rd,Ryde,NSW,2112,(02) 9807 1016,,,,,,42 119 118 106,Cancelled,Business Name (Historic),25% ABN Accuracy
Religious Organisations,Voice Of Peace,3 Alfred Ave,Woolooware,NSW,2230,(02) 9527 2387,,,,,,14 003 429 730,Cancelled,Entity Name,25% ABN Accuracy
Religious Organisations,Youth Alive (QLD) Ltd,,Mt Ommaney,QLD,4074,1300 785 949,,,,,,11 494 002 324,Cancelled,Entity Name,25% ABN Accuracy
Religious Organisations,ABC electronics,22 Asd Bdwy,Ashby,NSW,2463,1300 062 824,,info@businessabc.com,,,,90 038 177 499,Active,Trading Name,50% ABN Accuracy
Religious Organisations,Alert Magazine,148 Fox Valley Rd,Wahroonga,NSW,2076,(02) 9847 3333,,,,,,85 349 573 160,Active,Other Name,50% ABN Accuracy
Religious Organisations,Anglican Boys Society (CEBS),First Floor St Andrew's House Sydney Sq,Sydney,NSW,2000,(02) 9744 2966,,,,,,53 258 341 328,Active,Trading Name,50% ABN Accuracy
Religious Organisations,Annesley House,17 Marion St North,Leichhardt,NSW,2040,(02) 9569 7175,,,,,,19 034 720 463,Active,Business Name,50% ABN Accuracy
Religious Organisations,Assemblies Of God,Baddeley Cres,Spence,ACT,2615,(02) 6259 7277,,,,,,16 231 783 503,Active,Entity Name,50% ABN Accuracy
Religious Organisations,Assemblies Of God,Gorge Rd,Wonga,QLD,4873,(07) 4098 2022,,,,,,16 231 783 503,Active,Entity Name,50% ABN Accuracy
Religious Organisations,Baptist Community Services,51 Hicks St,Red Hill,ACT,2603,(02) 6295 7070,,,,,,90 000 049 525,Active,Trading Name,50% ABN Accuracy
Religious Organisations,Bible Baptist Church,178 Humphries Rd,St Johns Park,NSW,2176,(02) 9823 1950,,,,,,14 584 157 038,Active,Entity Name,50% ABN Accuracy
Religious Organisations,Catholic Church,2 Bendooley St,Bowral,NSW,2576,(02) 4861 1902,,,,,,45 373 620 104,Active,Business Name,50% ABN Accuracy
Religious Organisations,Catholic Church,88 Chestnut St,Wynnum,QLD,4178,(07) 3348 6629,,,,,,45 373 620 104,Active,Business Name,50% ABN Accuracy
Religious Organisations,Catholic Development Fund,38 Harbour St,Wollongong,NSW,2500,(02) 4222 2444,,,,,,15 274 943 760,Active,Trading Name,50% ABN Accuracy
Religious Organisations,Catholic Development Fund,,Bathurst,NSW,2795,1800 451 760,,,,,,15 274 943 760,Active,Trading Name,50% ABN Accuracy
Religious Organisations,Catholic Education Office,Gilmour St,Kelso,NSW,2795,(02) 6332 3077,,,,,,91 893 631 195,Active,Entity Name,50% ABN Accuracy
Religious Organisations,Catholic Women's League,143 Edward St,Brisbane,QLD,4000,(07) 3221 1924,,,,,,87 226 835 256,Active,Trading Name,50% ABN Accuracy
Religious Organisations,Centacare,21 Cornmeal Parade,Maroochydore,QLD,4558,(07) 5430 9300,,,www.scopedv.org,,,90 046 512 373,Active,Entity Name (Historic),50% ABN Accuracy
Religious Organisations,Centacare Catholic Family Services,58 Morgan St,Fortitude Valley,QLD,4006,(07) 3252 4371,,,,,,79 786 799 140,Active,Trading Name,50% ABN Accuracy
Religious Organisations,Christian Fellowship,Jingellic Pl,Wagga Wagga,NSW,2650,(02) 6933 1327,,,http://cfwagga.org.au,,,89 635 875 821,Active,Entity Name (Historic),50% ABN Accuracy
Religious Organisations,Christian Hope Centre Ltd,12 Beach Rd,Surfers Paradise,QLD,4217,(07) 5561 0322,,,,,,81 076 486 890,Active,Entity Name,50% ABN Accuracy
Religious Organisations,Christian Life Centre,137 Princes Hwy,Ulladulla,NSW,2539,(02) 4455 5179,,,,,,45 464 073 996,Active,Entity Name (Historic),50% ABN Accuracy
Religious Organisations,Christian Outreach Centre,195 Elizabeth Ave,Clontarf,QLD,4019,(07) 3284 1777,,,,,,72 157 669 672,Active,Entity Name,50% ABN Accuracy
Religious Organisations,Christian Outreach Centre,75 Murilla St,Miles,QLD,4415,(07) 4627 1609,,,,,,72 157 669 672,Active,Entity Name,50% ABN Accuracy
Religious Organisations,Christian Outreach Centre,International Club Fairfoot Rd,Ingham,QLD,4850,(07) 4776 0284,,,,,,72 157 669 672,Active,Entity Name,50% ABN Accuracy
Religious Organisations,Christian Witness To Israel (Australia),34 Ocean St,Bondi,NSW,2026,(02) 9388 0067,,,,,,40 986 166 171,Active,Entity Name,50% ABN Accuracy
Religious Organisations,Church of Scientology Australia,43 Dudley St,Annerley,QLD,4103,(07) 3217 1835,,brisbane@scientology.net,http://www.scientology.org,,,25 151 052 274,Active,Entity Name,50% ABN Accuracy
Religious Organisations,Churches of Christ in Queensland,41 Brookfield Rd,Kenmore,QLD,4069,(07) 3327 1600,,,,,,28 953 930 342,Active,Entity Name,50% ABN Accuracy
Religious Organisations,Daughters Of Charity,256 Buff Point Ave,Buff Point,NSW,2262,(02) 4390 9190,,,,,,37 783 925 190,Active,Trading Name,50% ABN Accuracy
Religious Organisations,Daughters Of Charity,47/128 George,Redfern,NSW,2016,(02) 9319 6077,,,,,,37 783 925 190,Active,Trading Name,50% ABN Accuracy
Religious Organisations,Daughters Of Charity,22 Henry St,Ashfield,NSW,2131,(02) 9797 8573,,,,,,37 783 925 190,Active,Trading Name,50% ABN Accuracy
Religious Organisations,Daughters Of Charity,38 Culloden Rd,Marsfield,NSW,2122,(02) 9868 2103,,,,,,37 783 925 190,Active,Trading Name,50% ABN Accuracy
Religious Organisations,Daughters Of Charity,4/158 Culloden Rd,Marsfield,NSW,2122,(02) 9868 3719,,,,,,37 783 925 190,Active,Trading Name,50% ABN Accuracy
Religious Organisations,Daughters Of Charity,16 Summit Cl,Marsfield,NSW,2122,(02) 9878 1099,,,,,,37 783 925 190,Active,Trading Name,50% ABN Accuracy
Religious Organisations,Daughters Of Charity,1 Keiley St,Marsfield,NSW,2122,(02) 9878 6372,,,,,,37 783 925 190,Active,Trading Name,50% ABN Accuracy
Religious Organisations,Daughters Of Charity,172 Balaclava Rd,Eastwood,NSW,2122,(02) 9888 5922,,,,,,37 783 925 190,Active,Trading Name,50% ABN Accuracy
Religious Organisations,Daughters Of Charity,109 Agincourt Rd,Marsfield,NSW,2122,(02) 9888 6362,,,,,,37 783 925 190,Active,Trading Name,50% ABN Accuracy
Religious Organisations,Daughters Of Charity,4 Koorong St,Marsfield,NSW,2122,(02) 9888 7286,,,,,,37 783 925 190,Active,Trading Name,50% ABN Accuracy
Religious Organisations,De La Salle Brothers,32 Bauer St,Southport,QLD,4215,(07) 5528 3742,,,,,,92 893 323 605,Active,Other Name,50% ABN Accuracy
Religious Organisations,Destiny Impact Worship Centre,6 Speed St,Liverpool,NSW,2170,(02) 8006 1755,,info@destinyimpact.org,http://www.destinyimpact.org,,,30 935 347 994,Active,Entity Name,50% ABN Accuracy
Religious Organisations,Diocesan Catholic Education Office,Barney St,Armidale,NSW,2350,(02) 6772 7388,,,,,,83 881 273 108,Active,Trading Name,50% ABN Accuracy
Religious Organisations,Eckankar Society Of Northern Australia,1st Floor 967 Logan Rd,Holland Park,QLD,4121,(07) 3394 1974,,,,,,18 058 053 740,Active,Entity Name,50% ABN Accuracy
Religious Organisations,Eckankar Society of Northern Australia,Shop 3/ 14 Lavelle St,Nerang,QLD,4211,(07) 5527 2677,,,,,,18 058 053 740,Active,Entity Name,50% ABN Accuracy
Religious Organisations,ELEVATION CHURCH,7/ 9 Ern Harley Dr,Burleigh Heads,QLD,4220,(07) 5506 5130,,,elevationchurch.com.au/,,,79 400 419 737,Active,Business Name,50% ABN Accuracy
Religious Organisations,Everyman's Welfare Service,Robertson Barracks,Darwin,NT,800,(08) 8935 2525,,,,,,31 000 348 550,Active,Entity Name,50% ABN Accuracy
Religious Organisations,Faber Centre Of Ignatian Spirituality,111 Sir Samuel Griffith Dr,Bardon,QLD,4065,(07) 3368 2450,,reillygj@bigpond.com,http://www.faberspirituality.org.au,,,24 671 806 567,Active,Other Name,50% ABN Accuracy
Religious Organisations,Family Life Ministries,1/ 55 Fourth Ave,Blacktown,NSW,2148,(02) 9871 4137,,,,,,25 116 643 852,Active,Entity Name,50% ABN Accuracy
Religious Organisations,Family Life Ministries,16 Blackburn Ave,North Rocks,NSW,2151,(02) 9871 4137,,,,,,25 116 643 852,Active,Entity Name,50% ABN Accuracy
Religious Organisations,Franciscan Missionaries Of Mary,6 Wentworth St,Point Piper,NSW,2027,(02) 9328 1070,,,,,,51 422 745 804,Active,Trading Name,50% ABN Accuracy
Religious Organisations,Franciscan Missionaries Of Mary,5 Schwebel St,Marrickville,NSW,2204,(02) 9558 7879,,,,,,51 422 745 804,Active,Trading Name,50% ABN Accuracy
Religious Organisations,Franciscan Missionaries Of Mary,57 Western Crst,Gladesville,NSW,2111,(02) 9879 4203,,,,,,51 422 745 804,Active,Trading Name,50% ABN Accuracy
Religious Organisations,Global Care - Coffs Harbour,,Coffs Harbour,NSW,2450,(02) 6652 8123,,,,,,94 477 463 652,Active,Other Name,50% ABN Accuracy
Religious Organisations,Heritage Christian Church,116 Casuarina St,Katherine,NT,850,(08) 8972 1191,,heritagechurch@bigpond.com,http://www.heritagechristianchurchnt.com,,,14 719 603 343,Active,Entity Name,50% ABN Accuracy
Religious Organisations,Holy Spirit Seminary,487 Earnshaw Rd,Banyo,QLD,4014,(07) 3267 4800,,seminary@qld.catholic.net.au,http://www.seminary.catholic.net.au,,1941,70 953 685 764,Active,Trading Name,50% ABN Accuracy
Religious Organisations,Iglesia Ni Cristo,13 Eskdale St,Minchinbury,NSW,2770,(02) 9832 3838,,,,,,46 002 812 259,Active,Entity Name,50% ABN Accuracy
Religious Organisations,Impact Ministries,Gilston Rd,Gilston,QLD,4211,(07) 5563 0780,,,,,,64 440 817 669,Active,Entity Name,50% ABN Accuracy
Religious Organisations,IN Church Darwin,Red Bldg 7/ Charles Darwin University,Casuarina,NT,810,0413 309 707,,,,,,18 160 093 916,Active,Business Name,50% ABN Accuracy
Religious Organisations,International Christian Church,Farmborough Rd,Unanderra,NSW,2526,(02) 4260 9628,,,,,,25 501 991 481,Active,Entity Name,50% ABN Accuracy
Religious Organisations,Jehovahs Witnesses,475 Vernena Ave,Lurnea,NSW,2170,(02) 9606 0261,,,,,,42 002 861 225,Active,Trading Name,50% ABN Accuracy
Religious Organisations,Jehovah's Witnesses,27 Ninth Ave,Scottville,QLD,4804,0438 309 898,,,,,,42 002 861 225,Active,Trading Name,50% ABN Accuracy
Religious Organisations,Knights Of The Southern Cross,30 White Crst,Campbell,ACT,2612,(02) 6247 2977,,,,,,95 614 845 521,Active,Trading Name,50% ABN Accuracy
Religious Organisations,Living Waters Christian Church,1 Lake St,Windale,NSW,2306,(02) 4948 5718,,peter@lwcc.org.au,http://www.lwcc.org.au,,,84 717 494 665,Active,Entity Name,50% ABN Accuracy
Religious Organisations,Living Word Fellowship,305 Bourbong St,Bundaberg West,QLD,4670,(07) 4152 2564,,,,,,34 627 342 866,Active,Entity Name,50% ABN Accuracy
Religious Organisations,Meals On Wheels,21A Price St,Nambour,QLD,4560,(07) 5441 3543,,,,,,36 301 121 574,Active,Trading Name (Historic),50% ABN Accuracy
Religious Organisations,Missionary Society Of St Paul,19 Stanley St,East Sydney,NSW,2010,(02) 9380 8398,,tarcismic@yahoo.com.au,,,1939,59 681 392 470,Active,Entity Name,50% ABN Accuracy
Religious Organisations,MMM Australia,70 Wyee Rd,Wyee,NSW,2259,(02) 4357 2921,,,,,,66 005 126 956,Active,Entity Name,50% ABN Accuracy
Religious Organisations,MMM Australia,29 Lamington Rd,Mango Hill,QLD,4509,(07) 3204 2503,,,,,,66 005 126 956,Active,Entity Name,50% ABN Accuracy
Religious Organisations,Mount St Benedict Centre,449D Pennant Hills Rd,Pennant Hills,NSW,2120,(02) 9484 6208,,mtstbenedict@bigpond.com.au,http://www.goodsams.org.au/msb/index.html,,,42 062 542 036,Active,Other Name,50% ABN Accuracy
Religious Organisations,Nowra City Church,167 McMahons Rd,Nowra North,NSW,2541,(02) 4421 4602,,info@nowracitychurch.com.au,http://www.nowracitychurch.com.au,,,79 400 419 737,Active,Business Name,50% ABN Accuracy
Religious Organisations,NSW Council Of Churches,,Lalor Park,NSW,2147,(02) 9620 6189,,,,,,24 348 552 048,Active,Trading Name,50% ABN Accuracy
Religious Organisations,Our Lady Of Lourdes Parish,153 Holberton St,Newtown,QLD,4350,(07) 4634 1453,,,,,,96 676 936 086,Active,Entity Name,50% ABN Accuracy
Religious Organisations,Pontifical Mission Societies,Barney St,Armidale,NSW,2350,(02) 6772 7412,,,,,,52 945 927 066,Active,Entity Name (Historic),50% ABN Accuracy
Religious Organisations,Presbyterian Church,7 McKern St,Wentworthville,NSW,2145,(02) 9863 8366,,general@pcnsw.org.au,www.presbyterian.org.au,,,11 700 430 154,Active,Trading Name,50% ABN Accuracy
Religious Organisations,Salvos Stores,9 Sydney Ave,Woy Woy,NSW,2256,(02) 4344 1965,,,,,,25 878 329 270,Active,Other Name,50% ABN Accuracy
Religious Organisations,School for Seniors,400 Oxford Mall,Bondi Junction,NSW,2022,(02) 9387 2300,,,,,,42 266 391 917,Active,Other Name,50% ABN Accuracy
Religious Organisations,Seventh-day Adventist Church,148 Fox Valley Rd,Wahroonga,NSW,2076,(02) 9847 3333,,,Visit Our Website,,,41 615 485 059,Active,Entity Name,50% ABN Accuracy
Religious Organisations,Seventh-day Adventist Church,4 Cambridge St,Epping,NSW,2121,(02) 9868 6522,,,www.adventistconnect.org,,,41 615 485 059,Active,Entity Name,50% ABN Accuracy
Religious Organisations,Shun Yeung Taoist Association Inc,G 12 Kent St,Belmore,NSW,2192,(02) 8957 2864,,info@shunyeung.org,http://www.shunyeung.org,,,35 542 929 536,Active,Entity Name,50% ABN Accuracy
Religious Organisations,Society of Christ,3 Murray Sq,Mayfield,NSW,2304,(02) 4967 1104,,,,,,67 586 086 237,Active,Trading Name,50% ABN Accuracy
Religious Organisations,Soka Gakkai International Australia,3 Parkview Dr,Homebush Bay,NSW,2127,(02) 9763 2283,,,,,,74 005 126 107,Active,Entity Name,50% ABN Accuracy
Religious Organisations,Southside Christian Centre,109 Golda Ave,Salisbury,QLD,4107,(07) 3719 3177,,,,,,28 923 855 786,Active,Entity Name (Historic),50% ABN Accuracy
Religious Organisations,St Lazarus Serbian Orthodox Church,Dale St,Dapto,NSW,2530,(02) 4262 2030,,,,,,30 051 826 729,Active,Entity Name,50% ABN Accuracy
Religious Organisations,St Vincent De Paul Society,321 Urana Rd,Lavington,NSW,2641,(02) 6025 2239,,,,,,46 472 591 335,Active,Other Name,50% ABN Accuracy
Religious Organisations,St Vincent De Paul Society,181 Sanger St,Corowa,NSW,2646,(02) 6033 2309,,,,,,46 472 591 335,Active,Other Name,50% ABN Accuracy
Religious Organisations,St Vincent De Paul Society,38 Railway Tce,Alice Springs,NT,870,(08) 8952 1074,,,,,,46 472 591 335,Active,Other Name,50% ABN Accuracy
Religious Organisations,St Vincent De Paul Society,27 Thompson St,Tennant Creek,NT,860,(08) 8962 2779,,,,,,46 472 591 335,Active,Other Name,50% ABN Accuracy
Religious Organisations,Storm Harvest Ministries,19 Sluman St,Denistone,NSW,2114,(02) 9801 0955,,,,,,38 682 725 010,Active,Trading Name,50% ABN Accuracy
Religious Organisations,The Grail,22 McHatton St,North Sydney,NSW,2060,(02) 9955 3053,,,,,,64 405 075 647,Active,Entity Name,50% ABN Accuracy
Religious Organisations,The Redeemed Christian Church of God,14 Enterprise Dr,Glendenning,NSW,2761,(02) 9675 4444,,,,,,27 235 166 512,Active,Entity Name (Historic),50% ABN Accuracy
Religious Organisations,The Salvation Army,Union St,Newcastle West,NSW,2302,(02) 4926 3466,,,,,,94 917 169 560,Active,Trading Name,50% ABN Accuracy
Religious Organisations,The Theosophical Society In Australia,Tugalong Rd,Canyonleigh,NSW,2577,(02) 4878 9006,,,,,,89 922 774 327,Active,Entity Name,50% ABN Accuracy
Religious Organisations,Uniting Aboriginal & Islander Christian Congress,Harvey's Range Rd,Condon,QLD,4815,(07) 4773 5692,,,,,,81 839 276 921,Active,DGR Name,50% ABN Accuracy
Religious Organisations,UnitingCare# Burnside,13 Blackwood Pl,North Parramatta,NSW,2151,(02) 9768 6866,,,,,,78 722 539 923,Active,Other Name,50% ABN Accuracy
Religious Organisations,WEC International,48 Woodside St West,Strathfield,NSW,2135,(02) 9747 5577,,,wec.com.au,,,22 000 637 749,Active,Entity Name,50% ABN Accuracy
Religious Organisations,Wesleyan Methodist Church,68 Gayndah Rd,Maryborough,QLD,4650,(07) 4122 4415,,office@maryboroughwesleyan.org.au,http://www.maryboroughwesleyan.org.au/,,,55 296 526 622,Active,Entity Name (Historic),50% ABN Accuracy
Religious Organisations,Westminster Presbyterian Church,Stringybark Rd,Buderim,QLD,4556,(07) 5445 8933,,,,,,14 209 061 363,Active,Trading Name,50% ABN Accuracy
Religious Organisations,Winmalee Christian Conference Centre,Leslie St,Winmalee,NSW,2777,(02) 4754 2588,,,,,,25 726 376 925,Active,Trading Name (Historic),50% ABN Accuracy
Religious Organisations,Youth With A Mission,180 King St,Cooks Hill,NSW,2300,(02) 4925 2626,,,,,,63 932 277 049,Active,Entity Name,50% ABN Accuracy
Religious Organisations,Youth With A Mission,82 Parkway Ave,Cooks Hill,NSW,2300,(02) 4926 4497,,,,,,63 932 277 049,Active,Entity Name,50% ABN Accuracy
Religious Organisations,Youth With A Mission,28 Hanbury St,Mayfield,NSW,2304,(02) 4960 0777,,,,,,63 932 277 049,Active,Entity Name,50% ABN Accuracy
Religious Organisations,Youth With A Mission,6/8 Highfield St,Mayfield,NSW,2304,(02) 4968 2233,,,,,,63 932 277 049,Active,Entity Name,50% ABN Accuracy
Religious Organisations,Youth With A Mission,76 Federal Hwy,Watson,ACT,2602,(02) 6241 5500,,,,,,63 932 277 049,Active,Entity Name,50% ABN Accuracy
Religious Organisations,Youth With A Mission,78 Hillview Parade,Ashmore,QLD,4214,(07) 5597 0169,,,,,,63 932 277 049,Active,Entity Name,50% ABN Accuracy
Religious Organisations,Youth With A Mission Brisbane Inc,671 Samford Rd,Mitchelton,QLD,4053,(07) 3855 5111,,,,,,85 348 250 246,Active,Entity Name (Historic),50% ABN Accuracy
Religious Organisations,Aboriginal Catholic Ministry,77 Buckland St,Alexandria,NSW,2015,(02) 9698 4265,,,,,,40 453 682 263,Cancelled,Entity Name,50% ABN Accuracy
Religious Organisations,Australian Christian Entertainers,4- 22 Showground Rd,Castle Hill,NSW,2154,(02) 9899 9988,,,,,,95 076 503 056,Cancelled,Business Name (Historic),50% ABN Accuracy
Religious Organisations,Australian Christian Forum On Education Inc,42 Richmond Rd,Homebush,NSW,2140,(02) 9764 2084,,,,,,77 143 207 549,Cancelled,Entity Name,50% ABN Accuracy
Religious Organisations,Australian Teachers Christian Fellowship Inc,16 Mill Hill St,Bondi Junction,NSW,2022,(02) 9369 1689,,,,,,77 143 207 549,Cancelled,Entity Name (Historic),50% ABN Accuracy
Religious Organisations,Brisbane Revival Fellowship,11 Vine Crst,Mango Hill,QLD,4509,(07) 3886 3856,,,,,,71 830 275 411,Cancelled,Trading Name,50% ABN Accuracy
Religious Organisations,Brisbane Revival Fellowship,Unit 16/ 3 Sydney St,Redcliffe,QLD,4020,(07) 3889 3879,,,,,,71 830 275 411,Cancelled,Trading Name,50% ABN Accuracy
Religious Organisations,Burnside,30 Myrtus Crst,Mt Druitt,NSW,2770,(02) 9628 0897,,,,,,20 242 835 517,Cancelled,Trading Name (Historic),50% ABN Accuracy
Religious Organisations,Burnside,"Ermington Family Learning Centre,2 Jackson St",Ermington,NSW,2115,(02) 9638 4779,,,,,,20 242 835 517,Cancelled,Trading Name (Historic),50% ABN Accuracy
Religious Organisations,Christian Brothers,Strand St,Forster,NSW,2428,(02) 6554 6303,,,,,,58 361 642 378,Cancelled,Trading Name,50% ABN Accuracy
Religious Organisations,Christian Life Churches International,3791 Pacifc Hwy,Tanah Merah,QLD,4128,(07) 3813 4900,,,,,,91 071 316 386,Cancelled,Trading Name,50% ABN Accuracy
Religious Organisations,Generation,5/ 1 Crown Ct,Varsity Lakes,QLD,4226,(07) 5522 0905,,,,,,93 670 733 244,Cancelled,Other Name (Historic),50% ABN Accuracy
Religious Organisations,Idara Minhaj-Ul-Quran Australasia Inc,15 Mary St,Auburn,NSW,2144,(02) 9649 7033,,,,,,92 979 332 008,Cancelled,Entity Name,50% ABN Accuracy
Religious Organisations,Islamic Development Centre Of Australia,84 Helen St,Sefton,NSW,2162,(02) 9738 7700,,,,,,87 894 853 700,Cancelled,Entity Name,50% ABN Accuracy
Religious Organisations,It Ministries (Australia) Pty Ltd,2-6 Leabons Lane,Seven Hills,NSW,2147,(02) 8811 5523,,,,,,23 069 504 301,Cancelled,Entity Name,50% ABN Accuracy
Religious Organisations,Mysticweb,PO Box 1581,Bondi Junction,NSW,1355,1300 307 332,,,,,,66 096 846 178,Cancelled,Business Name (Historic),50% ABN Accuracy
Religious Organisations,New Horizon Christian Church,197 Bunya Hwy,Murgon,QLD,4605,(07) 4168 3455,,,,,,67 327 471 700,Cancelled,Entity Name (Historic),50% ABN Accuracy
Religious Organisations,Northern Baptist Church,Oceana St,Narraweena,NSW,2099,0411 291 271,,pastor@northernbaptist.com.au,http://www.northernbaptist.com.au,,,21 992 875 364,Cancelled,Trading Name (Historic),50% ABN Accuracy
Religious Organisations,Anglican Church of Australia,Suite 4 Leve 1 5 189 Kent St,Sydney,NSW,2000,(02) 8267 2700,,gsoffice@anglican.org.au,Facebook,,,88 932 192 803,Active,Entity Name,75% ABN Accuracy
Religious Organisations,Australian Christian Educational Enterprises Pty Ltd,21 Mathews St,Punchbowl,NSW,2196,(02) 9758 2952,,,,,,27 070 072 981,Active,Entity Name,75% ABN Accuracy
Religious Organisations,Australian New Muslims Association,69 Croydon St,Lakemba,NSW,2195,0410 779 299,,info@anma.com.au,http://anma.com.au,,,79 738 278 131,Active,Entity Name,75% ABN Accuracy
Religious Organisations,Bill Newman Ministries,,Tingalpa,QLD,4173,(07) 3390 8118,,,,,,80 010 468 596,Active,Business Name,75% ABN Accuracy
Religious Organisations,C3 Church Silverwater,unit 10-11/ 108-120 Silverwater Rd,Silverwater,NSW,2128,(02) 9748 5711,,,http://www.myc3church.net,,,95 002 558 134,Active,Business Name,75% ABN Accuracy
Religious Organisations,Churches of Christ Care,41 Brookfield Rd,Kenmore,QLD,4069,(07) 3327 1638,,,,,,28 953 930 342,Active,PBIE Name (Historic),75% ABN Accuracy
Religious Organisations,Hinterland Church For Spiritual Growth,34 Price St,Nerang,QLD,4211,(07) 5572 1133,,,,,,51 798 562 612,Active,Entity Name,75% ABN Accuracy
Religious Organisations,Kingdom Living Ministries International Inc,Suite 2 2 Station St,West Ryde,NSW,2114,(02) 9809 4200,,,,,,94 462 988 093,Active,Entity Name,75% ABN Accuracy
Religious Organisations,Nambour Assembly Of God,2 Mckenzie Rd,Nambour,QLD,4560,(07) 5442 1433,,,,,,94 010 634 698,Active,Business Name,75% ABN Accuracy
Religious Organisations,OLSH Convent,,Rosebery,NSW,2018,(02) 9667 4560,,,,,,27 510 459 769,Active,Other Name,75% ABN Accuracy
Religious Organisations,Peninsula Life Wesleyan Methodist Church,1 Regency St,Kippa Ring,QLD,4021,(07) 3142 3593,,,,,,79 839 541 528,Active,Entity Name,75% ABN Accuracy
Religious Organisations,Russian Orthodox Church,3 Irving St,Wallsend,NSW,2287,(02) 4955 0578,,,,,,62 384 274 018,Active,Entity Name (Historic),75% ABN Accuracy
Religious Organisations,The Bridge Community Church,1 Chardon Bridge Rd,Cedar Creek,QLD,4207,0432 733 185,,info@thebridgechurch.co,,,,47 788 061 278,Active,Entity Name,75% ABN Accuracy
Religious Organisations,United Christian Broadcasters Australia Limited,Unit 6 104 Compton Rd,Underwood,QLD,4119,1800 007 770,,,secure.ucb.com.au/,,,15 051 984 402,Active,Entity Name,75% ABN Accuracy
Religious Organisations,Unity Reflections of Truth Inc.,Barjai Community Ctr Cnr Alexandra Rd & Haig St,Clayfield,QLD,4011,0416 260 900,,,,,,17 688 651 453,Active,Entity Name,75% ABN Accuracy
Religious Organisations,Valley Community Church,The Hub 132 River St,Kempsey,NSW,2440,0491 114 521,,kempsey.valleycommunitychurch@gmail.com,http://www.valleycommunitychurch.com.au/,,,49 002 322 590,Active,Business Name,75% ABN Accuracy
Religious Organisations,Christian Faith Ministries,65 Gloucester Crst,Bray Park,QLD,4500,(07) 3881 1542,,,,,,40 066 982 992,Cancelled,Entity Name (Historic),75% ABN Accuracy
Religious Organisations,Iglesia Ni Cristo (Church Of Christ),41 Memorial Ave,Kellyville,NSW,2155,(02) 9672 6118,,,,,,31 111 383 361,Cancelled,Entity Name,75% ABN Accuracy
Religious Organisations,Iglesia Ni Cristo (Church Of Christ),201- 203 Pennant Hills Rd,Carlingford,NSW,2118,(02) 9873 3131,,,,,,31 111 383 361,Cancelled,Entity Name,75% ABN Accuracy
Religious Organisations,Iglesia Ni Cristo (Church Of Christ),65 Orange Grove Rd,Coopers Plains,QLD,4108,(07) 3275 3484,,,,,,31 111 383 361,Cancelled,Entity Name,75% ABN Accuracy
Religious Organisations,Metro Church,,Southport,QLD,4215,1800 008 375,,,,,,72 629 755 908,Cancelled,Entity Name,75% ABN Accuracy
Religious Organisations,Aboriginal & Islander Catholic Council,Arline St,Mt Isa,QLD,4825,(07) 4743 0343,,,,,,,,,
Religious Organisations,Acceptance For Gay & Lesbian Catholics,Merivale St,South Brisbane,QLD,4101,(07) 3846 1714,,,,,,,,,
Religious Organisations,Adventist Alpine Village,Barry Way,Jindabyne,NSW,2627,(02) 6456 2738,,,,,,,,,
Religious Organisations,Africa Inland Mission International (Australia) inc,Shop 16/ 482 Pacific Hwy,Wyoming,NSW,2250,(02) 4322 4777,,,http://www.aimint.org/au/,,,76 948 116 145,Active,Entity Name,99% ABN Accuracy
Religious Organisations,Ahmadiyyia Muslim Association Of Aust,20 Hollingsworth Rd,Marsden Park,NSW,2765,(02) 9627 4521,,,,,,,,,
Religious Organisations,Alex Lorkin,Castle St,North Parramatta,NSW,2151,0432 537 595,,,http://alexlorkin.wordpress.com,,,,,,
Religious Organisations,Alongside Industries Inc,11 Bartok St,Burpengary,QLD,4505,(07) 3118 5175,,,,,,,,,
Religious Organisations,Ambassadors For Christ (Aust),11 Fernwell St,Tingalpa,QLD,4173,(07) 3390 8524,,,,,,,,,
Religious Organisations,Anglican Archbishop of Sydney's Appeals,St Andrew's House Sydney Sq,Sydney,NSW,2000,(02) 9633 4384,,,,,,,,,
Religious Organisations,Anglican Careforce Community Services,19A Gibbons St,Telopea,NSW,2117,(02) 9890 6830,,,,,,,,,
Religious Organisations,Anglican Conference Centres,St Andrew's House Sydney Sq,Sydney,NSW,2000,(02) 9265 1628,,,,,,,,,
Religious Organisations,Anglican Continuing Education for Ministers,St Andrew's House Sydney Sq,Sydney,NSW,2000,(02) 9265 1585,,,,,,,,,
Religious Organisations,Anglican Department of Evangelism,St Andrew's House Sydney Sq,Sydney,NSW,2000,(02) 9265 1582,,,,,,,,,
Religious Organisations,Anglican Education Commission,St Andrew's House Sydney Sq,Sydney,NSW,2000,(02) 9283 2633,,,,,,26 357 301 779,Active,Entity Name,99% ABN Accuracy
Religious Organisations,Anglican Girls Friendly Society (GFS),St Andrew's House Sydney Sq,Sydney,NSW,2000,(02) 9267 8720,,,,,,,,,
Religious Organisations,Anglican Independent Communion Australia Inc,,Capalaba,QLD,4157,0419 716 296,,,,,,,,,
Religious Organisations,Anglican Press Australia (CEP & AIO),St Andrew's House Sydney Sq,Sydney,NSW,2000,(02) 9283 2640,,,,,,,,,
Religious Organisations,Anglican Youth & Education,Level 1 464 Kent St,Sydney,NSW,2000,(02) 8268 3344,,,http://www.youthworks.net,,,,,,
Religious Organisations,Armidale Seventh-day Adventist Church,67 Erskine St,Armidale,NSW,2350,0428 425 590,,LorenzoBerry@adventist.org.au,,,,,,,
Religious Organisations,Arundel House,29 Arundel St,Forest Lodge,NSW,2037,(02) 9660 4881,,,,,,85 179 595 383,Active,Entity Name,99% ABN Accuracy
Religious Organisations,Augustinian Formation Centre,60 Federal Parade,Brookvale,NSW,2100,(02) 9938 3782,,,,,,,,,
Religious Organisations,Australasian Conference Association Ltd,148 Fox Valley Rd,Wahroonga,NSW,2076,(02) 9847 3333,,,,,,52 000 003 930,Active,Entity Name,99% ABN Accuracy
Religious Organisations,Australian Buddhist Vihara,43 Cliff Dr,Katoomba,NSW,2780,(02) 4782 2704,,,,,,39 439 023 267,Active,Entity Name,99% ABN Accuracy
Religious Organisations,Australian Catholic Relief,Favier House 1 Ballumbir St,Braddon,ACT,2612,(02) 6201 9800,,,,,,,,,
Religious Organisations,Australian Catholic Relief,128 Dangar St,Armidale,NSW,2350,(02) 6772 4971,,,,,,,,,
Religious Organisations,Australian Chinese Buddhist Society,654 Cabramatta Rd,Bonnyrigg,NSW,2177,(02) 9823 3622,,,,,,24 145 185 904,Active,Entity Name,99% ABN Accuracy
Religious Organisations,Australian Institute Of Buddhist Learning & Practise,15 Metella Rd,Toongabbie,NSW,2146,(02) 9896 4613,,,,,,,,,
Religious Organisations,Australian Lutheran World Service,10 Somerset Dr,West Albury,NSW,2640,(02) 6021 5329,,alws@alws.org.au,http://www.alws.org.au,,,36 660 551 871,Active,Entity Name,99% ABN Accuracy
Religious Organisations,Baha'i Community of Hornsby,19 Dural St,Hornsby,NSW,2077,(02) 8569 0200,,,,,,,,,
Religious Organisations,Baha'i Faith,,Bonny Hills,NSW,2445,(02) 6585 5170,,,,,,,,,
Religious Organisations,Baha'i Faith,PO Box 889,Toowoomba,QLD,4350,(07) 4635 0313,,,,,,,,,
Religious Organisations,Baha'i Faith,3678 Rifle Range Rd,Stanthorpe,QLD,4380,(07) 4681 2618,,,,,,,,,
Religious Organisations,Baha'i Faith,344 Chloride St,Broken Hill,NSW,2880,(08) 8088 4350,,,,,,,,,
Religious Organisations,Baha'i Faith,29 Standley Crst,Alice Springs,NT,870,(08) 8952 0185,,,,,,,,,
Religious Organisations,Baha'I Faith,7 Standley Crst,Alice Springs,NT,870,(08) 8952 7541,,,,,,,,,
Religious Organisations,Baha'i Faith,PO Box 399,Gatton,QLD,4343,1800 224 247,,,,,,,,,
Religious Organisations,Baha'i Faith,2 Crispe St,Alice Springs,NT,870,(08) 8953 4972,,,www.nt.bahai.org.au,,,,,,
Religious Organisations,Bahai National Office,173 Mona Vale Rd,Ingleside,NSW,2101,(02) 9998 9200,,secretariat@bnc.bahai.org.au,www.bahai.org.au,,,,,,
Religious Organisations,Baha'i National Spiritual Assembly Communities,23 Nundah St,Lane Cove,NSW,2066,(02) 9427 4734,,,,,,,,,
Religious Organisations,Baha'i National Spiritual Assembly Communities,3 Comer St,Burwood,NSW,2134,(02) 9747 6288,,,,,,,,,
Religious Organisations,Baptist Church Bermagui,1 West St,Bermagui,NSW,2546,(02) 6493 3990,,,,,,,,,
Religious Organisations,Baptist Union Of NSW Aged Peoples Home,21 Leacocks Lane,Smithfield,NSW,2164,(02) 9601 7870,,,,,,,,,
Religious Organisations,Basilio Scientific School Inc,103 Church St,Lidcombe,NSW,2141,(02) 9646 4333,,,,,,,,,
Religious Organisations,Bauple Community Church,Main St,Bauple,QLD,4650,(07) 4129 2787,,,,,,62 864 031 429,Active,Trading Name (Historic),99% ABN Accuracy
Religious Organisations,Bayside Christian Church,18 Neils St,Pialba,QLD,4655,(07) 4124 3327,,,,,,80 677 063 497,Active,Entity Name,99% ABN Accuracy
Religious Organisations,BELLS Caloundra,47 Lomond Cres,Caloundra West,QLD,4551,0414 823 125,,psmith5@bne.catholic.edu.au,http://www.bells.org.au,,,,,,
Religious Organisations,Bessant Bookshop,355 Wickham Tce,Brisbane,QLD,4000,(07) 3839 1453,,,,,,,,,
Religious Organisations,Bethany Rain Harvest Ministries Inc,Unit 1/83- 85 Whiting St,Artarmon,NSW,2064,(02) 9436 2235,,,,,,66 677 308 681,Active,Entity Name (Historic),99% ABN Accuracy
Religious Organisations,Billy Graham Evangelistic Asscn Ltd The,89 York St,Sydney,NSW,2000,(02) 9241 1692,,,,,,,,,
Religious Organisations,Blavatsky Lodge Of The Theosopical Society,484 Kent St,Sydney,NSW,2000,(02) 9267 6955,,,,,,,,,
Religious Organisations,Blue Mountains Insight Meditation Centre,25 Rutland Rd,Medlow Bath,NSW,2780,(02) 4788 1024,,,,,,11 005 353 218,Active,Trading Name,99% ABN Accuracy
Religious Organisations,Boonah Baptist Church,38 Church St,Boonah,QLD,4310,(07) 5463 2598,,colinnrebecca@gmail.com,,,,75 868 759 814,Active,Entity Name,99% ABN Accuracy
Religious Organisations,Bridgeman Christian Outreach Centre,32 Carseldine Rd,Bridgeman Downs,QLD,4035,(07) 3261 9777,,,,,,,,,
Religious Organisations,Brisbane Theosophical Society,355 Wickham Tce,Brisbane,QLD,4000,(07) 3839 1453,,,,,,73 635 882 391,Active,Entity Name,99% ABN Accuracy
Religious Organisations,Brisbane Unitarian Universalist Fellowship,12 Brendon St,Tarragindi,QLD,4121,(07) 3356 8175,,,http://www.brisbaneuu.org.au,,,53 437 521 347,Active,Entity Name,99% ABN Accuracy
Religious Organisations,Buddhist Diamond Way Australia,104 Wattle St,Lyneham,ACT,2602,(02) 6249 7090,,,,,,,,,
Religious Organisations,Buddhist Loden Mahayana Centre,175 Denison Rd,Dulwich Hill,NSW,2203,(02) 9569 0918,,,,,,,,,
Religious Organisations,Buddhist Mahamakut Temple,88 Stanmore Rd,Stanmore,NSW,2048,(02) 9557 2039,,,,,,,,,
Religious Organisations,Buddhist Society Of Northern Territory Incorporated,37 Parkside Crst,Leanyer,NT,812,(08) 8945 3028,,,,,,,,,
Religious Organisations,"Buddhist, Rigpa Tibetan Meditation Centre",10 Swan St,Cooks Hill,NSW,2300,(02) 4925 2770,,,,,,,,,
Religious Organisations,Buddhists-Association Of Engaged,20 Victoria St,Lewisham,NSW,2049,(02) 9590 3617,,,,,,,,,
Religious Organisations,Bundeena Christian Training School & Fellowship Ltd,25 Bundeena Dr,Bundeena,NSW,2230,(02) 9523 5655,,,,,,,,,
Religious Organisations,C 3 Church Bridgeman Downs,1910 Gympie Rd,Bridgeman Downs,QLD,4035,(07) 3500 9999,,,,,,13 869 139 280,Active,Business Name,99% ABN Accuracy
Religious Organisations,C3noosa,23 Ironhurst Pl,Peregian Springs,QLD,4573,0408 828 216,,,http://www.c3noosa.org/,,,,,,
Religious Organisations,Canberra IPC,Kett St,Kambah,ACT,2902,0406 835 155,,canberra.ipc@gmail.com,,,,,,,
Religious Organisations,Canisius College,102 Mona Vale Rd,Pymble,NSW,2073,(02) 9488 4500,,,,,,76 958 486 785,Active,Entity Name,99% ABN Accuracy
Religious Organisations,Canisius College,11 Calvert Parade,Newport Beach,NSW,2106,(02) 9999 1456,,,,,,76 958 486 785,Active,Entity Name,99% ABN Accuracy
Religious Organisations,Capital Edge Community Church Hawker,Capital Bible Church Hall 80 Murranji St,Hawker,ACT,2614,(08) 6282 5759,,,,,,,,,
Religious Organisations,Care Leavers Australia Network,463 Chapel Rd,Bankstown,NSW,2200,1800 008 774,,clan.org@outlook.com,http://www.clan.org.au,,,,,,
Religious Organisations,Cataract River Ranch,71 Dredge Ave,Douglas Park,NSW,2569,(02) 4630 9381,,,,,,53 996 816 309,Active,Trading Name,99% ABN Accuracy
Religious Organisations,Catholic Church Ayr,98 Edwards St,Ayr,QLD,4807,(07) 4783 2316,,saceredheart1@bigpond.com,,,,,,,
Religious Organisations,Catholic Church Offices,Polding House 276 Pitt St,Sydney,NSW,2000,(02) 9390 5100,,,,,,,,,
Religious Organisations,Catholic Church Offices & Organisations,160A Molesworth St,Lismore,NSW,2480,(02) 6622 1134,,,,,,,,,
Religious Organisations,Catholic Colleges & Schools,Banksia Ave,Engadine,NSW,2233,(02) 9520 8889,,,,,,,,,
Religious Organisations,Catholic Development Fund - Diocese of Broken Bay,Building 2 423 Pennant Hills Road Rd,Pennant Hills,NSW,2120,(02) 9847 0748,,,,,,99 046 146 239,Active,Entity Name,99% ABN Accuracy
Religious Organisations,Catholic Development Fund Diocesan Offices,86- 88 Market St,Wollongong,NSW,2500,(02) 4222 2444,,,,,,,,,
Religious Organisations,Catholic Education Commission NSW,276 Pitt St,Sydney,NSW,2000,(02) 9287 1555,,,,,,33 266 477 369,Active,Entity Name,99% ABN Accuracy
Religious Organisations,Catholic Education Office - QLD,24 Charnley St,Kearneys Spring,QLD,4350,(07) 4687 4300,,,,,,,,,
Religious Organisations,Catholic Education Office Archdiocese Of Sydney Eastern Region Office,33 Banks Ave,Daceyville,NSW,2032,(02) 9314 1244,,,,,,,,,
Religious Organisations,Catholic Education Office Archdiocese Of Sydney Inner West Region Office,3 Keating St,Lidcombe,NSW,2141,(02) 9643 3600,,,,,,,,,
Religious Organisations,Catholic Education Office Archdiocese Of Sydney Southern Region Office,300 The River Rd,Revesby Heights,NSW,2212,(02) 9772 7000,,,,,,,,,
Religious Organisations,Catholic Justice & Peace Commission,143 Edward St,Brisbane,QLD,4000,(07) 3336 9173,,,http://www.uq.net.au/cjpc,,,,,,
Religious Organisations,Catholic Mission Office,133-141 Liverpool St,Sydney,NSW,2000,(02) 9390 5430,,,,,,,,,
Religious Organisations,Catholic Parish of St Francis Xavier Ballina,53-57 Cherry St,Ballina,NSW,2478,(02) 6681 1005,,,,,,79 530 089 905,Active,Entity Name,99% ABN Accuracy
Religious Organisations,Catholic Religious Australia,,Annandale,NSW,2038,(02) 9516 1176,,,,,,92 291 126 804,Active,Entity Name,99% ABN Accuracy
Religious Organisations,Catholic Schools Office - Diocese of Maitland/Newcastle,841 Hunter St,Newcastle,NSW,2300,(02) 4979 1200,,,,,,,,,
Religious Organisations,Catholic Youth Education Centre,James Byrne Centre Ms 617,Highfields,QLD,4352,(07) 4630 8339,,,,,,,,,
Religious Organisations,Ccc American Samoa Sydney Parish,,Hoxton Park,NSW,2171,(02) 8783 0730,,,,,,,,,
Religious Organisations,Celebration Community,15 Callum St,Queanbeyan,NSW,2620,(02) 6297 8099,,,,,,,,,
Religious Organisations,Childers Wesleyan Methodist Church,6 Broadhurst St,Childers,QLD,4660,(07) 4126 2850,,rsteinbrecher@aol.com,http://www.childerswesleyanchurch.org.au,,,17 149 226 806,Active,Trading Name,99% ABN Accuracy
Religious Organisations,Ching Chung Taoist Association Of Sydney Ltd,42 Meagher St,Chippendale,NSW,2008,(02) 9310 2155,,,,,,,,,
Religious Organisations,Christ Connect Church,48 Blenheim St,Chermside,QLD,4032,(07) 3108 3065,,info@christconnectchurch.com,http://www.christconnectchurch.com,,,73 642 566 937,Active,Entity Name,99% ABN Accuracy
Religious Organisations,Christ Ministries International Limited,12 Lindale St,Cashmere,QLD,4500,(07) 3882 4555,,cmifaceconection@cmifaceconection.org,http://www.cmifaceconection.org,,,,,,
Religious Organisations,Christadelphian Brisbane,Shop 33/ 20 Masthead Dr,Cleveland,QLD,4163,(07) 3821 7888,,,,,,,,,
Religious Organisations,Christadelphians Information Service,10 Tingara St,Whitebridge,NSW,2290,(02) 4943 8184,,,,,,,,,
Religious Organisations,Christian Abundant Life Learning,77 Bowman St,Pyrmont,NSW,2009,(02) 9552 1480,,,,,,84 057 800 404,Cancelled,Trading Name (Historic),99% ABN Accuracy
Religious Organisations,Christian Brethren Assemblies,Cnr Wattle and Morris Rds,Redcliffe,QLD,4020,(07) 3203 3990,,,,,,,,,
Religious Organisations,Christian Brethren Assemblies,38 Woking St,Grovely,QLD,4054,(07) 3353 1136,,,,,,,,,
Religious Organisations,Christian Brethren Assemblies,788 Sandgate Rd,Clayfield,QLD,4011,(07) 3359 5409,,,,,,,,,
Religious Organisations,Christian Brethren Assemblies,Cnr Waterworks Rd and Killawarra St,Ashgrove,QLD,4060,(07) 3388 4914,,,,,,,,,
Religious Organisations,Christian Brethren Assemblies,11 Curve Ave,Wynnum North,QLD,4178,(07) 3393 5793,,,,,,,,,
Religious Organisations,Christian Brethren Assemblies,161 Preston Rd,Manly West,QLD,4179,(07) 3396 7444,,,,,,,,,
Religious Organisations,Christian Brethren Assemblies,217 Cavendish Rd,Coorparoo,QLD,4151,(07) 3397 3216,,,,,,,,,
Religious Organisations,"Christian Gospel Centre, Thornlands",131 Boundary Rd,Thornlands,QLD,4164,0432 417 037,,christiangospelcentre@yahoo.com.au,,,,,,,
Religious Organisations,Christian Hope Centre,Level 1 9 Trickett St,Surfers Paradise,QLD,4217,(07) 5504 5595,,,,,,57 452 208 242,Active,DGR Name,99% ABN Accuracy
Religious Organisations,Christian Life Ministries International,2216 Wynnum Rd,Wynnum,QLD,4178,(07) 3893 0877,,,,,,,,,
Religious Organisations,Christian Media Act,27 Rae St,Belconnen,ACT,2617,(02) 6253 1197,,,,,,,,,
Religious Organisations,Christian Men's Network,Lot 42 Cowpasture Rd,Sutherland,NSW,2232,(02) 9756 5365,,,,,,,,,
Religious Organisations,Christian Outreach Centre Harvest Point,Walker Rd,Gleneagle,QLD,4285,(07) 5543 1466,,,,,,,,,
Religious Organisations,Christian Outreach Centre Singleton,Lot 2 Adair St,Broke,NSW,2330,(02) 6579 1290,,,,,,,,,
Religious Organisations,Christian Traders Service & Employment Directory,Lot 28/ Pacific Hwy,Johns River,NSW,2443,(02) 6556 5192,,,,,,,,,
Religious Organisations,Christian Traders Service & Employment Directory,7 Ramsay Rd,Pennant Hills,NSW,2120,(02) 9755 7179,,,,,,,,,
Religious Organisations,Christianity Explained Ministry,85 Ferndale St,Annerley,QLD,4103,(07) 3892 3668,,mbennett@powerup.com.au,http://http://www.christianityexplained.com/,,,18 899 741 475,Active,Trading Name,99% ABN Accuracy
Religious Organisations,Christmas Bowl Appeal,379 Kent St,Sydney,NSW,2000,(02) 9299 2215,,,,,,,,,
Religious Organisations,Church Missionary Society Conference Centre,2 Violet St,Katoomba,NSW,2780,(02) 4782 1167,,,,,,,,,
Religious Organisations,Church Of The First Born First Love,8 Albert Lane,Taree,NSW,2430,(02) 6550 0086,,,,,,,,,
Religious Organisations,Church@theHUB,25 Eggins Lane,Lismore,NSW,2480,0432 928 064,,churchatthehub@gmail.com,,,,,,,
Religious Organisations,Churches Of Christ Opportunity Shop,154 Best Rd,Seven Hills,NSW,2147,(02) 9621 7334,,,,,,,,,
Religious Organisations,CLC (Christian Life Community),102 Mona Vale Rd,Pymble,NSW,2073,(02) 9144 7168,,,,,,,,,
Religious Organisations,CLRI (New South Wales),72 Rosebery Ave,Rosebery,NSW,2018,(02) 9663 2199,,,,,,,,,
Religious Organisations,CMCC Ministries Ltd,170 Mayers St,Manunda,QLD,4870,(07) 4032 5216,,,,,,,,,
Religious Organisations,CMCC Ministries Ltd,233 Robert Rd,Bentley Park,QLD,4869,(07) 4045 0042,,,,,,,,,
Religious Organisations,Coffs Harbour Bible Church Inc,26 Hi Tech Dr,Toormina,NSW,2452,(02) 6658 4275,,admin@coffsbiblechurch.com,http://www.coffsbiblechurch.com,,1981,,,,
Religious Organisations,Col Stringer Ministries Inc,,Mudgeeraba,QLD,4213,(07) 5522 7367,,nicky@colstringer.com,,,,91 058 892 925,Active,Entity Name,99% ABN Accuracy
Religious Organisations,Come Mission Australia Pty Ltd,139 Parramatta Rd,Concord,NSW,2137,(02) 9744 5550,,,,,,,,,
Religious Organisations,Community Services Australia Uniting Church,Collett Pl,Pearce,ACT,2607,(02) 6290 2160,,,,,,,,,
Religious Organisations,Confraternity Of The Kingdom Of Christ,1-63 The Abbey Pl,Caboolture,QLD,4510,(07) 5495 1565,,,,,,52 206 857 761,Active,Entity Name,99% ABN Accuracy
Religious Organisations,Convent Missionaries Of Charity,Third St,Katherine,NT,850,(08) 8972 1175,,,,,,,,,
Religious Organisations,Cornerstone (Multicultural) Christian Fellowship,16 Undoolya St,Tiwi,NT,810,0427 363 654,,ccfmulticultural@gmail.com,http://ccfmulticultural.wix.com/ccfmulticultural,,,,,,
Religious Organisations,Cornerstone Students,668 Chapple St,Broken Hill,NSW,2880,(08) 8088 7018,,,,,,,,,
Religious Organisations,Creation Research,23 Lyndon Rd,Capalaba,QLD,4157,(07) 3206 4467,,accounts@creationresearch.net,www.creationresearch.net,,,,,,
Religious Organisations,Crossing Point Church,140 Millaroo Dr,Helensvale,QLD,4212,0406 353 368,,info@thexpoint.com,http://www.thexpoint.com,,,,,,
Religious Organisations,Crossover Australia,54 Parramatta Rd,Glebe,NSW,2037,(02) 9660 3255,,,,,,,,,
Religious Organisations,Crosspointe Church,231 Gurwood St,Wagga Wagga,NSW,2650,(02) 6971 7177,,,,,,,,,
Religious Organisations,Crown Fianancial Ministries Australia Ltd,53 Prospect Rd,Gaythorne,QLD,4051,1300 132 783,,,www.crown.org.au,,,,,,
Religious Organisations,Crown Financial Ministries Australia Ltd,30 Carson Dr,Bunya,QLD,4055,1300 132 783,,crown@crown.org.au,www.crown.org.au,,,,,,
Religious Organisations,Crystal Cathedral Ministries & Hour of Power,23 Victoria St,North Sydney,NSW,2060,(02) 9959 4060,,,,,,,,,
Religious Organisations,CWCI Australia,PO Box 670,Punchbowl,NSW,2196,(02) 9740 6355,,,Visit Our Website,,,12 286 724 219,Active,Other Name,99% ABN Accuracy
Religious Organisations,Darul Uloom Islamic Academy Of Brisbane,6 Agnes St,Buranda,QLD,4102,(07) 3392 1310,,,,,,,,,
Religious Organisations,Diocesan Catholic Marriage Tribunal,Barney St,Armidale,NSW,2350,(02) 6772 7412,,,,,,,,,
Religious Organisations,Disciples Of Jesus Fraternity,34 Collins St,Annandale,NSW,2038,(02) 9565 1125,,,,,,,,,
Religious Organisations,Eid Ul Adha Brisbane 2009,Logan Road Rd,Upper Mt Gravatt,QLD,4122,0412 298 531,,aruf.yasin@gmail.com,,,,,,,
Religious Organisations,Emmanuel Blessings,31 Beaconsfield Rd,Chatswood,NSW,2067,(02) 9904 6500,,,,,,32 316 378 144,Active,Business Name,99% ABN Accuracy
Religious Organisations,Emmanuel Community,Central Ave CnrHerbet,Paddington,QLD,4064,(07) 3217 5199,,admin@emmanuelcommunity.com.au,http://www.emmanuelcommunity.com.au,,,42 725 286 045,Active,Entity Name,99% ABN Accuracy
Religious Organisations,Empower Church Penrith,52 Laycock St,Cranebrook,NSW,2749,(02) 4722 8489,,info.penrith@empowerchurch.com.au,http://www.empowerchurch.com.au/penrith,,,,,,
Religious Organisations,Empower Church Penrith,4/5 Production Pl South,Penrith,NSW,2750,(02) 4729 1844,,info.penrith@empowerchurch.com.au,http://www.empowerchurch.com.au/penrith,,,,,,
Religious Organisations,Empowered For Purpose,46 Maxwell St,Turramurra,NSW,2074,(02) 9402 7555,,,http://www.empoweredforpurpose.com,,,30 023 132 107,Cancelled,Trading Name,99% ABN Accuracy
Religious Organisations,Endless Praise Music Group,43 Helena St,Ellalong,NSW,2325,(02) 4998 0312,,,,,,,,,
Religious Organisations,Epping Christian Life Centre,Cnr Ryde and George Sts,Epping,NSW,2121,(02) 9876 5425,,,,,,47 155 412 646,Active,Trading Name,99% ABN Accuracy
Religious Organisations,Evangelism Explosion Ministries Australia,81 Wentworth St,Port Kembla,NSW,2505,(02) 4275 1033,,,,,,,,,
Religious Organisations,Faith & Life Institute,L 1 24 Mcdougall St,Milton,QLD,4064,(07) 3511 4089,,,http://www.fli.com.au/,,,,,,
Religious Organisations,Faith Baptist Christian School,1315 Dawson Hwy,Burua,QLD,4680,(07) 4978 2850,,,,,,46 059 686 944,Active,Entity Name,99% ABN Accuracy
Religious Organisations,Faith Revival Christian Church [FReN-Australia],3 Cuthbert Dr,Ormeau,QLD,4208,(07) 3209 6622,,frenministries@gmail.com,www.faithrevival.org.au,,,,,,
Religious Organisations,Family The,72 Coral Tree Dr,Carlingford,NSW,2118,(02) 9872 9745,,,,,,,,,
Religious Organisations,Force Ten,379 Kent St,Sydney,NSW,2000,(02) 9299 2215,,,,,,42 663 966 200,Cancelled,Entity Name,99% ABN Accuracy
Religious Organisations,Forsdike Adam John,25 Yarraman Pl,Virginia,QLD,4014,(07) 3865 1114,,,,,,,,,
Religious Organisations,Forum on Australia's Islamic Relations (F.A.I.R),,Regents Park,NSW,2143,0412 318 045,,,,,,,,,
Religious Organisations,Foursquare Church Australia,10 Elswick Pl,Coffs Harbour,NSW,2450,(02) 6651 3461,,,,,,,,,
Religious Organisations,Foursquare Church Australia,2 - 14 Bridge Rd,Westmead,NSW,2145,(02) 9635 1969,,webadmin@foursquareaustralia.org,www.foursquareaustralia.org,,,,,,
Religious Organisations,Freedom Life Centre,22 Lovett St,Rangeville,QLD,4350,(07) 4635 7000,,,,,,12 107 368 570,Active,Business Name,99% ABN Accuracy
Religious Organisations,Friends Of The Western Buddhist Order (FWBO),,Minto,NSW,2566,(02) 9603 9603,,,,,,,,,
Religious Organisations,Garabandal Centre (NSW),6 Illawong Crst,Greenacre,NSW,2190,(02) 9796 4246,,,,,,,,,
Religious Organisations,Gayndah Assembly of God,17 Meyer St,Gayndah,QLD,4625,(07) 4161 1713,,,,,,,,,
Religious Organisations,Gideons International In Aust Inc,33 Colbeck St,Mawson,ACT,2607,(02) 6286 1566,,,,,,,,,
Religious Organisations,Gnostic Movement The,,Bondi Junction,NSW,2022,1300 307 332,,,,,,,,,
Religious Organisations,Gold Coast Church of Christ,Merrimac State Primary School Cnr Boowaggan Rd and Gooding Drv,Merrimac,QLD,4226,0406 609 831,,wthornton6@bigpond.com,www.goldcoastchurchofchrist.org,,,,,,
Religious Organisations,Golden West Baptist Church,72 Bant St,Bathurst,NSW,2795,0401 226 074,,gwbaptist@gmx.com,http://www.eternityvideo.org,,,27 713 170 516,Active,Trading Name,99% ABN Accuracy
Religious Organisations,Golden Wheel Buddhist Association,405 Galston Rd,Galston,NSW,2159,(02) 9651 5628,,,,,,,,,
Religious Organisations,Gordon Highway Centre,18 Cecil St,Gordon,NSW,2072,(02) 9498 6729,,,,,,,,,
Religious Organisations,Grace Tabernacle Christian Centre,24- 26 Harp St,Campsie,NSW,2194,(02) 9718 8086,,,,,,58 478 730 908,Active,Trading Name,99% ABN Accuracy
Religious Organisations,Greek Orthodox Church Of Dormition Of Our Lady,133 Ernest St,Innisfail,QLD,4860,(07) 4061 6775,,,,,,,,,
Religious Organisations,Gunundi Anglican Camp & Conference Centre,Shelly Beach Rd,East Ballina,NSW,2478,(02) 6686 3128,,,,,,,,,
Religious Organisations,Hare Krishna Catering,Cnr Falcon & Miller Sts 180 Falcon St,North Sydney,NSW,2060,(02) 9959 4558,,,,,,,,,
Religious Organisations,Hare Krishna Centre,44 Limestone Ave,Ainslie,ACT,2602,(02) 6262 6208,,,,,,,,,
Religious Organisations,Hawkesbury Valley Baptist Church,14/ 26 Terrace Rd,North Richmond,NSW,2754,(02) 4571 4963,,,,,,45 978 366 061,Active,Entity Name,99% ABN Accuracy
Religious Organisations,Health Care In Christ Inc,11 Blaxland Rd,Bellevue Hill,NSW,2023,(02) 9365 7137,,,,,,15 055 892 727,Active,Entity Name,99% ABN Accuracy
Religious Organisations,Heaven's Gates & Hell's Flames,2 Brunter Rd,Chullora,NSW,2190,(02) 9608 0021,,,,,,,,,
Religious Organisations,Heritage Christian Centre,58 Woondooma St,Bundaberg,QLD,4670,(07) 4153 1649,,,,,,59 363 542 341,Active,Business Name,99% ABN Accuracy
Religious Organisations,Hills Christian Family The,52 Plucks Rd,Arana Hills,QLD,4054,(07) 3851 1948,,,,,,,,,
Religious Organisations,Hindu Council of Australia Ltd,17 The Crescent,Homebush,NSW,2140,(02) 8250 4007,,,,,,,,,
Religious Organisations,His House Church,HisHouse Complex 54 Bridge St,Picton,NSW,2571,(02) 4677 2238,,erich@hishouse.org.au,HisHouse Church,,1989,,,,
Religious Organisations,Holy Family Church & Centre,168-174 Palmerston St,Gulliver,QLD,4812,(07) 4779 3145,,,,,,,,,
Religious Organisations,Horsley Christian Church,82 Bong Bong Rd,Horsley,NSW,2530,(02) 4257 9188,,don.burgess@exemail.com.au,http://www.horsleychristianchurch.org.au,,,,,,
Religious Organisations,Hour Of Power,23 Victoria St,North Sydney,NSW,2060,(02) 9959 4060,,,,,,68 057 953 152,Active,Business Name,99% ABN Accuracy
Religious Organisations,House Of God Alliance Fellowship,4 Tuross St,Seven Hills,NSW,2147,(02) 9896 5951,,,http://www.facebook.com/houseofgodalliancefellowship,,,77 162 916 199,Active,Entity Name,99% ABN Accuracy
Religious Organisations,Hungarian Catholic Community (Caritas Assoc of NSW),120 Parramatta Rd,Ashfield,NSW,2131,(02) 9799 5469,,,,,,,,,
Religious Organisations,Ignatian Centre Of Spirituality,102 Mona Vale Rd,Pymble,NSW,2073,(02) 9488 4539,,,,,,,,,
Religious Organisations,Ilgingerry Pastoral Co,183 Ilgingerry Rd,Wuuluman,NSW,2820,(02) 6845 3623,,,,,,93 533 876 691,Active,Other Name,99% ABN Accuracy
Religious Organisations,Indo Chinese Mission Training,9 Lime St,Cabramatta West,NSW,2166,(02) 9823 5743,,,,,,,,,
Religious Organisations,Institude of the Blessed Virgen Mary,60 Boundary St,Clovelly,NSW,2031,(02) 9665 0269,,,,,,,,,
Religious Organisations,Institute For Mission,1-5 Marion St,Blacktown,NSW,2148,(02) 9831 4911,,office@ifm.org.au,www.ifm.org.au,,,82 969 784 671,Active,Trading Name,99% ABN Accuracy
Religious Organisations,Institute Of Religious Women,Busby St,Bathurst,NSW,2795,(02) 6331 6575,,,,,,,,,
Religious Organisations,Institute Of Religious Women,34 Bedford St,Willoughby,NSW,2068,(02) 9417 3688,,,,,,,,,
Religious Organisations,Institute Of Religious Women,78 Prospect Rd,Summer Hill,NSW,2130,(02) 9716 4062,,,,,,,,,
Religious Organisations,Iskcon Hare Krishna Sydney,180 Falcon St,North Sydney,NSW,2060,(02) 9956 6831,,,,,,,,,
Religious Organisations,Iskcon Incorporated,Cnr Falcon and Miller Sts,North Sydney,NSW,2060,(02) 9959 4558,,,,,,,,,
Religious Organisations,Islamic Centre of Campbelltown,Westmoreland Rd,Leumeah,NSW,2560,(02) 9820 2536,,,,,,,,,
Religious Organisations,Islamic Converts Australia,,Greenacre,NSW,2190,(02) 9750 4616,,,,,,,,,
Religious Organisations,Islamic Education As-Salaam Institute for Islamic Studies,2674 Logan Rd,Eight Mile Plains,QLD,4113,0402 395 938,,,,,,,,,
Religious Organisations,Islamic Science Culture & Art Association,57 Queen St,Auburn,NSW,2144,(02) 9646 2158,,,,,,,,,
Religious Organisations,Islamic Society Of Penshurst,447 Forrest Rd,Penshurst,NSW,2222,(02) 9580 3390,,,,,,,,,
Religious Organisations,Islamic Society Of The Gold Coast Inc,Cnr Olsen Ave Lot 1 Allied Dr,Arundel,QLD,4214,(07) 5594 9097,,,,,,,,,
Religious Organisations,Islamic Society of West End,12 Princhester St,West End,QLD,4101,(07) 3846 1573,,,,,,,,,
Religious Organisations,Jehovahs Witness Hall,4 Normanby Hill Rd,Gympie,QLD,4570,(07) 5483 6347,,,,,,,,,
Religious Organisations,Jehovah's Witnesses - Mudgee,183 Market St,Mudgee,NSW,2850,0414 625 654,,,,,,,,,
Religious Organisations,Jesus Calls International Incorporated,31 Brucedale Dr,Baulkham Hills,NSW,2153,(02) 9686 7454,,,,,,,,,
Religious Organisations,Jewish Community Information Service,146 Darlinghurst Rd,Darlinghurst,NSW,2010,(02) 9360 1600,,,,,,,,,
Religious Organisations,Jewish Educational Institute - Chabad Brisbane,,Carindale,QLD,4152,(07) 3843 6770,,,www.chabadbrisbane.com,,,,,,
Religious Organisations,Jews For Jesus Judaica Books and Gifts,Shop 1 257 Oxford St,Bondi Junction,NSW,2022,1800 988 077,,admin@jewsforjesus.org.au,http://www.jewsforjesus.org.au,,,,,,
Religious Organisations,Kagyu E-Vam Buddhist Institute K,49 High St,Parramatta,NSW,2150,(02) 9893 9008,,,,,,,,,
Religious Organisations,Kihilla Conference Centre,5 Queens Rd,Lawson,NSW,2783,(02) 4759 1360,,,,,,,,,
Religious Organisations,Kingdom Hall Jehovahs Witnesses,183 Market St,Mudgee,NSW,2850,0421 022 713,,,http://www.jw.org,,,,,,
Religious Organisations,Kingdom Hall Of Jehovah's Witnesses,,Tacoma,NSW,2259,(02) 4353 1377,,,,,,,,,
Religious Organisations,Kyogle Presbyterian Church,Strath Eden St,Kyogle,NSW,2474,0400 050 238,,,,,,91 193 718 192,Active,Trading Name,99% ABN Accuracy
Religious Organisations,Lakes Evangelical Church Incorporated The,6 Pioneer Ave,Tuggerah,NSW,2259,(02) 4353 0977,,,,,,,,,
Religious Organisations,Latter Day Saints General Services,756 Pennant Hills Rd,Carlingford,NSW,2118,(02) 9841 5333,,,http://www.lds.org,,,,,,
Religious Organisations,Lebanese Moslim Association,20 Water St,Cabramatta,NSW,2166,(02) 9757 2454,,,,,,,,,
Religious Organisations,Liberty Christian Church,Cnr Kingston and Queens Rds,Logan Central,QLD,4114,(07) 3209 4222,,,,,,71 919 237 635,Active,Entity Name,99% ABN Accuracy
Religious Organisations,Lin Yim Buddhist Instute Sydney Inc,,Rossmore,NSW,2557,(02) 9606 8833,,,,,,,,,
Religious Organisations,Linkages Youth Ministry,19 Lethbridge Ave,Werrington,NSW,2747,(02) 9833 4455,,,,,,,,,
Religious Organisations,Lismore Revival Fellowship,3 Carson St,Goonellabah,NSW,2480,(02) 6624 7775,,,www.lrf.org.au/,,,,,,
Religious Organisations,Living Hope Fellowship Centre,42 George St,Rockdale,NSW,2216,(02) 9567 4770,,,,,,,,,
Religious Organisations,Loyal Orange Institution of NSW,161 Parramatta Rd,Annandale,NSW,2038,(02) 9569 5446,,,,,,,,,
Religious Organisations,Manna International,8 Boonal St,Baulkham Hills,NSW,2153,(02) 9624 8947,,,,,,47 387 596 641,Active,Entity Name,99% ABN Accuracy
Religious Organisations,Maranatha Christian Camp Site,View St,Lidsdale,NSW,2790,(02) 6355 1175,,,,,,,,,
Religious Organisations,Maria Tak,2 Victoria St,Wentworth Falls,NSW,2782,(02) 4757 1948,,,,,,,,,
Religious Organisations,Marist Bros Monastery,8 Keen St,Lismore,NSW,2480,(02) 6621 3210,,,,,,,,,
Religious Organisations,Marist Bros Monastery,2 Clarence St,Grafton,NSW,2460,(02) 6642 5265,,,,,,,,,
Religious Organisations,Marist Brothers Farm House,Old South Rd,Mittagong,NSW,2575,(02) 4872 1911,,,,,,,,,
Religious Organisations,Marist Brothers Provincial House,14 Drummoyne Ave,Drummoyne,NSW,2047,(02) 9819 6622,,,,,,,,,
Religious Organisations,Marist Fathers Centre,141 Harrington St,The Rocks,NSW,2000,(02) 9247 4651,,,,,,,,,
Religious Organisations,Marist Fathers Parish Community,36 Arkana St,The Gap,QLD,4061,(07) 3300 9833,,,,,,,,,
Religious Organisations,Maryborough City Church,330 Alice St,Maryborough,QLD,4650,(07) 4121 3242,,,,,,43 105 248 070,Active,Entity Name,99% ABN Accuracy
Religious Organisations,Mater Christi Respite Centre,,Toormina,NSW,2452,(02) 6658 6133,,info@scca.net.au,www.scca.net.au/,,,,,,
Religious Organisations,Millo Christian Media,Suite 4 17 Fitzmaurice St,Wagga Wagga,NSW,2650,(02) 6971 9188,,,,,,,,,
Religious Organisations,Miracle Christian Center Maroochydore,104 Memorial Ave,Maroochydore,QLD,4558,0431 683 954,,,,,,,,,
Religious Organisations,Miracle Christian Center Maroochydore,"Alcooringa Community Centre, 176 Balinger Rd",Buderim,QLD,4556,0431 683 954,,caboolture@mcc777australia.org,www.mcccaboulture.com.au,,,,,,
Religious Organisations,Mission Heart,RMG 04 203/ 20 Genge St,Canberra,ACT,2600,(02) 6230 6601,,,,,,,,,
Religious Organisations,Missionaries Of Gods Love,8 Nuyts St,Red Hill,ACT,2603,(02) 6295 3415,,,,,,37 352 577 266,Cancelled,Entity Name,99% ABN Accuracy
Religious Organisations,Missionary Dominican Sisters Of The Rosary,45 Applegum Dr,Karama,NT,812,(08) 8945 0430,,,,,,51 621 320 021,Active,Entity Name,99% ABN Accuracy
Religious Organisations,Missions To Seamen The,Alf O'Rourke Dr,Gladstone,QLD,4680,(07) 4972 0355,,,,,,,,,
Religious Organisations,Mona Vale Spiritualist Church,10 Barrenjoey Rd,Mona Vale,NSW,2103,0403 649 464,,dianne@statesofgrace.com.au,http://www.statesofgrace.com.au,,,,,,
Religious Organisations,Mount Annan Church Community Services,347 Narellan Rd,Mt Annan,NSW,2567,(02) 4634 7400,,,,,,95 268 815 800,Cancelled,Trading Name (Historic),99% ABN Accuracy
Religious Organisations,Mount Carmel Retreat Centre,St Andrews Rd,Varroville,NSW,2566,(02) 9603 1433,,,,,,,,,
Religious Organisations,Mrs. Rose Mohamed,,Abbotsbury,NSW,2176,(02) 5551 5678,,mrsrosemohamed@gmail.com,,,,,,,
Religious Organisations,Mystics Of Kali,Darling St,Balmain,NSW,2041,(02) 9818 5253,,,,,,,,,
Religious Organisations,Nai Tak Buddhist Association Ltd,302 McCarrs Creek Rd,Terrey Hills,NSW,2084,(02) 9450 2799,,,,,,,,,
Religious Organisations,Nanango Christian Community Church,"Cultural Centre, George",Nanango,QLD,4615,(07) 3886 9966,,,,,,,,,
Religious Organisations,National Council of Churches in Australia,379 Kent St,Sydney,NSW,2000,(02) 9299 2215,,,,,,64 493 941 795,Active,Entity Name,99% ABN Accuracy
Religious Organisations,National Council of Churches in Australia,55 Homebush Rd,Strathfield,NSW,2135,(02) 9746 6081,,,,,,64 493 941 795,Active,Entity Name,99% ABN Accuracy
Religious Organisations,Nations Heart,Rae St,Belconnen,ACT,2617,(02) 6253 1672,,,,,,26 812 072 764,Active,Trading Name (Historic),99% ABN Accuracy
Religious Organisations,Nerang Community Church,2 Arjuna Way,Gaven,QLD,4211,(07) 5573 5952,,,,,,36 279 979 057,Active,Trading Name,99% ABN Accuracy
Religious Organisations,Nexus Church,151 Flockton St,Everton Park,QLD,4053,(07) 3353 1377,,info@nexuschurch.com.au,www.nexuschurch.com.au,,,53 925 582 781,Active,Entity Name,99% ABN Accuracy
Religious Organisations,Northreach Student Lodge,38 Canterbury Rd,Kirwan,QLD,4817,(07) 4723 2371,,,,,,,,,
Religious Organisations,NSW Ecumenical Council,379 Kent St,Sydney,NSW,2000,(02) 9299 2215,,,,,,41 870 337 395,Cancelled,Entity Name,99% ABN Accuracy
Religious Organisations,NSW Ecumenical Council Canberra Office,69 Northbourne Ave,Canberra City,ACT,2601,(02) 6257 4095,,,,,,,,,
Religious Organisations,NSW Jewish Board of Deputies,146 Darlinghurst Rd,Darlinghurst,NSW,2010,(02) 9360 1600,,mail@nswjbd.com,http://www.nswjbd.org,,,,,,
Religious Organisations,O L S H Formation House Hartzer Park,Eridge Park,Bowral,NSW,2576,(02) 4861 3915,,,,,,,,,
Religious Organisations,O.L.F. Parish Centre,89 Shaw St,Kingsgrove,NSW,2208,(02) 9502 4073,,,,,,,,,
Religious Organisations,Open Gate Church,Yeppoon Basketball Stadium Cordingley Street,Yeppoon,QLD,4703,(07) 4925 0514,,,,,,66 452 460 603,Active,Entity Name,99% ABN Accuracy
Religious Organisations,Orange Prayer House,68 Endsleigh Ave,Orange,NSW,2800,(02) 6369 1162,,,,,,,,,
Religious Organisations,Our Lady Of Mt Carmel De Garabandal,22 Fergus St,Keperra,QLD,4054,(07) 3354 1876,,,,,,,,,
Religious Organisations,Our Lady of Walsingham,16 Jordan St,Wentworthville,NSW,2145,(02) 9633 1329,,,,,,,,,
Religious Organisations,Ozanam Villa Home For The Aged,9 Nimbin Pl,Coffs Harbour,NSW,2450,(02) 6652 2366,,,,,,,,,
Religious Organisations,Palvelupiste Finnish Community Care,3 Stanley St,East Sydney,NSW,2010,(02) 9380 5904,,,,,,,,,
Religious Organisations,Parish Youth Ministry Services,143 Edward St,Brisbane,QLD,4000,(07) 3336 9168,,,,,,,,,
Religious Organisations,Pastor Phil Cropper (Brisbane & Gold Coast,Gold Coast St,Surfers Paradise,QLD,4217,0402 142 011,,,,,,,,,
Religious Organisations,Peace Prayer Place/Shalom,7 Proctor St,Armidale,NSW,2350,(02) 6772 1257,,,,,,,,,
Religious Organisations,Peacemakers Ministries Ltd,125 Parker St,Cootamundra,NSW,2590,(02) 6942 1692,,,,,,,,,
Religious Organisations,Pentecostal Churches United,Police Citizens Youth Centre Hassalle St,Parramatta,NSW,2150,(02) 9718 8086,,,,,,,,,
Religious Organisations,Pentecostal Churches United,Pcyc Community Hall Crn Of Cartwright and Maxwell Miller,Miller,NSW,2168,(02) 9718 8086,,,,,,,,,
Religious Organisations,Pentecostal Churches United,Fijian Services 24-26 Harp St,Campsie,NSW,2194,(02) 9718 8086,,,,,,,,,
Religious Organisations,Pentecostal Churches United,Leumeah Primary School Cnr Pembroke & Burrendong St,Leumeah,NSW,2560,(02) 9791 5895,,,,,,,,,
Religious Organisations,Pentecostal Churches United,Fox Studios Entertainment Quarter,Moore Park,NSW,2021,0404 007 771,,,,,,,,,
Religious Organisations,Philosophy Of Christian Womanhood,20 Malvern Ave,Croydon,NSW,2132,(02) 9747 4133,,,,,,,,,
Religious Organisations,Prayers On Wheels,Cnr Pennant Hills Rd and Alamein Ave,Carlingford,NSW,2118,(02) 9872 3022,,,,,,,,,
Religious Organisations,Presbyterian Church Of Queensland Camp,Kairi St,Kairi,QLD,4872,(07) 4095 8224,,,,,,,,,
Religious Organisations,Project Life - International Network of Church's,17 Bavarde Ave,Batemans Bay,NSW,2536,(02) 4472 7284,,brcoc@bigpond.com,,,,,,,
Religious Organisations,Psychic healer,,Loganholme,QLD,4129,0410 267 615,,elizabethhall49@gmail.com,,,,,,,
Religious Organisations,Queensland Bioethics Centre,202 Waterworks Rd,Ashgrove,QLD,4060,(07) 3366 2111,,,,,,,,,
Religious Organisations,Queensland Churches Together,233 Milton Rd,Milton,QLD,4064,(07) 3369 6792,,,http://www.qct.org.au,,,18 162 202 465,Active,Entity Name,99% ABN Accuracy
Religious Organisations,Queensland Murrie Chaplains,84 Park Rd,Woolloongabba,QLD,4102,(07) 3391 1932,,,,,,,,,
Religious Organisations,Ramakrishna Sarada Vedanta Socy Of NSW,15 Liverpool Rd,Croydon,NSW,2132,0408 029 336,,admin.saradavedanta@bigpond.com,http://www.saradavedanta.org,,,,,,
Religious Organisations,Reality Outreach Ministeries Australia Limited,2 Brunter Rd,Chullora,NSW,2190,(02) 9608 0021,,,,,,,,,
Religious Organisations,Red Shield Community Centre,45 Otho St,Inverell,NSW,2360,(02) 6722 3008,,,,,,,,,
Religious Organisations,Redcliffe Christian Assembly,75 Morris Rd,Rothwell,QLD,4022,(07) 3897 2700,,,,,,96 943 089 731,Active,Business Name,99% ABN Accuracy
Religious Organisations,Redemptorist Missionaries,167 Jamison Rd,Penrith,NSW,2750,(02) 4732 1600,,,,,,,,,
Religious Organisations,Remote Area Families Service,52 Yamala St,Emerald,QLD,4720,(07) 4982 0915,,,,,,,,,
Religious Organisations,Revival Life Centre,663 King Georges Rd,Penshurst,NSW,2222,(02) 9570 2552,,,,,,83 054 585 093,Cancelled,Entity Name,99% ABN Accuracy
Religious Organisations,Ridgecrest Christian Education & Convention Centre,Lake Burrendong,Wellington,NSW,2820,(02) 6846 7434,,,,,,,,,
Religious Organisations,Rigpa Fellowship (Tibetan Buddhist Meditation),,Braddon,ACT,2612,(02) 6230 5093,,,,,,,,,
Religious Organisations,Rigpa Fellowship Inc Brisbane,,Brisbane,QLD,4001,(07) 3030 0649,,,www.rigpa.org.au,,,,,,
Religious Organisations,Russian Orthodox Monastery,32 Smith St,Kentlyn,NSW,2560,(02) 4625 7054,,abbessmaria@yahoo.com.au,www.kazanconvent.org,,1950,,,,
Religious Organisations,Saint Augustine's Priory,60 Federal Parade,Brookvale,NSW,2100,(02) 9938 3782,,,,,,,,,
Religious Organisations,Salvation Army Church Office,198 Wolfram St,Broken Hill,NSW,2880,(08) 8087 5114,,,,,,,,,
Religious Organisations,Salvation Army Corps The,42 Brisbane St,Bondi Junction,NSW,2022,(02) 9389 6186,,,,,,,,,
Religious Organisations,Salvation Army Emergency Accommodation For Boys,,Surry Hills,NSW,2010,(02) 9331 2266,,,,,,,,,
Religious Organisations,Salvation Army Officers Quarters,171 Wolfram St,Broken Hill,NSW,2880,(08) 8087 9935,,,,,,,,,
Religious Organisations,Salvation Army The,McLachlan Ave,Long Jetty,NSW,2261,(02) 4333 1813,,,,,,,,,
Religious Organisations,Salvation Army The,90 Minnamurra Rd,Gorokan,NSW,2263,(02) 4393 1686,,,,,,,,,
Religious Organisations,Salvation Army The,Cnr Pacific Hwy and Smith St,Charlestown,NSW,2290,(02) 4943 6021,,,,,,,,,
Religious Organisations,Salvation Army The,2- 4 Brisbane Ave,Barton,ACT,2600,(02) 6273 2211,,,,,,,,,
Religious Organisations,Salvation Army The,South St,Tuncurry,NSW,2428,(02) 6554 6101,,,,,,,,,
Religious Organisations,Salvation Army The,47 Bowra St,Nambucca Heads,NSW,2448,(02) 6554 6101,,,,,,,,,
Religious Organisations,Salvation Army The,12 Stewart Parade,Forster,NSW,2428,(02) 6555 4418,,,,,,,,,
Religious Organisations,Salvation Army The,165 Currie St,Nambour,QLD,4560,(07) 5441 7307,,,,,,,,,
Religious Organisations,Salvation Army The,6 Bartlett St,Noosaville,QLD,4566,(07) 5442 4218,,,,,,,,,
Religious Organisations,Salvation Army The,Cnr Broadmeadows and New Maroochydore Rds,Maroochydore,QLD,4558,(07) 5443 8248,,,,,,,,,
Religious Organisations,Salvation Army The,9 Church St,Boonah,QLD,4310,(07) 5463 2416,,,,,,,,,
Religious Organisations,Salvation Army The,4 West St,Boonah,QLD,4310,(07) 5463 4824,,,,,,,,,
Religious Organisations,Salvation Army The,15 Caledonian Hill,Gympie,QLD,4570,(07) 5482 3693,,,,,,,,,
Religious Organisations,Salvation Army The,Shop 2B/ 2 Coora Crst,Caloundra,QLD,4551,(07) 5493 6053,,,,,,,,,
Religious Organisations,Salvation Army The,Cnr Lower King and Dux Sts,Caboolture,QLD,4510,(07) 5495 4627,,,,,,,,,
Religious Organisations,Salvation Army Thrift Centres,John Bull Centre,Bomaderry,NSW,2541,(02) 4421 0747,,,,,,,,,
Religious Organisations,Samaritan Foundation Anglican Care,1 Helm Cl,Salamander Bay,NSW,2317,(02) 4984 9546,,,,,,,,,
Religious Organisations,Sathya Sai Baba Centre Of Gladstone,12 Whitewood Crst,Gladstone,QLD,4680,(07) 4978 5729,,,,,,,,,
Religious Organisations,Sathya Sai Centre of Central Brisbane,61 College Rd,Spring Hill,QLD,4000,(07) 3394 3798,,,,,,,,,
Religious Organisations,Sathya Sai Organisation Of Australia,84 St Georges Crst,Drummoyne,NSW,2047,(02) 9819 7401,,,,,,,,,
Religious Organisations,Scalabrini Fathers,3 Lookout Dr,Mt Pritchard,NSW,2170,(02) 9601 5841,,,,,,,,,
Religious Organisations,School For Youth Leadership,42 Greenacre Ave,Lake Munmorah,NSW,2259,(02) 4358 8886,,,,,,,,,
Religious Organisations,Schuller Robert Ministries,23 Victoria St,North Sydney,NSW,2060,(02) 9959 4060,,,,,,,,,
Religious Organisations,Scripture 21 (SRE),St Andrew's Hse,Sydney,NSW,2000,(02) 9283 2635,,,,,,,,,
Religious Organisations,Scripture Union Hunter/Central Coast,,Tuggerah,NSW,2259,(02) 4388 2662,,,,,,,,,
Religious Organisations,Scripture Union N.T.,7 Rowling St,Casuarina,NT,810,(08) 8945 4352,,info@sunt.org.au,http://sunt.org.au,,,,,,
Religious Organisations,Seventh Day Adventist Christian Services For The Blind,148 Fox Valley Rd,Wahroonga,NSW,2076,(02) 9847 3333,,,,,,,,,
Religious Organisations,Seventh Day Adventist Reform Movement of A/asia,85 Grange Ave,Schofields,NSW,2762,(02) 9627 7553,,,http://www.infosdarm.org.au,,,,,,
Religious Organisations,SHIRELIVE //,7 Stapleton Ave,Sutherland,NSW,2232,(02) 9521 2933,,,,,,54 085 745 820,Active,Trading Name (Historic),99% ABN Accuracy
Religious Organisations,Sisters Of The Church Kempsey,29 Lika Dr,Kempsey,NSW,2440,(02) 6562 2313,,,,,,,,,
Religious Organisations,Society Of St Vincent De Paul Welfare Centre,97 Argent St,Broken Hill,NSW,2880,(08) 8087 5813,,,,,,,,,
Religious Organisations,South Pacific Division of Seventh Day Adventists,148 Fox Valley Rd,Wahroonga,NSW,2076,(02) 9847 3333,,,,,,,,,
Religious Organisations,Southern Cross Ministeries,11 Treeby St,Tingalpa,QLD,4173,(07) 3390 6063,,,,,,,,,
Religious Organisations,Southside Christian College,109 Golda Ave,Salisbury,QLD,4107,(07) 3719 3111,,,,,,23 107 469 054,Active,Business Name,99% ABN Accuracy
Religious Organisations,Southside Interntional Church (Christian & Missionary Alliance),613 Beenleigh Rd,Sunnybank Hills,QLD,4109,(07) 3345 6617,,,,,,,,,
Religious Organisations,Sri Lankin Buddhist,35 Oak St,Schofields,NSW,2762,(02) 9627 2594,,,,,,,,,
Religious Organisations,St Catherines/Seton Community,162-166 Balaclava Rd,Marsfield,NSW,2122,(02) 9878 4557,,,,,,,,,
Religious Organisations,St Christophorous Aged Care,112 Edwin St,Croydon,NSW,2132,(02) 9808 1288,,,,,,,,,
Religious Organisations,"St John's Anglican Church, Newcastle",1B Parry St,Cooks Hill,NSW,2300,(02) 4927 5399,,admin@saintjohns.com.au,http://www.saintjohns.com.au,,,72 344 192 692,Active,Entity Name,99% ABN Accuracy
Religious Organisations,St Joseph Foundation The,1st Floor 374 High St,Penrith,NSW,2750,(02) 4732 2462,,,,,,,,,
Religious Organisations,St Joseph's House Of Prayer,Taralga Rd,Kenmore,NSW,2580,(02) 4821 3092,,,,,,,,,
Religious Organisations,"St Mark Coptic Orthodox Church, Canberra-Australia",10 Maribyrnong Ave,Kaleen,ACT,2617,0404 076 111,,,http://www.stmarkact.org,,1989,,,,
Religious Organisations,St Mark's Choir,53 Darling Point Rd,Darling Point,NSW,2027,(02) 9327 5123,,,,,,,,,
Religious Organisations,St Michael's House,200 Albion St,Surry Hills,NSW,2010,(02) 9360 7552,,,,,,,,,
Religious Organisations,St Vincent De Paul Socy,84 Magellan St,Lismore,NSW,2480,(02) 6621 5959,,,,,,,,,
Religious Organisations,St Vincent De Paul Socy,25 Commercial Rd,Alstonville,NSW,2477,(02) 6628 0167,,,,,,,,,
Religious Organisations,St Vincent De Paul Socy,118 Summerland Way,Kyogle,NSW,2474,(02) 6632 1055,,,,,,,,,
Religious Organisations,St Vincent De Paul Socy,16 Prince St,Grafton,NSW,2460,(02) 6642 1660,,,,,,,,,
Religious Organisations,St Vincent De Paul Socy,64 Skinner St,South Grafton,NSW,2460,(02) 6642 3290,,,,,,,,,
Religious Organisations,St Vincent De Paul Socy,123 High St,Coffs Harbour,NSW,2450,(02) 6652 3003,,,,,,,,,
Religious Organisations,St Vincent De Paul Socy,Minorca Pl,Toormina,NSW,2452,(02) 6653 2113,,,,,,,,,
Religious Organisations,St Vincent De Paul Socy,15 Market Lane,Woolgoolga,NSW,2456,(02) 6654 1762,,,,,,,,,
Religious Organisations,St Vincent De Paul Socy,Cudgery St,Dorrigo,NSW,2453,(02) 6657 2535,,,,,,,,,
Religious Organisations,St Vincent De Paul Socy,148 Canterbury St,Casino,NSW,2470,(02) 6662 1291,,,,,,,,,
Religious Organisations,St Vincent De Paul Socy,110 Marine Parade,Kingscliff,NSW,2487,(02) 6674 2844,,,,,,,,,
Religious Organisations,St Vincent De Paul Socy,56 Woodburn St,Evans Head,NSW,2473,(02) 6682 4788,,,,,,,,,
Religious Organisations,St Vincent De Paul Socy,100 Dalley St,Mullumbimby,NSW,2482,(02) 6684 2639,,,,,,,,,
Religious Organisations,St Vincent De Paul Socy,7 Fingal St,Brunswick Heads,NSW,2483,(02) 6685 1443,,,,,,,,,
Religious Organisations,St Vincent De Paul Socy,2 Marvel St,Byron Bay,NSW,2481,(02) 6685 7052,,,,,,,,,
Religious Organisations,St Vincent De Paul Socy,7 Martin St,Ballina,NSW,2478,(02) 6686 4072,,,,,,,,,
Religious Organisations,St Vincent de Paul Socy,42 The Parade,Tumbarumba,NSW,2653,(02) 6948 2854,,,,,,,,,
Religious Organisations,Sukyo Mahikari (Sydney Centre),87 Stanley St,Chatswood,NSW,2067,(02) 9413 3644,,,,,,,,,
Religious Organisations,Sukyo Mahikari Brisbane,,Brisbane,QLD,4000,(07) 3855 3400,,,,,,,,,
Religious Organisations,Sukyo Mahikari Canberra Centre,3 Mulley St,Holder,ACT,2611,(02) 6287 1481,,enquiries@sukyomahikari.org.au,http://www.sukyomahikari.org.au,,,,,,
Religious Organisations,Sukyo Mahikari Nowra,,Nowra,NSW,2541,(02) 4447 8338,,,,,,,,,
Religious Organisations,Summerland Christian School,Pineapple Rd,Goonellabah,NSW,2480,(02) 6624 2711,,,,,,,,,
Religious Organisations,Sunshine Coast Revival Fellowship,17-23 Stark Lane,Forest Glen,QLD,4556,(07) 5442 1550,,,,,,27 799 760 456,Active,Trading Name,99% ABN Accuracy
Religious Organisations,Sutherland Spiritual Church,104 Woronora Crst,Como,NSW,2226,(02) 9528 2376,,,,,,,,,
Religious Organisations,Swedenborg Book Room,22 Dudley St,Penshurst,NSW,2222,(02) 9580 1589,,,,,,59 000 171 200,Active,Business Name,99% ABN Accuracy
Religious Organisations,Sydney Anglican Schools Corporation,102/ 9 Gloucester Rd,Hurstville,NSW,2220,(02) 8567 4000,,,,,,63 544 529 806,Active,Business Name,99% ABN Accuracy
Religious Organisations,Sydney Anglican Schools Corporation,Level 1 420 Forest Rd,Hurstville,NSW,2220,(02) 8567 4000,,,www.sasc.nsw.edu.au,,,63 544 529 806,Active,Business Name,99% ABN Accuracy
Religious Organisations,Teen Missions International Australia Ltd,761 McKinnon Dr,Tewantin,QLD,4565,(07) 5449 9765,,,,,,25 010 725 881,Active,Entity Name,99% ABN Accuracy
Religious Organisations,The Bahai Faith,5 Mengel St,South Mackay,QLD,4740,(07) 4944 0547,,,,,,,,,
Religious Organisations,The Father's House Christian Healing Centre,44 Wilson St,Lawson,NSW,2783,0438 948 499,,info@thefathershouse.com.au,http://www.thefathershouse.com.au/,,,,,,
Religious Organisations,The Green Cathedral,Booti Booti National Park,Tiona,NSW,2428,0490 143 995,,bookings@greencathedral.org.au,,,,,,,
Religious Organisations,The Jagelman Institute,30 Cowper St,Parramatta,NSW,2150,(02) 8893 9092,,,,,,,,,
Religious Organisations,The Pines-Training Centre,102 Buderim Pines Dr,Buderim,QLD,4556,(07) 5477 5070,,,,,,35 010 930 408,Active,Other Name,99% ABN Accuracy
Religious Organisations,The Salvation Army - Sydney Heritage Centre,120 Kingland Rd,Bexley North,NSW,2207,(02) 9502 0424,,,,,,,,,
Religious Organisations,The Salvation Army Corps,100 Boyce Rd,Maroubra,NSW,2035,(02) 9344 7974,,,,,,,,,
Religious Organisations,The Society Of Aust Congregations Of The Presentation Of The Blessed Virgin Mary,23 Holborow St,Croydon Park,NSW,2133,(02) 9797 6593,,,,,,,,,
Religious Organisations,The Spiritual Assembley Of Bahais Of The City Of Brisbane,21 Child St,Ipswich,QLD,4305,(07) 3282 4285,,,,,,,,,
Religious Organisations,The Wayside Chapel,29 Hughes St,Potts Point,NSW,2011,(02) 9581 9100,(02) 9356 3931,mail@thewaysidechapel.com,www.thewaysidechapel.com,,1964,88 125 771 587,Active,Business Name,99% ABN Accuracy
Religious Organisations,Theosophical Education & Retreat Centre,2115 Springbrook Rd,Springbrook,QLD,4213,(07) 5533 5211,,,,,,,,,
Religious Organisations,Thornlands Christian Gospel Church,131 Boundary Rd,Thornlands,QLD,4164,0455 573 901,,christiangospelcentre@yahoo.com.au,,,,,,,
Religious Organisations,Tibetan Buddhist Society of Canberra Inc,25 Alderman St,Evatt,ACT,2617,(02) 6238 2088,,,,,,,,,
Religious Organisations,Tien Tak Religious (Australia) Incorp Assoc,24 Allenby Park Parade,Allambie Heights,NSW,2100,(02) 9938 6415,,,,,,,,,
Religious Organisations,Toormina Road Methodist Church,234 Sawtell Rd,Toormina,NSW,2452,0468 543 525,,office@rodneyfox.com,http://www.ebcfellowship.com.au,,,,,,
Religious Organisations,Trinity Baptist Church,115 Progress Rd,White Rock,QLD,4868,(07) 4036 2449,,,,,,19 058 968 277,Active,Entity Name (Historic),99% ABN Accuracy
Religious Organisations,Trustees Of Capuchin Fathers Religious,96 Catherine St,Leichhardt,NSW,2040,(02) 9564 2711,,,,,,,,,
Religious Organisations,Trustees Of The Redemptorist Fathers,24 Garden St,Kogarah,NSW,2217,(02) 9553 3777,,,,,,23 152 266 720,Active,Entity Name (Historic),99% ABN Accuracy
Religious Organisations,Tuggernong Church Of Christ,152 Langdon Ave,Wanniassa,ACT,2903,(02) 6231 8332,,,,,,,,,
Religious Organisations,Turning Point Ministries,42 Richland Ave,Coopers Plains,QLD,4108,(07) 3274 2144,,,,,,,,,
Religious Organisations,UCA Presbytery of South Moreton,Unit 106/ 58 Manila St,Beenleigh,QLD,4207,(07) 3807 7421,,,,,,,,,
Religious Organisations,United Arab Moslem Asscn The,35 Anzac St,Greenacre,NSW,2190,(02) 9790 3622,,,,,,,,,
Religious Organisations,United Bible Societies,Level 4/ 126 Barry Parade,Fortitude Valley,QLD,4006,(07) 3112 6525,,,,,,60 078 720 706,Active,Entity Name,99% ABN Accuracy
Religious Organisations,Uniting Care QLD,L 5 193 North Qy,Brisbane,QLD,4000,(07) 3025 2000,,,,,,,,,
Religious Organisations,Uniting Care Regional Mission,80 Keen St,Lismore,NSW,2480,(02) 6621 5801,,,,,,,,,
Religious Organisations,Urban Life Church,814-822 Old Illawarra Rd,Menai,NSW,2234,(02) 9532 1611,,,http://www.urbanlife.net.au,,,30 251 195 188,Active,Entity Name,99% ABN Accuracy
Religious Organisations,Vijayaloka Buddhist Retreat Centre,,Minto,NSW,2566,(02) 9603 9603,,,,,,,,,
Religious Organisations,Vineyard Christian Fellowship Pine Rivers,36-38 Paisley Dr,Lawnton,QLD,4501,(07) 3285 7500,,,,,,,,,
Religious Organisations,Vision One Incorporated,40 Burton Lane,Samford,QLD,4520,(07) 3289 2888,,,,,,,,,
Religious Organisations,Wagga Wagga Baptist Church,154 Tarcutta St,Wagga Wagga,NSW,2650,(02) 6931 7322,,,,,,98 211 009 941,Active,Trading Name (Historic),99% ABN Accuracy
Religious Organisations,Wat Buddhalavarn Inc Forest Monastery & Meditation Centre,Lot 12 Minerva Rd,Wedderburn,NSW,2560,(02) 9370 5901,,,,,,,,,
Religious Organisations,Wauchope Seventh-day Adventist Church,12 Sarahs Cres,King Creek,NSW,2446,0428 321 172,,wauchope.sda@gmail.com,http://www.wauchopesda.org/index.php,,,,,,
Religious Organisations,Way Of Australia The,31 Gilbert St,North Parramatta,NSW,2151,(02) 9683 2712,,,,,,,,,
Religious Organisations,Westside Church Incorporated,Unit 1/ 4 Wiltona Pl,Girraween,NSW,2145,(02) 9631 7698,,admin@westsidechurch.com.au,www.westsidechurch.com.au,,,62 950 239 740,Active,Entity Name,99% ABN Accuracy
Religious Organisations,Wilcannia Sisters of Mercy,Mercy House Barrier Hwy,Wilcannia,NSW,2836,(08) 8091 5966,,,,,,,,,
Religious Organisations,Word of Faith International Church,519 Mt Petrie Rd,Mackenzie,QLD,4156,(07) 3216 8033,,,,,,,,,
Religious Organisations,WorldShare,Unit 1/ 61 Great North Rd,Five Dock,NSW,2046,(02) 9712 8222,,,,,,16 001 441 103,Active,Entity Name,99% ABN Accuracy
Religious Organisations,Youth With A Mission (YWAM),76 Federal Hwy,Watson,ACT,2602,(02) 6241 5500,,,,,,,,,
Religious Organisations,Zionist Federation of Australia (2FA),Floor 3 146 Darlinghurst Rd,Darlinghurst,NSW,2010,(02) 9360 9938,,,,,,,,,
